,name,address,lat,long
0,테이블에이 본점,서울 마포구 와우산로 146 그레이스빌딩 1층,37.5540613957287,126.929516828819
1,다온펫샵,서울 마포구 신촌로14길 20 태인빌딩 1층,37.5551950034624,126.933348363328
2,애디앤루이스,서울 마포구 성미산로 160 1층,37.5644543079065,126.924002869673
3,폴리파크 홍대점,서울 마포구 동교로 192-1,37.5572670772787,126.922782888087
4,개밥하우스 마포점,서울 마포구 월드컵북로 109,37.5629022890294,126.913577767188
5,스프링펫 동교본점,서울 마포구 양화로 189,37.5586101177621,126.925755030827
6,펫하우스,서울 마포구 월드컵로 149 1층,37.5609655694352,126.905318082006
7,크루마이즈,서울 마포구 마포대로4라길 30-5 1층,37.5369840762955,126.946191194199
8,망원휴개소,서울 마포구 희우정로 77,37.5531438107082,126.902740349904
9,펫다이어리,서울 마포구 방울내로 44,37.5589137955138,126.900682281392
10,도기랑냥이랑 합정점,서울 마포구 독막로 17-1,37.548722290033,126.915552203458
11,강아지미용실왕왕,서울 마포구 마포대로11길 92 1층,37.5489187358859,126.949292008853
12,페스룸,서울 마포구 양화로11길 12 현담빌딩 1층,37.5520862436414,126.916165967137
13,오마이리틀베이비,서울 마포구 포은로2가길 6 2층,37.5513753172353,126.907774739021
14,펫고리,서울 마포구 성미산로29길 30-3 지하1층,37.5654966588619,126.922187398572
15,몽냥몽냥,서울 마포구 양화로 122 1층,37.5540720468966,126.920603903509
16,반려독,서울 마포구 망원로1길 22 장수필하우스 1층 102호,37.557392719844,126.900026633035
17,꼬떼아꼬떼,서울 마포구 월드컵로11길 74,37.5537919759512,126.906973906793
18,장보는강아지와고양이 롯데슈퍼 마포점,서울 마포구 토정로 193,37.5458361570522,126.932559379744
19,마이펫글리,서울 마포구 성미산로1길 5,37.5583899993121,126.908542606773
20,베라펫,서울 마포구 홍익로3길 7 104호,37.5539791630059,126.92224204071
21,오복파티,서울 마포구 성미산로26길 37 102호,37.5623073119596,126.923426455471
22,멍이방앗간,서울 마포구 포은로 37,37.5508211681742,126.907384319009
23,강아지고양이편의점 연남점,서울 마포구 동교로46길 40,37.5621562345682,126.926722965806
24,바이도기,서울 마포구 와우산로21길 21-16 아트코빌딩 2층,37.5516839142411,126.922170866363
25,펫모아 마포점,서울 마포구 신촌로 254,37.5570259403976,126.953972104306
26,도그원펫센터 망원점,서울 마포구 월드컵로13길 9,37.5555868459179,126.909750991276
27,강아지고양이편의점 망원점,서울 마포구 포은로 65,37.5531263854108,126.906147123288
28,팀버울프코리아,서울 마포구 성산로2길 45 2층,37.5630318822623,126.905053670626
29,우프바이베럴즈 합정점,서울 마포구 월드컵로3길 14 딜라이트스퀘어 B동 지하1층,37.5510079695241,126.91164899787
30,펫타운,서울 마포구 월드컵로25길 69,37.5576096651349,126.903915543401
31,하니펫아지천국,서울 마포구 월드컵로25길 48 1층,37.5580524176292,126.90503237395
32,씨엘펫애완용품,서울 마포구 창전로 48-1,37.5466685090917,126.932575603897
33,러브펫,서울 마포구 포은로 88,37.5548885831921,126.905390392478
34,루이비독,서울 마포구 망원로 49 지하 1층,37.5569366788775,126.902230770601
35,행복식탁,서울 마포구 와우산로29길 56-10 B01호,37.5562848323936,126.92736136152
36,댕과댕빵,서울 마포구 백범로 66 2층,37.549060278655,126.938997751822
37,강아지고양이편의점 망원한강점,서울 마포구 망원로 1-4 5호,37.5559663740864,126.897013014735
38,누우띠,서울 마포구 성미산로 147 104호,37.5641886000467,126.922747108392
39,페슈,서울 마포구 성지5길 5-15 벤처빌딩 203호,37.5463863326372,126.914014622988
40,멍뭉샵,서울 마포구 동교로 57-4,37.5535832345103,126.90873091196
41,몽테,서울 마포구 성미산로 190-25 제지층 01호,37.5625675832446,126.925926878667
42,아베크인터내셔날,서울 마포구 독막로8길 28,37.5467515966734,126.917679801131
43,댕냥슈퍼,서울 마포구 숭문길 32,37.547937064944,126.945574962965
44,니쿠큐,서울 마포구 와우산로 150,37.5543032457523,126.929856794894
45,피앤피스토리,서울 마포구 성미산로1길 74 2층,37.5609513349031,126.906563664013
46,얌얌,서울 마포구 성미산로3길 24 지하1층,37.5594458444855,126.909317500354
47,도그베이커리,서울 마포구 망원로 74,37.5572258907747,126.904979777478
48,스테이튠드,서울 마포구 월드컵북로 30 401호,37.5573599416881,126.919370642295
49,퍼피핸드,서울 마포구 동교로8길 35 101호,37.5504537766281,126.905608636865
50,펫그로서리,서울 마포구 광성로6길 56 노블하우스 1층 101호,37.5476246583226,126.939759819781
51,토피토피,서울 마포구 마포대로 12,37.5378661337098,126.944393563398
52,로렌츠,서울 서대문구 수색로 43,37.5697923083984,126.913352472426
53,라니펫,서울 서대문구 남가좌동 277-2,37.5697923083984,126.913352472426
54,도기랑냥이랑 응암점,서울 서대문구 응암로 139 1층,37.5847754701129,126.914576654263
55,펫마트 홍은점,서울 서대문구 가좌로 110 1층,37.5824825947261,126.926298306929
56,예일애견용품분양,서울 서대문구 거북골로 13,37.58067969364,126.925845653146
57,보보스퍼피,서울 서대문구 증가로 115,37.5768683171311,126.924578019196
58,벅구베이크 연희점,서울 서대문구 연희로 82 1층 A동 104호,37.5652150141365,126.930272944582
59,도기랑냥이랑 신사점,서울 은평구 증산로 413 1층,37.5931409230026,126.913846721415
60,행복한동물병원,서울 양천구 공항대로 636 1층,37.5466173694436,126.875347713094
61,폴리파크 신촌점,서울 서대문구 신촌로 91,37.5555881567103,126.936375179362
62,하룻강아지,서울 강서구 양천로 713 대영빌딩 705호,37.5498405882542,126.875250908344
63,매일매일,서울 영등포구 양평로22길 25 201호,37.5400389729742,126.895371054445
64,도그맘,서울 은평구 응암로13길 27 2층,37.5886603286877,126.914395246145
65,토마네애견용품,서울 서대문구 연희로 227 러브아트빌딩 203호,37.5773962459606,126.935427881539
66,데어바이,경기 고양시 덕양구 덕은3로 6 1층,37.5876062057949,126.875468131989
67,펫푸드스토리,서울 은평구 가좌로 212-12,37.5897582523681,126.918691906331
68,펫블라썸,서울 은평구 응암동 126-21 B102호,37.5897582523681,126.918691906331
69,유앤비컴퍼니,서울 강서구 양천로63길 38,37.5570108264228,126.865890760617
70,봄이랜드,서울 은평구 가좌로 333 지하층,37.5965777184673,126.908298065285
71,멍콩까까,서울 은평구 은평터널로 196 지하 1층,37.5958276437388,126.909113934102
72,개상전 애견용품점,서울 은평구 은평로 22,37.5977484830605,126.910550844624
73,알파펫,서울 양천구 공항대로 540 2층,37.5502322894506,126.865834328557
74,더펫샵,서울 은평구 은평로 22,37.5977484830605,126.910550844624
75,도리도리펫샵,서울 은평구 응암로 279 삼흥리치아파트 1층,37.5967707838089,126.919382941896
76,울지마마이펫,서울 강서구 양천로 551-17 1205호,37.5591095584309,126.860941198154
77,도그버디 목동점,서울 양천구 목동중앙북로 11,37.5486566688707,126.864767649096
78,펫츠도어,서울 서대문구 신촌로 169-7 105호,37.5571062116448,126.944522097292
79,예뻐할개,서울 서대문구 홍제내길 152,37.5886243701652,126.937503534345
80,크로스앰,서울 강서구 화곡로68길 82 강서아이티밸리 309호,37.5575393170801,126.858301786025
81,집사들,서울 영등포구 선유로43가길 24,37.5314273419218,126.892011715654
82,댕저트,경기 고양시 덕양구 향기로 123 센타프라자 2층 208호,37.6006763101675,126.894275739478
83,강아지고양이편의점 목동점,서울 양천구 목동중앙로 97,37.5378165389603,126.872597966008
84,블루맘,서울 양천구 목동중앙로7길 51 1층,37.5392029751142,126.870506768445
85,멍멍옷,서울 양천구 목동중앙북로8라길 20,37.5464758058165,126.864064114354
86,링트리,서울 강서구 공항대로 461-12,37.5544286611724,126.858707511656
87,펫마인드,서울 강서구 양천로 482 삼부르네상스오피스텔 1층 106호,37.5612628471993,126.853925567309
88,하룻강아지,서울 영등포구 영중로 140 드림플라자 5층 A-7호,37.5287711237899,126.906055915668
89,레드퍼피,서울 영등포구 국회대로 553,37.5285650253773,126.896111923991
90,알모네이쳐코리아,서울 강서구 화곡로68길 15 아벨테크노 808호,37.5594550069449,126.855322786915
91,개밥 하우스,서울 양천구 등촌로 114,37.540143665838,126.864055243899
92,모모펫,서울 은평구 역말로 54,37.6058090220152,126.91646516575
93,멍박사 강서점,서울 강서구 까치산로 152,37.5507605112802,126.85243857964
94,오케이펫코리아,서울 영등포구 영등포로25길 28-1,37.5235140745658,126.898466046808
95,vet7,서울 은평구 은평로13길 10 신풍빌딩 6층,37.6021582311289,126.925655832128
96,도그버디 불광점,서울 은평구 진흥로 147-1,37.6088055098409,126.926016272866
97,홈독애견마트 홍제점,서울 서대문구 통일로 397 인왕산 한신휴플러스 1층,37.5851683009936,126.947398082336
98,지지독,서울 양천구 신목로6길 34 1층,37.5215507807127,126.875568046623
99,강아지와고양이나라 불광점,서울 은평구 통일로 790 1층,37.615230520763,126.925968000044
100,해피펫,서울 은평구 연서로17길 18-5,37.6133892650532,126.915762963177
101,란스,서울 양천구 목동중앙남로 21,37.5359462132647,126.867815843787
102,도그브레드,서울 강서구 등촌로13길 35,37.5353813703579,126.861290416211
103,이펫 마곡본점,서울 강서구 강서로 433 마곡오드카운티2차 1층,37.5643984476205,126.839657569467
104,밥 애완용품전문점 목동점,서울 양천구 목동로15길 5 1층,37.5240240574883,126.86406605909
105,펫플러스,서울 강서구 국회대로 171,37.5288924491992,126.854034307781
106,도그스푼,서울 서대문구 홍은중앙로3길 22 1층,37.5984207350611,126.946030459435
107,콩이네애완용품할인매장,서울 강서구 강서로 40 1층,37.5315258019571,126.847124984298
108,스프링펫 서대문점,서울 서대문구 통일로 185-1,37.5700638342824,126.962164074814
109,머슬펫,서울 강서구 화곡로 286-1 1층,37.5499421125686,126.84829699849
110,위펫,서울 은평구 서오릉로 234,37.6157182368851,126.908628063567
111,와와유통,서울 영등포구 영등포로37길 26,37.5224376258959,126.905835687467
112,루미앤비비,서울 서대문구 모래내로 464 105호,37.5856733551728,126.946303237991
113,BOB 영등포점,서울 영등포구 신길로 243 1층,37.5137050164499,126.91083075055
114,냥이와멍이상점,서울 강서구 까치산로 30 1층 4호,37.5422114325326,126.843785968191
115,뮤니쿤트,서울 서대문구 통일로 484 서대문구신지식산업센터 311-1호,37.5916067956367,126.942941762759
116,프리미엄 바이마이디어,서울 강서구 강서로56가길 55 1층,37.5620691021444,126.840254510112
117,티제이코리아,서울 영등포구 경인로112길 4 1층,37.5180067782145,126.913265560458
118,리프패럿 앵무새체험관카페 신정점,서울 양천구 은행정로 13 성광빌딩 5층 B호,37.520821708788,126.859744426786
119,펫죤상사,서울 강서구 국회대로7길 34,37.5301474481464,126.8589988294
120,도그원펫센터,서울 은평구 연서로29길 24 지층,37.6196145998156,126.91774666938
121,어니스트밀,서울 은평구 통일로 715 9층 은평사회적경제혁신밸리센터 11호,37.609413947696,126.930308376671
122,우리동네펫,서울 서대문구 세검정로 49,37.5925233273891,126.946495788896
123,잇츠써니아웃사이드,서울 영등포구 선유서로 128 양평역대우미래사랑 A동 803호,37.5273742165668,126.887127928963
124,대주통상,서울 서대문구 통일로 484 유진상가 320호,37.5916067956367,126.942941762759
125,멍냥이와산다,서울 강서구 공항대로41길 75 경원프라자 104호,37.5611486390411,126.846360147398
126,서촌양품,서울 종로구 사직로9길 6-1,37.5765319997528,126.968668519704
127,반려동물용품백화점 용산점,서울 용산구 새창로14길 48 1층,37.5374607506125,126.959373963365
128,퍼니퍼피샵,서울 강서구 곰달래로 245,37.5321336547782,126.860245944432
129,고양이나무,서울 강서구 까치산로 46 1층,37.5432052798938,126.844982995346
130,애견사료용품,서울 강서구 국회대로7길 50,37.5300345661857,126.858107312911
131,미소캣,서울 은평구 녹번로 37,37.6054175936871,126.928923559253
132,동부상사,서울 영등포구 영등포로33길 23,37.5225624232148,126.902842618833
133,간식나무,서울 영등포구 선유서로 67 1층 115호,37.5220933827385,126.884455098241
134,펫소드,서울 영등포구 경인로79길 20,37.5136242001867,126.893536081231
135,마리펫,서울 양천구 신정중앙로 20,37.5275893545701,126.853688968603
136,펫리미엄,서울 은평구 갈현로 269 1층,37.6208632791421,126.916337997182
137,다스블라우,서울 강서구 양천로 401,37.5657010514328,126.84764409296
138,수양애완용품 용산점,서울 용산구 새창로 126,37.5363296701581,126.960812077266
139,뽀송펫,서울 은평구 갈현로 211,37.6162009840852,126.913773683568
140,스프링펫 용산점,서울 용산구 새창로14길 48,37.5374607506125,126.959373963365
141,춘펫샵,서울 은평구 통일로61길 7,37.6065521640163,126.932214564901
142,애견샵,서울 은평구 통일로 803,37.6156648236108,126.924446086946
143,애견용품도매상가,서울 중구 퇴계로 39 2층,37.5579707776782,126.976935736774
144,똑똑한 독,서울 영등포구 신길로60마길 4-1,37.5135306447635,126.912846125755
145,나니스펫푸드,서울 종로구 자하문로 298 1층,37.5994292080159,126.96005562937
146,투비펫,서울 강서구 양천로 401 B-1012,37.5657010514328,126.84764409296
147,작은손아린맘,서울 양천구 신목로 45-1,37.5192769363727,126.872624290276
148,에스브이디씨,서울 영등포구 국제금융로 10 IFC몰 2층,37.5251775245928,126.924876706923
149,루이독 현대백화점 목동점,서울 양천구 목동동로 257 지하2층,37.5271978737652,126.874691181758
150,블루페블즈,서울 강서구 공항대로 219,37.5596348826715,126.83201084043
151,샤워앤독,"서울 구로구 경인로 638 신도림sk뷰 상가 1,2층",37.5066879494962,126.886233021799
152,이노뱅크,서울 강서구 국회대로7길 50,37.5300345661857,126.858107312911
153,깜순이네,서울 강서구 강서로17길 15,37.5330210078672,126.844910510542
154,개빵집,서울 영등포구 양산로 138 1층,37.523656557962,126.898192656179
155,멍양사,서울 강서구 강서로62길 98 1층,37.5616988297823,126.845014067467
156,더쉘,서울 용산구 효창원로86나길 7-1,37.5474137371209,126.965322199724
157,나우위,서울 영등포구 여의대방로65길 6 15층,37.5191897704113,126.930532981926
158,반하츠,서울 영등포구 영등포로84길 3 트라빌 504호,37.512826714229,126.922305905747
159,퍼피짱,경기 고양시 덕양구 용두로47번안길 110 2층,37.6210488114863,126.891762486669
160,컴펫라이프,서울 영등포구 국제금융로6길 33 1216호,37.5207908297398,126.926911965929
161,독바위펫,서울 은평구 불광로 114 1층,37.616878158576,126.932900081212
162,영원히지켜줄개,서울 강서구 가로공원로 184-2 2층,37.5368056275965,126.836472460291
163,펫츠홈,경기 고양시 덕양구 서오릉로 452 1층,37.627896931354,126.890385796484
164,콜링코리아,서울 강서구 초록마을로 149-12,37.5360022031187,126.84807315695
165,개이버,서울 영등포구 도림로 462 국화아파트 상가 3층,37.5157785131531,126.892358225379
166,강아지세상,서울 서대문구 홍은중앙로 114,37.6004609225263,126.949034301811
167,가원펫애견샵,서울 양천구 신월로 220,37.5213500292993,126.846604008329
168,캣그린스,서울 강서구 공항대로 220 917호,37.5587038045971,126.831765636495
169,토토팬시,서울 중구 퇴계로 39 영창상가 3층 2호,37.5579707776782,126.976935736774
170,개밥주는고양이 신길점,서울 영등포구 가마산로 394 성락빌딩 1층,37.5030623066737,126.901044362245
171,멍멍신도시,서울 강서구 곰달래로 85,37.5304297973358,126.842307312074
172,옥희독희,서울 강서구 공항대로 220 우성에스비타워2 10층 1017호,37.5587038045971,126.831765636495
173,멍냥개냥,서울 양천구 신월로36길 19 2층,37.5199585483671,126.85868599823
174,와이독,서울 용산구 원효로41가길 10,37.5344461083962,126.957623600944
175,BOB애완용품 서울본점,서울 양천구 국회대로 45,37.5267753028358,126.839804199784
176,튼튼펫 연신내점,서울 은평구 연서로 267-1,37.6206046142487,126.924359532368
177,허그허그,서울 양천구 오목로 157 1층,37.5250010673297,126.854873035796
178,스튜디오코지,서울 강서구 마곡중앙2로 35 619호,37.5579650314969,126.830661784149
179,달키애견,서울 강서구 강서로45길 174 SM타워 B08호,37.552871895432,126.830611291758
180,리틀콜린,서울 용산구 원효로89길 19 3층,37.5407223397542,126.9680711366
181,수제간식 얌,서울 양천구 신정동 1194-5 상가동 103호,37.5221275008233,126.848205594452
182,빵댕잇,서울 종로구 자하문로1길 49-24 1층,37.5764654380816,126.969439135095
183,애완용품할인마트,서울 용산구 한강대로 58,37.5257838771383,126.965044302329
184,쥬비코,서울 중구 퇴계로2길 15 지하 1층,37.5569515715854,126.977412520322
185,인터펫,서울 강서구 국회대로 55,37.5269716118847,126.840990176516
186,호키포키,서울 강서구 마곡서로 175 상가동 103호,37.568908134597,126.824232519697
187,두원실업,서울 강서구 마곡중앙1로 26 마곡엠리체 605~608호,37.5586282971172,126.823855000993
188,젠틀펫몬스터,서울 영등포구 가마산로34길 3 우성빌딩 1층,37.4985920572607,126.896419669541
189,스투키펫,서울 종로구 인사동길 24 덕원빌딩 1층,37.5729455534909,126.986508391151
190,포먼트,서울 강서구 공항대로 212 퀸즈파크11 A동 1007호,37.5588248070734,126.831007635455
191,슈퍼펫,서울 중구 명동4길 18,37.5619452953901,126.990151025417
192,론이네무인애완용품할인점,서울 강서구 가로공원로76길 100,37.5328236634124,126.83883535208
193,네스트원랩,서울 은평구 갈현로 334 2층,37.6260962611683,126.918729484571
194,강군,서울 영등포구 여의대방로53나길 33-1,37.5104454818182,126.920860286168
195,아더펫,서울 영등포구 가마산로 401,37.5036694903534,126.901363054562
196,개과천선,서울 양천구 월정로 177,37.5344246148128,126.835477149426
197,웰빙상사,서울 강서구 강서로45길 174 수명산타워 B-08호,37.552871895432,126.830611291758
198,유어마이펫,서울 강서구 마곡서로 152 B동 216호,37.5677107355183,126.825645363269
199,댕큐베리,서울 강서구 마곡서로 101 동익드미라벨 854호,37.5626706927393,126.823605646871
200,멍이랑냥이랑,서울 영등포구 여의대방로 185 1층,37.5036461745586,126.921453522389
201,BOB,서울 양천구 곰달래로6길 8,37.5291532072482,126.834949646975
202,펫마트 양천점,서울 양천구 신월로 134,37.5165683438161,126.838840793718
203,제이엔제이,서울 중구 퇴계로 39 3층 52호,37.5579707776782,126.976935736774
204,야옹아놀자 마곡점,서울 강서구 마곡중앙로 161-1 2층 210호,37.5678656599047,126.827453357716
205,강아지고양이편의점 신정점,서울 양천구 중앙로43길 14 래미안목동아델리체 단지내상가 121동 1층 112호,37.5204176021651,126.851340568488
206,투스투스,서울 용산구 한강대로 170 2층,37.5337932010794,126.972766598287
207,톤온펫,서울 중구 퇴계로 39 영창상가 3층 50호,37.5579707776782,126.976935736774
208,쿠나이앤티,서울 종로구 평창4길 78 1층,37.6138322416824,126.964541700778
209,견생냥품24시 삼청동점,서울 종로구 삼청로 131 2층,37.5870912885727,126.981493533644
210,에스케이펫,서울 동작구 대방동15가길 20-3,37.5036168893952,126.923927846567
211,다줄,서울 용산구 서빙고로 17 용산센트럴파크해링턴스퀘어 2층 98호,37.5269056148241,126.966566172294
212,멍멍대학,서울 강서구 마곡서로 133 712동 1층 104호,37.5645561030039,126.823838667719
213,비엔에스통상,서울 중구 퇴계로 39,37.5579707776782,126.976935736774
214,리케이 본사,서울 구로구 경서로 81 리케이빌딩 3층,37.5041325993089,126.860656669195
215,오파프,서울 용산구 한강대로 211,37.5371833578375,126.972600285793
216,콩이오빠동물약국,서울 구로구 경인로47길 126 1층,37.5042090603849,126.863482453949
217,독바위펫 연신초교점,서울 은평구 연서로37길 40-1,37.6248029278503,126.927637973216
218,애견용품도소매,서울 구로구 구로동로 235,37.4995181430572,126.882220878178
219,골든스푼,서울 영등포구 신풍로 86,37.4998220428844,126.915584686609
220,얌 펫푸드스튜디오,서울 양천구 중앙로29길 120-13 상가동 103호,37.5220071287209,126.84799678752
221,도기랑냥이랑 신대방점,서울 동작구 상도로 49,37.5000374989913,126.926256035768
222,메이드바이핸드,서울 동작구 노량진1동 215-30,37.5000374989913,126.926256035768
223,바비펫샵,경기 고양시 덕양구 서정마을로 5 행신프라자 105호,37.6183692104922,126.846944971787
224,펫탑,서울 용산구 후암로4길 7,37.5468181782353,126.978611116938
225,개구쟁이,서울 동작구 매봉로 169,37.5119312899936,126.951685855055
226,멋지고이쁜개,서울 강서구 금낭화로 30,37.5679906733633,126.81190974438
227,펫네이처,서울 중구 삼일대로 343 16층,37.5651004556362,126.986959615068
228,개밥하우스 공항점,서울 강서구 공항대로 49-2 1층,37.5614295304933,126.813039613702
229,장승애견,서울 동작구 상도로 171,37.5044623904547,126.93794821936
230,트윈펫,경기 고양시 덕양구 충경로 135,37.6159284930833,126.84409807889
231,꼬리치는강아지 상도점,서울 동작구 성대로 23,37.4996378351879,126.932946211731
232,개밥,서울 용산구 소월로20길 30-1 1층,37.5452107250526,126.985205738539
233,냥이용품아트호텔,서울 영등포구 신길로 70,37.4986839232013,126.908603600002
234,아남실업,서울 양천구 남부순환로 552 4층,37.5193058651287,126.838054387742
235,개밥파는고양이 마곡점,서울 강서구 공항대로 103 마곡엠벨리9단지아파트 907동 상가 1층,37.56230033929,126.819169157728
236,그냥가개,경기 고양시 덕양구 도래울2로 9-1 1층 102-1호,37.6301322413257,126.870437414392
237,견생냥품 무인 24시 삼청동점,서울 종로구 삼청로 131 2층,37.5870912885727,126.981493533644
238,공개수배,서울 양천구 남부순환로83길 47,37.5188460168384,126.844576857258
239,씨유펫 고양도내점,경기 고양시 덕양구 도래울3로 24 102호,37.6303267353328,126.872145554012
240,꼬리치는강아지,"서울 동작구 상도로 250 1층,지하1층",37.5046055634855,126.946225072088
241,주주스토리,서울 양천구 남부순환로 585 유림웰스빌 103호,37.5167968812069,126.839932652336
242,위글도기,서울 동작구 상도로 258-1,37.5040225981696,126.946589545196
243,어센틱어카운트,서울 용산구 신흥로20길 20-3 1층,37.5466565773818,126.984649384237
244,제이드펫,서울 구로구 경서로 81 현대빌딩 5층,37.5041325993089,126.860656669195
245,딕시 고양지점,경기 고양시 덕양구 도래울2로 9-1 1층 102-1호,37.6301322413257,126.870437414392
246,봄애완용품,경기 고양시 덕양구 충장로 2,37.6131347683792,126.834481403206
247,지니펫,서울 양천구 지양로11길 13 1층,37.5216463980389,126.832054306978
248,멍멍펀치,서울 동작구 노량진로32길 156,37.5093959845551,126.954485903033
249,정군개사랑,서울 구로구 고척동 52-58,37.5021975053932,126.864132555257
250,콜리올리 롯데마트 은평점,서울 은평구 통일로 1050,37.6375366740938,126.917900261732
251,감성그루밍,서울 마포구 백범로15길 11 1층,37.5479640675897,126.943033776782
252,라니펫,서울 서대문구 남가좌동 277-2,37.5925233273891,126.946495788896
253,펫블라썸,서울 은평구 응암동 126-21 B102호,37.5967707838089,126.919382941896
254,중앙애견,서울 중구 퇴계로 252-2,37.5623324138456,126.999851729257
255,푸드마스터그룹,서울 종로구 혜화로 5,37.5861653463476,127.000489222968
256,마이펫코리아,서울 중구 을지로 248 대광빌딩 303호,37.5661640361839,127.005642047306
257,야옹아멍멍해봐 성북점,서울 성북구 삼선교로24길 3,37.5896944698178,127.015107750908
258,참피온애견,서울 중구 퇴계로 223,37.5620445866146,126.996598274791
259,점푸캣,서울 종로구 혜화로 26-1 3층,37.58799301124,126.99991995161
260,스몰스터프,서울 용산구 회나무로13나길 42-1 101호,37.5413798054741,126.992226677584
261,동대문애완용품도매할인,서울 종로구 종로 290,37.5710999910941,127.010474235251
262,강아지고양이편의점 한성대점,서울 성북구 동소문로6길 20-5,37.5880974164435,127.008276584879
263,덴티스츠 어포인트먼트,서울 용산구 회나무로42길 4,37.5407309080471,126.995848259419
264,스프링펫 창신점,서울 종로구 종로51길 16,37.5727219999928,127.011975261301
265,펫데렐라프로젝트,서울 용산구 회나무로26길 17,37.5392255255869,126.991106048855
266,마루펫,서울 중구 퇴계로 286 쌍림빌딩 617호,37.5630791952927,127.003593054737
267,H펫 현대시티아울렛 동대문점,서울 중구 장충단로13길 20 2층,37.568734553218,127.007666479829
268,펫클럽 청계점,서울 종로구 청계천로 331 1층,37.5701128512961,127.014774282566
269,뚜리까까,서울 성북구 동소문로2길 79 101호,37.589352801158,127.010175275269
270,올댓펫,서울 중구 동호로 204 동원빌딩 1층,37.5562803595797,127.009929714685
271,와와펫 동묘점,서울 종로구 종로 334,37.5725661688708,127.014792426279
272,라찌,서울 성북구 고려대로7마길 9 1층,37.5888974142252,127.019647531966
273,밀리블리,서울 성북구 동소문로6길 4-3 2층,37.5887651623261,127.007982276973
274,코지펫샵,서울 중구 청구로 65,37.5596299319031,127.014844873788
275,니모르,서울 성북구 삼선교로10나길 11,37.5864338528268,127.009100644143
276,네퓨레,서울 성북구 창경궁로 318 101호,37.5877347746814,127.004911466947
277,솔티핫티,서울 용산구 이태원로55길 45,37.5378635432395,126.998921824346
278,도기랑냥이랑 정릉점,서울 성북구 아리랑로 115,37.6020815726467,127.013609433224
279,요술강아지,서울 성북구 보국문로 74,37.6109478360516,127.009105782309
280,펫토맘,서울 성북구 삼선교로 40 4층,37.5881167366784,127.01009143535
281,도모토로,서울 중구 동호로12길 106 301호,37.5596875777348,127.01268020892
282,미니강아지,서울 중구 동호로 170-1,37.5536877346708,127.011920382769
283,강아지풀,서울 은평구 진관3로 70,37.6422598317106,126.923141080933
284,와와펫,서울 성북구 보국문로 34,37.6075064747011,127.010573677397
285,스프링펫 돈암점,서울 성북구 동소문로20길 22,37.5915867179931,127.016568096015
286,조스키친,서울 성북구 아리랑로 20,37.5946372498187,127.016254211928
287,다이렉트 펫,서울 종로구 지봉로 29 금호팔레스 10층,37.572523759891,127.015280872411
288,루피네 소품집,서울 용산구 보광로 114-5 지층 101호,37.533179665244,126.994655959307
289,마스터애견샵,서울 성북구 아리랑로 23 1층,37.5948836337981,127.015865649672
290,스펠,서울 성북구 보문로13나길 8,37.5798218250164,127.02156723035
291,아베크펫,서울 용산구 우사단로10길 61 B동 1층,37.5325356549062,126.998853678394
292,펫컷,서울 성북구 동소문로 155 2층,37.5961948257496,127.020659620326
293,메이드바이핸드,서울 동작구 노량진1동 215-30,37.5544286611724,126.858707511656
294,츄펫샵,서울 용산구 장문로45길 78,37.5294512622813,127.000184069133
295,메종드미우,서울 동대문구 난계로 252 2층,37.5741009194382,127.02366773372
296,프링,서울 성북구 정릉로 307 길음뉴타운10단지아파트 상가동 1층,37.6032285064084,127.017866208389
297,마이펫트너,서울 성동구 마장로 137 텐즈힐 상가 2층 2149호,37.5678250213491,127.025053595952
298,더세컨드로워&포코앤루시,서울 용산구 우사단로10길 87,37.532101107359,127.000238042506
299,커즈펫 금호점,서울 성동구 장터길 14-1,37.5482680961312,127.017358562191
300,펫티셰,서울 성동구 무학로 33 텐즈힐 156동 106호,37.5691641596929,127.02634785313
301,빌라드봉봉,서울 성동구 왕십리로 410 센트라스 J 127동 111호,37.566590498762,127.02408246322
302,펫블라썸,서울 은평구 응암동 126-21 B102호,37.609413947696,126.930308376671
303,라니펫,서울 서대문구 남가좌동 277-2,37.5768683171311,126.924578019196
304,장보는강아지와고양이 고양동산점,경기 고양시 덕양구 고양대로 2006,37.6468234231003,126.901685543503
305,삼송펫츠마트 삼송애완용품백화점,경기 고양시 덕양구 삼송로139번길 1,37.6527118748227,126.889266324739
306,펫클럽 하나로삼송점,경기 고양시 덕양구 동송로 20 하나로마트 2층 목우촌펫,37.6486347309103,126.89888009345
307,강아지 고양이 편의점 삼송점,경기 고양시 덕양구 동산동 369 1층 44호,37.6496127332999,126.896474087516
308,오모펫,경기 고양시 덕양구 세솔로 82 베아누빌 4층,37.6513781778545,126.888720862339
309,펫츠홈 삼송점,경기 고양시 덕양구 신원로2길 19 1층,37.6608862514997,126.890273275936
310,앨리케익,경기 고양시 덕양구 삼원로1길 26 102호,37.6456562651634,126.876200822889
311,장보는강아지와고양이 화계점,서울 강북구 삼양로 356 1층,37.6351270321293,127.017594233238
312,쥬파크 강북점,서울 강북구 삼양로 112-1,37.6138709555976,127.022327080006
313,솔샘펫아울렛,서울 강북구 솔샘로 226,37.619862487214,127.017792937329
314,애견용품 할인마트,서울 강북구 인수봉로 185-1,37.6363595648647,127.012818872263
315,테라펫,서울 강북구 월계로 7 유창빌딩 2층 212호,37.6097207341139,127.031070299824
316,와와펫 본점,서울 동대문구 제기로 85,37.5868945557318,127.042673542457
317,365 애완용품할인마트,서울 강북구 솔매로 113,37.6259746055232,127.024781517005
318,강아지고양이 수제간식&까페,서울 성동구 왕십리로24길 39,37.565963438513,127.034484015019
319,장보는강아지와고양이 엔터식스파크애비뉴점,서울 성동구 왕십리로 241 지하1층,37.5571543304982,127.04010502543
320,핑키밍키,서울 동대문구 무학로 114-1 4층 전층,37.5743705919627,127.031035683561
321,P마트,서울 성북구 오패산로 46,37.6074738406161,127.038709467417
322,펫플러스,서울 성북구 월곡로5길 68,37.5992881638709,127.036152802759
323,도그버디,서울 성동구 왕십리로21길 14,37.5612978205226,127.032864490866
324,펫블라썸,서울 은평구 응암동 126-21 B102호,37.6156648236108,126.924446086946
325,어몽앤디,서울 동대문구 안암로 104,37.5847679020217,127.031637562759
326,브릭브릭,서울 성동구 마장로23길 6-12 지하1층,37.5668608789934,127.032404324711
327,테일러독,서울 성북구 장위로 15,37.6135286969402,127.038621203854
328,와와유통물류센터,서울 동대문구 왕산로33길 55,37.5819071081068,127.041664794579
329,크럼페와앨리스,서울 강북구 숭인로 39 송천센트레빌 203동 102호,37.6127574210341,127.026678655065
330,봉봉맘,서울 강북구 삼양로80나길 69 던킨빌리지 상가 1호,37.6340756756655,127.020887511579
331,밸런스펫 수유시장점,서울 강북구 도봉로67길 18,37.6307289053601,127.022668132796
332,비비안나,서울 강북구 솔매로 136,37.6263773648139,127.027155223572
333,도기파크 미아점,서울 강북구 월계로7나길 8,37.6127716355319,127.033478007898
334,라니펫,서울 서대문구 남가좌동 277-2,37.5392255255869,126.991106048855
335,금쪽상회,서울 강북구 도봉로13가길 3,37.6146622830792,127.029369332728
336,도기홀릭,서울 동대문구 약령시로 25 103동 303호,37.5831469984959,127.03169971128
337,와와유통,서울 동대문구 왕산로33길 66,37.5823482651971,127.04183282367
338,퍼피하우스,서울 강북구 노해로 73,37.6421689962166,127.022135223652
339,허글 넬로 현대백화점 미아점,서울 성북구 동소문로 315 8층,37.6083998425637,127.028743635895
340,좋은나라애견본부 장위점,서울 성북구 돌곶이로 151 1층,37.615096748808,127.051651983094
341,애니몰파크,서울 강북구 도봉로96길 95,37.6381495652099,127.033115845841
342,드림상사,서울 성동구 무학로8길 31,37.565467092784,127.034439529513
343,제제,서울 성동구 왕십리로 271 세왕빌딩별관 1층,37.5586494627054,127.037303308296
344,드림상사,서울 성동구 마장로 233,37.566297250098,127.035721106663
345,러블리츄,서울 강북구 삼양로80나길 45 제일빌딩 1층,37.6330429977026,127.02018708458
346,펫마트,서울 성동구 사근동11길 7,37.5617088487016,127.040694545964
347,넘버1958,서울 성동구 독서당로 281-1,37.547704021605,127.020478071737
348,유니애견용품,서울 성동구 행당로 87 대림리빙프라자상가 2층 207호,37.5572921201611,127.028544269386
349,노캣노라이프,서울 성동구 고산자로6길 31,37.5579822154768,127.034841711377
350,디펫,서울 동대문구 고산자로36길 3 3층 70113호,37.5790377655561,127.039142935818
351,해피도그가축사료,서울 동대문구 왕산로 273,37.5851557727019,127.050760073413
352,어질리티몰,서울 성동구 마장로 296,37.5662827804848,127.043163438528
353,스프링펫 수유본점,서울 강북구 한천로 1056,37.6412553526175,127.025485220799
354,365 애완용품할인마트,서울 강북구 노해로23길 77,37.6461300357825,127.019324591446
355,도그버디 금호점,서울 성동구 독서당로 307-1,37.5483327196824,127.023025986489
356,BOB애완용품할인점,서울 강북구 한천로 1058,37.641385861855,127.025268175689
357,스낵몽,서울 강북구 4.19로 8 1층,37.6481878931507,127.013399939121
358,펫액션,서울 강북구 수유로 75,37.6363847977609,127.021954046766
359,삼마애견용품할인점,서울 동대문구 이문로9길 8,37.5929699937371,127.057435202081
360,푸츠,서울 성동구 독서당로 270 대우월드타운상가 1층 114-2호,37.5466437145234,127.019481520634
361,몽블리펫샵 창동점,서울 도봉구 덕릉로60길 120 1층,37.6351267661542,127.042137132314
362,희또마미,서울 성동구 독서당로 270,37.5466437145234,127.019481520634
363,어나더페이지,서울 강북구 월계로37길 33,37.6237418552795,127.045658144944
364,펫수라간,서울 성북구 돌곶이로39길 13,37.6173862276757,127.046961587897
365,트로이스포인트,서울 용산구 한남대로10길 36,37.5322155400016,127.009158880405
366,나라&송이애견샵,서울 강북구 한천로144길 54,37.6430757343417,127.027349955701
367,펫츠파크 광산사거리점,서울 강북구 노해로33길 23,37.6462207119261,127.023124384085
368,멍이랑냥이랑,서울 강북구 덕릉로 203,37.6366322834514,127.035964009825
369,미니도그박스,서울 동대문구 전농로 75-18,37.5717848917026,127.056216426234
370,못된강아지,서울 성동구 용답19가길 9 2층,37.5635581538802,127.051924810184
371,애니밀,서울 용산구 독서당로 46 한남아이파크상가 205호,37.532381186051,127.007257834517
372,해피도그,서울 도봉구 우이천로4라길 10,37.6335498386209,127.041438025161
373,진성애견용품,서울 도봉구 덕릉로59길 30,37.6410260983989,127.038031982306
374,펫싸롱,서울 도봉구 노해로 137 1층 3호,37.6472417886518,127.025356050261
375,퍼플네스트,서울 성동구 왕십리로 115 헤이그라운드 8층,37.5479201849315,127.044137696679
376,르샤마키에,서울 용산구 보광로 29,37.5268579088422,126.999898748512
377,희망품은달래,서울 성북구 돌곶이로 49,37.6083172199553,127.059392241834
378,애완용품할인마트,서울 성북구 돌곶이로 9 1층,37.6053905589896,127.061802684044
379,피마트 석관점,서울 성북구 한천로 598 세진빌딩 1층,37.6125620760675,127.061279581695
380,네이처마이펫,서울 성북구 월계로40길 7 513호,37.6229473543321,127.048397229405
381,쪼꼬네애완용품,서울 도봉구 덕릉로59바길 20,37.640711401786,127.036552090313
382,펫그라운드,서울 도봉구 도봉로110길 39-16 2층,37.6465165041912,127.035762435044
383,몽스낵,서울 도봉구 우이천로 333,37.6465323189789,127.026339012227
384,스프링펫 쌍문본점,서울 도봉구 도봉로113길 8,37.6480644472404,127.033746419301
385,견생냥품 쌍문역점,서울 도봉구 도봉로110길 39-16 2층,37.6465165041912,127.035762435044
386,써니펫,서울 성북구 돌곶이로 9 1층,37.6053905589896,127.061802684044
387,펫싸롱,서울 도봉구 도봉로110길 39-9,37.6465977373866,127.035581968754
388,어니스트펫,서울 성동구 왕십리로10길 6 서울숲 비즈포레 204호,37.5466833002846,127.045309871816
389,프랑소와펫 신사플래그쉽스토어,서울 강남구 압구정로46길 6,37.5282695205984,127.036577703715
390,우프바이베럴즈 신사점,서울 강남구 강남대로162길 36 동양빌딩 1층,37.5205847189653,127.021419514113
391,몽슈슈 청담플래그십,"서울 강남구 도산대로67길 30 지하 1,2층",37.5259645335248,127.044573313571
392,봉구의간식 압구정현대점,서울 강남구 압구정로29길 71 현대아파트 상가4동 102호,37.5336032834133,127.028325815765
393,투테일스 성수점,서울 성동구 성덕정길 33,37.5390448551242,127.047480077747
394,봉구의간식가로수점,서울 강남구 압구정로14길 6,37.523858489259,127.022980226111
395,지엔스독,서울 강남구 선릉로157길 13-5 1층,37.525657218364,127.038643848539
396,푼푼,서울 성동구 왕십리로 63,37.5436228045917,127.043585906393
397,비엔비엔,서울 강남구 선릉로153길 5 3층,37.5245343832153,127.03893694612
398,대일인터내셔널,서울 강남구 강남대로158길 46,37.519873595904,127.022186488005
399,순녹,서울 강남구 언주로 846,37.525954523882,127.033726746181
400,웨그앤코,서울 성동구 성덕정길 95 1층,37.5376667827241,127.05416253964
401,리카리카,서울 성동구 성수이로14길 14 성수연방 1층,37.5414076146252,127.056908279292
402,꿈꾸는강아지,서울 성동구 상원6길 3,37.548526602286,127.048610817274
403,러블리하우스,서울 강남구 압구정로80길 13,37.5247013371341,127.045729058195
404,루이독,서울 강남구 압구정로 461,37.5252547717564,127.047232410937
405,퍼스퍼트,서울 성동구 뚝섬로3길 11-5 2층,37.5411792292402,127.049251125003
406,제일펫푸드,서울 강남구 도산대로 130 하림빌딩 7층,37.5171894466777,127.022974108726
407,펫플러스리폼,서울 강남구 선릉로157길 27-5,37.5259380777331,127.03747265825
408,성보펫헬스케어,서울 성동구 광나루로8길 10 802호,37.5473095206398,127.063615746686
409,앤블랭크,서울 성동구 성수일로12길 29 2층,37.5478771592932,127.054401682128
410,펫부티크 갤러리아백화점 웨스트점,서울 강남구 압구정로 343 1층,37.5284754434309,127.040052671773
411,루이독 현대백화점 압구정본점,서울 강남구 압구정로 165 지하1층,37.5273661232786,127.027468526838
412,압구정펫,서울 강남구 선릉로157길 27-4,37.5261190592529,127.037282126359
413,주주클럽,서울 동대문구 답십리로 272 1층,37.5722070369762,127.070438914644
414,강남아쿠아,서울 강남구 압구정로46길 5-10 압구정로데오스타 B동 102호,37.5279203642126,127.037497633767
415,아반,서울 동대문구 천호대로81길 49 601호,37.5645542880368,127.064872297008
416,허스펫,서울 동대문구 답십리로59가길 4 안국빌딩 402호,37.5735551537499,127.06598924468
417,하비앤레보,서울 성동구 광나루로2길 34 보성빌딩 1층,37.5482092288789,127.054874376488
418,플랜드,서울 성동구 성수이로12길 14 1층,37.53962289728,127.056756207832
419,스윗도그,서울 강남구 압구정로 108 108호,37.619862487214,127.017792937329
420,정살롱,서울 강남구 학동로20길 67,37.5095232101913,127.026614838276
421,볼레디,서울 서초구 신반포로47길 18-5 5층,37.5116600462091,127.019642085139
422,알앤케이컴퍼니,서울 성동구 성수이로24길 31 성진코원빌딩 601호,37.5445743819814,127.06170299447
423,바스펫,서울 강남구 강남대로136길 15 501호,37.5445743819814,127.06170299447
424,펑키코코,서울 강남구 봉은사로69길 11 라플빌딩 1층,37.5127720710825,127.049057246703
425,유벤타스 베일이즈,서울 강남구 도산대로 226 지안빌딩 402호,37.5204481429662,127.031754953285
426,독베이커리,서울 강남구 강남대로120길 48 1층,37.5077905336985,127.027204838463
427,리리쁘앙,서울 성동구 성수일로3길 7 새촌브릭스 7층,37.542170016343,127.047819369426
428,버블독,서울 동대문구 장한로 64 금룡빌딩 202호,37.5666342346804,127.068388884735
429,레브드보너,서울 강남구 선릉로146길 27-8 1층,37.5222660297875,127.04231192957
430,뚜드림 청담점,서울 강남구 도산대로 535 용강빌딩 1층,37.5251802553183,127.052165519622
431,커즈펫 성수점,서울 성동구 성수이로 29,37.5378514345163,127.054278535466
432,펫뜰리에,서울 강남구 학동로12길 14 1층,37.5113262852353,127.025457378942
433,도그버디 논현점,서울 강남구 강남대로120길 46,37.5077406886607,127.026896393144
434,브리지테일,서울 강남구 봉은사로 213 센트럴타워 3층,37.5080500239766,127.035366129428
435,제이씨커뮤니티,서울 강남구 논현로131길 10-3 4층,37.5146864494403,127.029141326558
436,트릿테이블,서울 광진구 천호대로102길 28-2 크라운빌 101호,37.5579849285916,127.073504736035
437,스위피,서울 강남구 선릉로125길 21 4층,37.5145282126533,127.040253115951
438,오투앤독,서울 광진구 뚝섬로 476-5 2층,37.5364426106709,127.062856931148
439,프랑소와펫 반포서래점,"서울 서초구 서래로1길 18 엠제이빌딩1층,지하1층",37.496233456713,126.997133774421
440,도그샵,서울 강남구 강남대로122길 39,37.5087465777169,127.02606013255
441,와이엘홀딩스,서울 강남구 선릉로 659 301호,37.5087465777169,127.02606013255
442,봄봄샵,서울 동대문구 장안동 564,37.5654164750873,127.062828861793
443,마인드캣,서울 강남구 학동로6길 18 1층,37.5106275585019,127.024159932926
444,아베크,"서울 서초구 서운로26길 5 토탈에코빌딩 1층,3층",37.5024858950541,127.02233435726
445,어반비스트,서울 서초구 사평대로55길 65-7 지하 1층,37.5066439447827,127.021360790156
446,견공본가,서울 서초구 주흥15길 3,37.5091791020926,127.018705503854
447,페페로니,서울 강남구 삼성로119길 21 1층,37.515649665186,127.049779887732
448,클린펫,서울 광진구 능동로 23-8,37.5337647642298,127.067241709119
449,스텔라앤츄이스,서울 동대문구 장한로28길 14,37.5728442790183,127.072720035105
450,뉴트리밸류,서울 서초구 고무래로 6-5 시원빌딩 5층,37.5036418096094,127.009537537164
451,국개대표,서울 강남구 선릉로 659 가헌빌딩 203호,37.5154479273732,127.041639016982
452,펫클럽,서울 강남구 선릉로 619,37.5120028486667,127.042897801711
453,므에뜨,서울 강남구 선릉로146길 27-8,37.5222660297875,127.04231192957
454,멍이냥이 2호점,서울 동대문구 답십리로69길 8 1층,37.5727149888064,127.074020684384
455,허글 강남점,서울 서초구 반포동 18-1,37.502931388892,126.9992463413
456,펫스튜어드,서울 강남구 봉은사로 415,37.5110865008303,127.045613752174
457,아임파인,서울 서초구 사평대로 353 서일빌딩 435호,37.5042493549782,127.021788854946
458,블루레이,서울 서초구 잠원동 68-17 고속터미널 지하쇼핑몰 B009호,37.5076289659006,127.009186639204
459,h플러스,서울 강남구 강남대로 488,37.5058979827815,127.024262911713
460,메이킷,서울 강남구 선릉로112길 52 아람빌딩 301호,37.5121706044858,127.047852366249
461,신성에프앤비,서울 광진구 능동로37길 6 3층 303호,37.558190113832,127.079576569907
462,프랑소와펫 반포서래 아카데미점,서울 서초구 서래로 47 지하 1층,37.4991663427595,126.998123185509
463,도그버디 군자점,서울 광진구 군자로 140,37.5541467256436,127.075007842853
464,수안 펫하우스,서울 강남구 봉은사로73길 43,37.5152361906266,127.049575105516
465,와와펫,서울 광진구 능동로 401,37.5649844780567,127.083561553948
466,캣드림,서울 광진구 긴고랑로7길 24,37.5644040092009,127.079721040769
467,강아지대통령,서울 강남구 삼성로 570 석천빌딩 5층,37.5124053082857,127.054131724722
468,스프링펫 중곡점,서울 광진구 능동로49길 40,37.5650201193232,127.081293310069
469,펫켈리상점,서울 동작구 흑석로 90 1층,37.5071593110783,126.959638419285
470,위즈펫,서울 강남구 선릉로 620,37.5120829256697,127.04345173664
471,OUI75,서울 서초구 동광로43길 43 1층,37.4966346172559,127.000752577656
472,안쌤애견 본점,서울 중랑구 겸재로3길 30,37.5873191170999,127.076684075662
473,반려동물용품점 중랑점,서울 중랑구 망우로 224 1층,37.5940438796369,127.07774278545
474,디투에이치,서울 강남구 선릉로 561 2층,37.5086321420261,127.044251520902
475,메이드바이핸드,서울 동작구 노량진1동 215-30,37.5467515966734,126.917679801131
476,베비수,서울 광진구 능동로53길 40 지하 1층,37.5670596226544,127.082449281245
477,개밥집개옷집,서울 광진구 긴고랑로13길 10,37.5629970500465,127.082035301492
478,도그버디 상봉점,서울 중랑구 망우로32길 28,37.5927022184336,127.076493371734
479,에이미러브즈펫,서울 강남구 영동대로118길 30-4 리젠시타운 B단지 2동 105호,37.5167933274018,127.061762461036
480,오도독캣,서울 광진구 용마산로 92 1층,37.5618555461882,127.087476228982
481,더개밥 1호점,서울 광진구 긴고랑로13길 10,37.5629970500465,127.082035301492
482,댕구르르,서울 중랑구 면목로31길 22,37.5762601540029,127.08407915898
483,비엠스마일,서울 강남구 테헤란로44길 8 아이콘역삼빌딩 4층,37.5023270151927,127.044444694599
484,마켓멍,서울 광진구 용마산로7길 17,37.55914692308,127.086684997489
485,시크릿펫룸,서울 서초구 동광로1길 93-1 엠하우스 101호,37.4959917112426,126.983722863078
486,클라이네독,서울 강남구 테헤란로8길 22 화인빌딩 225호,37.4974163429983,127.031593889466
487,토토씨,서울 서초구 서초대로 389 진흥상가 2층 212호,37.4970811308117,127.023665230654
488,메가펫 사가정점,서울 중랑구 면목로 272,37.5770754921509,127.086040238534
489,펫츠모리,서울 강남구 강남대로84길 23,37.4971298698887,127.0303844347
490,아르르,서울 강남구 테헤란로 311 3층,37.5037441420961,127.044854487099
491,한국프로비던스 동물약품,서울 강남구 테헤란로4길 6 311호,37.5037441420961,127.044854487099
492,더마독헬스케어,서울 서초구 서초대로 357 아르누보시티 102호,37.4961685551687,127.020483215725
493,유엔우,서울 서초구 동광로1길 55-4,37.4944134810019,126.983530628323
494,퍼피퍼피,서울 강남구 테헤란로20길 19 엘지 에클라트 407호,37.4985646987797,127.03502680361
495,케이왕,서울 강남구 영동대로118길 30-4 리젠시타운 B단지 2동 105호,37.5167933274018,127.061762461036
496,도그버디 면목점,서울 중랑구 사가정로50길 51,37.5786040014907,127.085581465712
497,미유컴퍼니,서울 강남구 삼성로103길 12 신도브래뉴 1층 101호,37.5103690964957,127.053410791714
498,바움쉔,서울 서초구 방배중앙로21길 6 401호,37.4926491934177,126.986139059084
499,스윗도그,서울 강남구 압구정로 108 108호,37.547704021605,127.020478071737
500,바스펫,서울 강남구 강남대로136길 15 501호,37.5596875777348,127.01268020892
501,장보는강아지와고양이 본점,서울 서초구 서운로 45 1층,37.4880152801781,127.028206602947
502,방배동강아지,서울 서초구 방배중앙로 106 드림앤하우스 1층,37.4887578002082,126.988348539681
503,장보는강아지와고양이 한티점,서울 강남구 선릉로 318 동궁상가 지하 1호,37.4980695774469,127.052370453579
504,도그버디 이수점,서울 동작구 동작대로29길 35 1층,37.4880778605967,126.979988353978
505,하울팟 케어클럽 셀렉샵,서울 서초구 서초대로58길 36 2층,37.4931330337586,127.017888122218
506,인터펫코리아,서울 서초구 서운로 45,37.4880152801781,127.028206602947
507,강남강아지,서울 강남구 언주로79길 14 2층,37.4993308488849,127.04287698084
508,메이드바이핸드,서울 동작구 노량진1동 215-30,37.4993308488849,127.04287698084
509,핏펫,서울 강남구 테헤란로 420 13층,37.5051452726841,127.052558161135
510,잇츠그룸,서울 서초구 방배천로18길 12 1층,37.482624313026,126.983383633413
511,퍼피스낵,서울 서초구 동광로12가길 9,37.4872823863726,126.984336237892
512,올리독,서울 서초구 서초대로15길 48 1층,37.4887186829381,126.989152718171
513,봉구의간식 역삼점,서울 강남구 역삼로7길 3,37.4943149516876,127.033043186612
514,펫찌,서울 동작구 상도로47길 3,37.4996953504853,126.951200671094
515,와이엘홀딩스,서울 강남구 선릉로 659 301호,37.5691641596929,127.02634785313
516,챠오펫 본점,서울 서초구 효령로33길 43,37.4832527286095,126.997119006671
517,조이피아,서울 강남구 역삼로 134,37.4941111413427,127.034316385911
518,핏펫,서울 강남구 선릉로 428 9층 126호,37.5033532547808,127.049875769645
519,블라블라컴퍼니,서울 서초구 서초대로34가길 18 브라이트하우스 1층,37.4878032924434,126.99818735507
520,티아라펫,서울 동작구 상도로37길 78 지하1층,37.4974416887237,126.953268553597
521,더마독,서울 서초구 강남대로41길 19 2층,37.4868861297295,127.031447212476
522,강남펫스타일,서울 강남구 언주로79길 5 301호,37.4868861297295,127.031447212476
523,네코마켓,서울 동작구 사당로17길 111 현대아파트상가 107호,37.4877296709961,126.970724756234
524,서울퍼피 서초점,서울 서초구 효령로46길 5,37.4833308929846,127.009076139053
525,도슈어,서울 강남구 테헤란로79길 6,37.5072839770221,127.0555369206
526,한국프로비던스 동물약품,서울 강남구 테헤란로4길 6 311호,37.5888974142252,127.019647531966
527,솜이네애견용품점,서울 동작구 사당로16길 64,37.4810112218282,126.971881730318
528,도기랑냥이랑 봉천점,서울 관악구 남부순환로 1698,37.4833537396317,126.93873304952
529,봄프렌즈,서울 강남구 선릉로92길 42 세진빌딩 3층,37.5061186121839,127.052188671
530,런독스,서울 관악구 중앙길 17,37.4839318029736,126.953498125284
531,에이플코리아,서울 서초구 서초대로 122 3층 301호,37.488016589697,126.995780734961
532,댕쁘앙,서울 동작구 상도로 320 중앙하이츠빌 상가동 201호,37.4998071623847,126.949902106763
533,포펫지니,서울 서초구 서초대로34가길 18,37.4878032924434,126.99818735507
534,커들리 수제간식,서울 동작구 사당로28길 58,37.4794947250457,126.979247960428
535,몽시앙,서울 서초구 남부순환로333길 10,37.483161800288,127.020414200242
536,애완용품할인매장,서울 관악구 은천로 21 1층,37.4864204098648,126.937696188823
537,심콩캣,서울 서초구 반포대로14길 71 LG서초에클라트 621호,37.4869095170024,127.01450471794
538,펫버디,서울 서초구 방배천로 11 SK리더스뷰 A동,37.4777007617804,126.982236074572
539,더로그인,서울 강남구 역삼로19길 9 6층,37.4959614012826,127.036867266017
540,도그미소,서울 동작구 상도로 346-1,37.4967899772343,126.951667453182
541,포더펫,서울 강남구 논현로63길 16,37.4930085196795,127.039144018612
542,스낵랩,서울 동작구 장승배기로10길 130 b동상가 202호,37.5020189232317,126.944784995917
543,아지앤냥이,서울 동작구 국사봉길 87-5,37.4962700673068,126.931400198654
544,애견용품 할인매장,서울 관악구 남부순환로248길 68,37.4731365617216,126.965992785986
545,소잉도그,서울 관악구 양녕로 28 2층,37.4844448362296,126.946871225817
546,슈퍼멍,서울 관악구 남부순환로249길 6-7 까치빌라 가동 101호,37.4759820379064,126.967913517806
547,하이큐브,서울 관악구 남부순환로 1888 301호,37.4785444562777,126.959002604542
548,나에개로,서울 관악구 봉천로 605,37.4760911961869,126.964603827591
549,강남똥개,서울 강남구 선릉로76길 38,37.5021284163375,127.053604642982
550,강아지식탁 낙성대점,서울 관악구 인헌2길 19 1층 2호,37.4753303006026,126.965852963621
551,펫과나의이야기,서울 관악구 관악로10길 56,37.4764002042401,126.955676369335
552,장보는강아지와고양이 대치점,서울 강남구 영동대로 223 1층,37.4990969244411,127.067906894618
553,강아지아이돌,서울 강남구 선릉로 312 3층,37.4975437191647,127.052642849551
554,루이독 현대백화점 무역센터점,서울 강남구 테헤란로 517 지하1층,37.5086151302204,127.059765116537
555,비아퍼시픽,서울 동작구 남부순환로 2039,37.4766652481812,126.975308003966
556,모건네트웍스,서울 강남구 도곡로37길 35,37.4960486541512,127.044603587935
557,아울렛펫코 양재점,서울 서초구 양재천로 141,37.4795343796757,127.042569905331
558,플러쉬퍼피코리아,서울 강남구 테헤란로88길 10 805호,37.5167933274018,127.061762461036
559,프리센트,서울 강남구 테헤란로82길 15,37.5060470424166,127.058228998088
560,샴푸하는강아지,서울 관악구 보라매로 20,37.4911426365047,126.927362751692
561,개밥천국,서울 관악구 쑥고개로 82 1층,37.4792187507691,126.94556446745
562,헬로우도그,서울 관악구 남부순환로248길 68,37.4731365617216,126.965992785986
563,바이오펫,서울 강남구 테헤란로 623 삼성빌딩 10층,37.5100165493974,127.065708868648
564,쑤니네펫샵,서울 관악구 봉천로 376-1,37.4831186970222,126.94164102542
565,코코멍냥,서울 관악구 신림동7길 8 지층,37.4702777934812,126.941306449156
566,라온애니멀헬스,서울 강남구 남부순환로 2912 그랑프리엔상가 B110호,37.4907059879875,127.056142941592
567,도그버디 신림점,서울 관악구 신원로5길 41 신원시장내 B-20호,37.4827688624449,126.926655279229
568,애완용품,서울 광진구 뚝섬로 635 1층,37.5319533556502,127.080282837649
569,하룻강아지,서울 강남구 개포로 251,37.4792118566455,127.049844683283
570,찰찰이네 자연간식,서울 서초구 마방로6길 43,37.4741094623877,127.043391532345
571,내새끼닷컴,서울 서초구 언남19길 11 성경빌딩 302호,37.4758921722265,127.045619599495
572,디자인펫샵,서울 중랑구 사가정로 405,37.5806453674013,127.089727794396
573,장보는강아지와고양이 묵동점,서울 중랑구 동일로 941 극동늘푸른아파트 상가 1층 101호,37.6148667612404,127.076203123812
574,글로벌펫샵,서울 광진구 자양로43길 147 1층,37.5569739908397,127.088743861276
575,디어마이펫,서울 중랑구 면목로40길 12 1층,37.5790260492879,127.08788111044
576,대한사료,서울 중랑구 겸재로 209,37.5892811853504,127.090811981892
577,바르다펫,서울 중랑구 봉화산로 52 용우빌딩 1층,37.6014254812752,127.080221653459
578,도그버디 아차산점,서울 광진구 자양로49길 25,37.5530699199173,127.09140652912
579,강사모펫,서울 중랑구 망우로 241,37.5950378147358,127.079424767254
580,지앤에프 애견샵,서울 중랑구 용마산로 333 2층,37.5817112852956,127.093161920231
581,반값애견,서울 광진구 자양로28길 23,37.5421978101489,127.085679578746
582,본오독 애견용품 수제간식,서울 중랑구 망우로 385,37.5988790394026,127.094992882022
583,행복한강고모,서울 중랑구 봉화산로22길 5 1층,37.6014286129412,127.082217224019
584,피마트,서울 중랑구 봉화산로3길 74,37.6048911796145,127.075518440283
585,루브르펫,서울 광진구 아차산로57길 9,37.5390097913696,127.088143925379
586,남대문애견용품,서울 중랑구 중랑역로 73,37.5999584438647,127.07786682288
587,와이엘홀딩스,서울 강남구 선릉로 659 301호,37.5999584438647,127.07786682288
588,멍브라더스,서울 광진구 구의강변로 102 현대13차폴라트리움 1층 102호,37.539412011464,127.094645492447
589,감성독,서울 중랑구 면목로44길 79 밝은미래빌딩 4층,37.580898811565,127.092994260027
590,스윗매직,서울 중랑구 사가정로 429,37.5807028090239,127.092352106819
591,취미타운,서울 중랑구 봉우재로 180,37.593904566584,127.092855541014
592,도그빠 중화점,서울 중랑구 중랑천로 208-2,37.6033744450794,127.074396112347
593,스윗도그,서울 강남구 압구정로 108 108호,37.5204481429662,127.031754953285
594,카이코리아 서울지사,서울 중랑구 봉우재로 114 우성빌딩 302호,37.5923645543037,127.085760384083
595,애견사랑,서울 중랑구 봉화산로3길 131,37.6074804393276,127.074818102086
596,바스펫,서울 강남구 강남대로136길 15 501호,37.5113262852353,127.025457378942
597,애견수제간식,서울 중랑구 동일로149길 12,37.6067856304878,127.077693303827
598,쿨한강아지,서울 중랑구 망우로66길 72,37.5963115851919,127.099358797439
599,컬러풀독 강아지옷,서울 광진구 자양로53길 50 1층,37.5553206745981,127.091790105766
600,도기러버,서울 중랑구 상봉중앙로5길 46-3 2층,37.6005826735604,127.084763777542
601,엄지펫,서울 중랑구 동일로156길 6,37.6095675046386,127.078405628632
602,꾸러미세상,서울 중랑구 봉화산로 115,37.6030849658472,127.087030619728
603,러블리펫,서울 중랑구 동일로152길 23-1,37.6086640638005,127.079511284277
604,개나리수제간식,서울 중랑구 동일로157길 70 목동아이파크아파트 상가동 101호,37.6095684664635,127.073841554702
605,건강하개,서울 중랑구 동일로151길 46,37.6079973998365,127.075567901152
606,위클리,서울 중랑구 상봉중앙로8가길 46-1,37.60046775509,127.090170022145
607,애견용품그린펫,서울 중랑구 용마공원로 17-1,37.5941085801631,127.101361996805
608,황도 도그,서울 중랑구 동일로144가길 2 1층 애완용품,37.6054847352112,127.080584106205
609,모리모리샵,서울 중랑구 봉화산로 115,37.6030849658472,127.087030619728
610,꾸러미새상,서울 중랑구 봉화산로 115 102호 애견용품샵,37.6030849658472,127.087030619728
611,개간식집,서울 중랑구 중랑역로 205 1층,37.6117560223473,127.075620631865
612,토끼밥상,서울 중랑구 동일로144길 88 B동 203호,37.6063729681704,127.08312832958
613,금란애견백화점,서울 중랑구 용마산로 532,37.5984464287265,127.100592990696
614,반려동물생활연구소 잠실본점,"서울 송파구 올림픽로12길 45 1,2층",37.5984464287265,127.100592990696
615,플러쉬퍼피코리아,서울 강남구 테헤란로88길 10 805호,37.5984464287265,127.100592990696
616,강남펫스타일,서울 강남구 언주로79길 5 301호,37.5984464287265,127.100592990696
617,장보는 강아지와 고양이 잠실롯데월드점,서울 송파구 올림픽로 240 1층 S-911호,37.5113096112036,127.098141751177
618,미미쿡,서울 노원구 공릉로20길 27,37.61978880042,127.079700852045
619,구뜨,서울 중랑구 공릉로12길 3 5층,37.6166395492181,127.07974302342
620,도그버디 잠실점,서울 송파구 석촌호수로12길 18 1층,37.5090073725531,127.084370235486
621,밀웜아저씨,서울 중랑구 망우로 479-7,37.6010244730408,127.105298509135
622,도그버디 공릉점,서울 노원구 동일로180길 37 1층 103호,37.6226903684383,127.076249282854
623,왈왈식당,서울 송파구 올림픽로 145 리센츠상가 1층 A43호,37.5119804600106,127.087041904838
624,유니펫,서울 중랑구 용마산로125길 92,37.6035690241397,127.101207793509
625,한국프로비던스 동물약품,서울 강남구 테헤란로4길 6 311호,37.6035690241397,127.101207793509
626,애견용품할인매장,서울 송파구 백제고분로18길 20,37.5034551322511,127.084086226392
627,주주클럽 망우본점,서울 중랑구 양원역로 7 흥성빌딩 1층,37.6012891595813,127.108115794682
628,똑똑제과,서울 노원구 공릉로34길 6,37.62232367519,127.079646241226
629,몽몽이펫샵 잠실롯데월드점,서울 송파구 올림픽로 240 롯데월드 쇼핑몰 1층,37.5113096112036,127.098141751177
630,씨케이티,서울 중랑구 망우로81길 28,37.6019091951829,127.107552398839
631,리버독,서울 강동구 천중로 6 1층 105호,37.5458034342459,127.122300172571
632,금동네 사랑방,서울 송파구 백제고분로19길 35 1층,37.5078473832418,127.087637221829
633,천호동강아지,서울 강동구 천중로 17 1층,37.5459131303761,127.123899513015
634,반려동물생활연구소 잠실본점,"서울 송파구 올림픽로12길 45 1,2층",37.5390448551242,127.047480077747
635,오어트릿,서울 송파구 풍성로 69 1층,37.5335449148162,127.120164883148
636,펫마트 서울천호점,서울 강동구 천호대로 995 1층,37.5392864881483,127.123013114626
637,탐앤드폴 잠실롯데월드몰,서울 송파구 올림픽로 300 에비뉴엘 5층,37.5137519612953,127.104446890835
638,도그버디,서울 송파구 천호대로152길 17,37.5373651258061,127.121602309454
639,봉구의간식,서울 송파구 백제고분로45길 31,37.5103456407346,127.108135254503
640,바르코,서울 강동구 성내로6길 31 예은빌딩 5층,37.5283498509741,127.122689582122
641,펫라밸,서울 송파구 석촌호수로 188 104호,37.5034551322511,127.084086226392
642,미야우프,서울 강동구 올림픽로 693,37.5432774487274,127.124831055203
643,호두네과자집,서울 송파구 송파대로48길 5-1,37.5086414121278,127.105117593702
644,펫츠베이 송파삼전점,서울 송파구 삼전로 54 1층,37.5036311003606,127.08779910853
645,도그버디 삼전점,서울 송파구 백제고분로 202 1층,37.5038138229485,127.089004805718
646,우다다,서울 송파구 백제고분로 504 프라임빌딩 4층,37.5150251614772,127.115487966933
647,펫플러스,서울 강동구 구천면로 192 3416호,37.5127720710825,127.049057246703
648,도쿠몰,서울 송파구 백제고분로45길 11 3층 301호,37.5094038127388,127.109998298112
649,강아지고양이편의점 삼전점,서울 송파구 삼전로6길 15 1층,37.5028755130831,127.088889014623
650,아모르 애견용품할인매장,서울 강동구 천호대로162길 63,37.5340703114988,127.127864630307
651,마이펫,서울 송파구 백제고분로22길 15,37.5024640402922,127.088986917986
652,강아지영토,서울 강동구 성내로14길 18,37.5271668963132,127.126644385689
653,루비네수제간식 1호점,서울 강동구 천중로11길 41 1층,37.547214853808,127.127491242538
654,플러쉬퍼피코리아,서울 강남구 테헤란로88길 10 805호,37.5735551537499,127.06598924468
655,와와애견용품할인매장,서울 강동구 올림픽로92길 36 1층,37.547731384894,127.128829805757
656,마니사개,서울 강동구 구천면로 259-1,37.5435283467641,127.131742431375
657,키친반,서울 송파구 백제고분로28길 33,37.5000450299106,127.091218811857
658,라피아컴퍼니,서울 강동구 성안로7길 49 201호,37.5000450299106,127.091218811857
659,장보는강아지와고양이 강동둔촌점,서울 강동구 천호대로 1224,37.5355472561559,127.146896026942
660,도그버디,서울 송파구 백제고분로48길 40,37.5102436999406,127.11724096616
661,화이트 애견용품할인마트 2호점,서울 강동구 고덕로14길 61,37.5519275968719,127.131207783917
662,씨애플산호프랙농장,서울 강동구 성안로 27,37.5262853047986,127.129598961729
663,배부른강아지,서울 강동구 천호대로167길 26 하이브2 101호,37.5372032429608,127.133266690208
664,눈치보지말개,서울 강동구 천호대로 1077 래미안강동팰리스 상가 102동 107호,37.5372566499573,127.131437557377
665,와이엘홀딩스,서울 강남구 선릉로 659 301호,37.5372566499573,127.131437557377
666,기프트펫 석촌동점,서울 송파구 송파대로37길 84,37.4991697567697,127.103197645926
667,개냥밥,서울 송파구 가락로5길 8 1층,37.50021534651,127.102192810969
668,두나펫코리아,서울 강동구 구천면로41길 79,37.5474065941273,127.129963460757
669,스윗비,서울 강동구 상암로 81,37.5482949568584,127.132093928623
670,한스클럽,서울 송파구 가락로 45,37.4994108612248,127.101434585855
671,폴리파크 둔촌점,서울 강동구 양재대로 1404,37.5312746501374,127.137983786151
672,하울링,서울 강동구 양재대로89길 67 1층,37.5272567627508,127.131879546759
673,러브펫멀티펫샵 길동점,서울 강동구 양재대로114길 30,37.5373621734888,127.141632078411
674,커즈펫 천호점,서울 강동구 상암로 74-1,37.5483640714409,127.131278827425
675,워크앤런,서울 송파구 중대로 158 2층,37.4961837206301,127.124950974566
676,한국애견,서울 송파구 가락로 69,37.5001313879428,127.103828653186
677,개코네 길동점,서울 강동구 양재대로124길 41,37.5427974887767,127.144501765029
678,미밍코,서울 강동구 성안로 163 4층,37.5377591322053,127.13527207045
679,개밥,서울 송파구 가락로 69,37.5001313879428,127.103828653186
680,이츠독,서울 강동구 천중로 201,37.5410846123256,127.142564020281
681,강남펫스타일,서울 강남구 언주로79길 5 301호,37.5410846123256,127.142564020281
682,러브펫 토탈애완용품샵,서울 송파구 마천로 143,37.504618740685,127.135505965213
683,퍼피야호,서울 송파구 삼학사로6길 17,37.4998306274688,127.098898899476
684,명일 애견용품할인마트,서울 강동구 구천면로 440,37.5495473236467,127.147195884289
685,마이펫 둔촌점,서울 강동구 양재대로 1355 1층 8호,37.5273952498819,127.135616051172
686,펫가든 롯데마트송파점,서울 송파구 중대로 80,37.4917620371568,127.117842816756
687,톰&제리,서울 강동구 명일로 106-8,37.5284668669297,127.142903724014
688,장보는강아지와고양이 송파문정점,서울 송파구 새말로 125,37.4831053437977,127.127886835091
689,펫스츄,서울 강동구 양재대로98길 52,37.5303337411733,127.140500444976
690,도그버디명일,서울 강동구 양재대로138길 11 1층,37.5498076398944,127.144555810258
691,러블리퍼피,서울 강동구 풍성로56길 10,37.5287000795047,127.134908278523
692,도그버디 둔촌점,서울 강동구 양재대로 1367 1층,37.5283077805775,127.135932437159
693,냥이네,서울 강동구 상암로41길 46 석정빌딩 201호,37.5481401572807,127.141285257311
694,우츄츄,서울 송파구 송이로17길 41 1층,37.5009424848652,127.124256156749
695,가온온라인유통,서울 강동구 천중로39길 55,37.5435279512752,127.139614641847
696,오마이도기,서울 송파구 송이로26길 16-35,37.4933066347029,127.122187155672
697,대한사료 강남,경기 하남시 동남로438번길 44-2,37.5134442593966,127.1448416031
698,로캣디자인,서울 강동구 상암로49길 33 지층,37.5480241087361,127.144781179602
699,바스펫,서울 강남구 강남대로136길 15 501호,37.4941111413427,127.034316385911
700,애견왕국,경기 하남시 서하남로 9,37.5171496248422,127.145362760859
701,스윗도그,서울 강남구 압구정로 108 108호,37.5678250213491,127.025053595952
702,탐앤드폴,서울 강남구 삼성로 40 소망빌딩 지하1층,37.4889438568792,127.066608218966
703,트망트망,서울 강동구 동남로49길 60-11 1층,37.5332133577461,127.146563909941
704,펫오피스,"서울 송파구 송파대로 260 제일오피스텔 16층 1616, 1617호",37.4931390130546,127.118864841565
705,겟백,경기 하남시 서하남로 23 나동 3층,37.5170442081859,127.146746634473
706,한국프로비던스 동물약품,서울 강남구 테헤란로4길 6 311호,37.5741009194382,127.02366773372
707,바보펫,서울 송파구 정의로7길 13 힐스테이트에코송파,37.4852878303815,127.115119595215
708,예그리나,서울 강동구 상암로 257 1층,37.5468254706558,127.151140955494
709,누나스,서울 송파구 법원로4길 10 힐스테이트에코문정 127호,37.4826157890248,127.122826416048
710,수빈샵,서울 송파구 법원로 128 씨동 지 114 에스192호,37.4826157890248,127.122826416048
711,마도로스키친,서울 송파구 송파대로 167,37.4846614982049,127.120933640924
712,행복한강고모,서울 송파구 송파대로22길 24,37.4882953106417,127.124358680003
713,멍멍이와야옹이,서울 송파구 오금로 484 삼우빌딩 1층,37.4936484225286,127.142652924473
714,제이온펫트리밍,서울 송파구 새말로 62,37.4808342941547,127.121276830066
715,야옹아멍멍해봐 송파위례점,서울 송파구 거여동 산 37 B동,37.4877612494099,127.143095483179
716,에스에스오티코리아,서울 송파구 법원로 128 SK V1 메트로시티 C동 1408호,37.4868456339581,127.120489970866
717,레드펫,서울 송파구 충민로 181,37.4860097360497,127.133433044505
718,야옹멍멍,경기 하남시 서하남로95번길 37 1층,37.515554274587,127.156325291747
719,애견용품할인마트,서울 송파구 마천로41길 22,37.4968946341351,127.14994730411
720,펫앤미,서울 송파구 충민로 5 송파한화오벨리스크 C동 205호,37.4801299358404,127.119636779683
721,몰리스펫샵 가든5점,서울 송파구 충민로 10 1층,37.4786173172251,127.119106729654
722,네발라이프,서울 송파구 새말로 62 송파푸르지오시티 상가 1층 148호,37.4808342941547,127.121276830066
723,톰앤스누피,서울 송파구 새말로 62 송파푸르지오시티 1층 129호,37.4808342941547,127.121276830066
724,맥앤우피,서울 송파구 새말로 62,37.4808342941547,127.121276830066
725,씨유펫 송파거여점,서울 송파구 성내천로 134 1층,37.4989840379448,127.143216978946
726,비글C&M,서울 송파구 법원로 92 403호,37.5407309080471,126.995848259419
727,식탐창고,서울 송파구 송이로31길 4-11,37.4880387295859,127.132459037075
728,씨유펫 구리교문점,경기 구리시 장자대로13번길 61,37.5904811207456,127.132690764141
729,멍멍키친 야옹키친,서울 송파구 새말로17길 6 2층,37.4860186167767,127.131377701767
730,마그네틱플랜,서울 송파구 충민로 5 송파한화오벨리스크 D-1017,37.4801299358404,127.119636779683
731,펫클럽 상일점,서울 강동구 천호대로 1459,37.5460164919098,127.17031682787
732,애완용품 전문점,서울 송파구 마천로45길 37,37.4989878990432,127.151533251456
733,제이에스코리아,경기 하남시 감초로200번길 79-26,37.5301545096638,127.168607713848
734,애견시대,서울 송파구 새말로 183,37.4864537001564,127.132518991882
735,퍼플빈,서울 송파구 충민로 66 가든파이브 테크노관 T-7125,37.4776148442516,127.124961768886
736,레드펫,서울 강동구 천호대로 1459,37.5460164919098,127.17031682787
737,애견용품할인점,경기 구리시 이문안로 105,37.5918297321137,127.143244681463
738,커먼독,서울 서초구 논현로1길 21,37.4717207422417,127.050338019604
739,강아지와사람들,서울 강남구 양재대로 339,37.4723695996899,127.051706222102
740,꼬랑지,서울 송파구 마천로57길 22-1,37.4953735124809,127.153627700427
741,와이엘홀딩스,서울 강남구 선릉로 659 301호,37.62232367519,127.079646241226
742,장보는강아지와고양이 하계점,서울 노원구 한글비석로 127 1층,37.6394580022555,127.075523163806
743,바스펫,서울 강남구 강남대로136길 15 501호,37.5167933274018,127.061762461036
744,뭉투샵,서울 노원구 공릉로58나길 20-5 1층,37.6366338773342,127.073939594434
745,플러쉬퍼피코리아,서울 강남구 테헤란로88길 10 805호,37.5042493549782,127.021788854946
746,댕댕아카데미,서울 노원구 동일로207길 50 북부여성창업보육센터 209호,37.6428268392155,127.06128460568
747,개편한세상,서울 도봉구 삼양로 628,37.6591007780524,127.014143081848
748,아따네베이커리수제간식,서울 도봉구 해등로 190 상가 147호,37.6582166673064,127.035759433408
749,푼푼하개,서울 도봉구 도봉로141길 55 1층,37.6615944372939,127.038922060608
750,펫쌤 방학점,서울 도봉구 도당로 61,37.6636522703669,127.034611779207
751,쓸모연구소,서울 도봉구 도봉로143길 36,37.6618803555189,127.040156085156
752,아이엠독,서울 노원구 동일로 1363 명지프라자 2층,37.6504403325764,127.061280549621
753,펫클럽 창동점,서울 도봉구 마들로11길 20 농협하나로클럽,37.655110585923,127.050831341385
754,애완용품 할인마트,서울 도봉구 도당로 61,37.6636522703669,127.034611779207
755,펫델,서울 도봉구 방학로 203 1층 107호,37.6617590390985,127.029648320083
756,뽀뽀펫,서울 도봉구 방학로 131,37.662533238129,127.037881562104
757,도그빠,서울 노원구 덕릉로 459-14 미도상가 2층 206호,37.6457905615153,127.060360729121
758,펫모아,서울 도봉구 도당로17길 4,37.6667812348282,127.038278491853
759,애완용품할인매장,서울 도봉구 도봉로153길 13,37.6698100767861,127.042692978191
760,모어라이크,서울 노원구 노원로 547 1층 4호,37.6609845717011,127.057983848414
761,스타일멍멍 도봉점,서울 도봉구 방학동 718-6,37.6683800609249,127.044825078031
762,캣앤독,서울 도봉구 도봉로154길 18,37.6711170594447,127.045058295829
763,앤고양이병원,서울 노원구 노원로 408,37.6531288920405,127.068130545833
764,애견용품할인매장,서울 도봉구 도봉로169나길 92,37.6755944601163,127.043422448216
765,폴리파크 상계점,서울 노원구 동일로 1598,37.6710561405102,127.05639992835
766,에이미펫,서울 노원구 한글비석로47길 67,37.6610952765788,127.066725123166
767,다니맘,서울 노원구 한글비석로23길 26,37.6596933667112,127.071016521764
768,태강이네 멍멍마켓,서울 노원구 노원로30길 58-3 1층,37.6553103724275,127.070243892141
769,나는펫 상계점,서울 노원구 상계로12길 56,37.655810499217,127.070106559488
770,와이타운,서울 노원구 상계로26길 13 201호,37.6580800082618,127.070967726838
771,펫클럽 상계점,서울 노원구 상계로 182 상계역 410-08호,37.6609038887184,127.073575379339
772,도봉동물약품,서울 도봉구 도봉산4길 27-15,37.6885378920765,127.04147789794
773,지연이네 강아지수제간식,서울 도봉구 도봉동 83-1,37.5929699937371,127.057435202081
774,봄봄펫,서울 노원구 덕릉로83길 14-7 2층 201호,37.6603206232995,127.07467480747
775,개껌무는가게,서울 노원구 덕릉로119가길 35,37.6700152261639,127.079824470724
776,엘.로이펫(L.ROY pet),서울 노원구 동일로236길 33,37.6739803213584,127.057413591546
777,블랑쉬,서울 노원구 한글비석로 396 상계벽산아파트 복합상가 108동 238호,37.6623030184626,127.073581746977
778,포포네 간식,서울 노원구 한글비석로 332,37.6571072875818,127.077992763667
779,우아케이크,서울 노원구 동일로243길 29 1층,37.6784299007712,127.05337607997
780,펫클럽 장암점,경기 의정부시 동일로 199 1층 102호,37.7067779616143,127.057208107387
781,펫클럽 갈매점,경기 구리시 산마루로 6 갈매중심타워오피스텔 117호,37.6317091403368,127.11514523976
782,펫플렉스,경기 의정부시 평화로 171-1,37.7071951823689,127.047960809963
783,지연이네 강아지수제간식,서울 도봉구 도봉동 83-1,37.6618803555189,127.040156085156
784,장보는강아지와고양이 별내점,경기 남양주시 두물로27번길 15 101호,37.6571017735269,127.126797896184
785,야옹아 멍멍해봐 남양주 별내점,경기 남양주시 별내중앙로 84,37.6502017669399,127.12062693585
786,펫마트 애완용품할인마트 호원점,경기 의정부시 신흥로 158,37.7302509266008,127.043937819916
787,펫클럽 장암2호점,경기 의정부시 회룡로 178 발곡프라자 1층 108호,37.7263880453119,127.053456533266
788,꼬비언니,경기 남양주시 덕송2로 70-7 602호,37.6680077855541,127.118477843807
789,펫츠야,경기 남양주시 두물로11번길 40-19 풍전프라자 1층,37.6575725503454,127.125521148859
790,댕댕블리,경기 남양주시 별내동 830-4,37.6668029271208,127.115916549101
791,듀펫러브도그 호원점,경기 의정부시 평화로 399-8 상가 1층 103호,37.727870501473,127.047796500708
792,봉구의간식 별래점,경기 남양주시 별내중앙로 53,37.647053102593,127.123500085226
793,해피몽애견샵,경기 의정부시 신곡로 57,37.7317979178499,127.056373932748
794,피마트,경기 남양주시 두물로39번길 57 1층,37.6583936387379,127.129171056954
795,럭키펫,경기 구리시 금강로 110,37.6414594078918,127.123182752007
796,마시꾸멍,경기 구리시 갈매중앙로55번길 10,37.629826825109,127.115489443945
797,더블콤마,경기 남양주시 두물로39번길 52,37.658984661795,127.128860422692
798,꼬모프랑쉬,경기 남양주시 두물로39번길 30-7,37.6586038477631,127.128419138675
799,빙아이스크림&애견용품,경기 의정부시 경의로55번길 16 1층,37.7337941804667,127.041685776186
800,펫클럽 별내점,경기 남양주시 별내면 송산로 641-1,37.6967811406152,127.126121731201
801,이쁘당개,경기 구리시 갈매중앙로 70,37.6305360744058,127.117141360602
802,코쿠모노,경기 구리시 갈매순환로204번길 26-14 101호,37.6372423940896,127.122622445939
803,베이지앤브라운,경기 남양주시 두물로39번길 46 1층 101호,37.6591243454588,127.128666415678
804,펫스타 별내,경기 남양주시 별내중앙로 10 아이플레이스 243호,37.6448465284725,127.127292049599
805,영양한스푼,경기 구리시 갈매순환로204번길 8-58,37.6374153000528,127.12408075567
806,춘자키친,경기 의정부시 태평로63번길 23 1층,37.7383813576229,127.05028511737
807,도그버디 의정부제일점,경기 의정부시 태평로73번길 20,37.7401266278419,127.050067899137
808,바버펫,경기 의정부시 시민로 228-1,37.7356172448638,127.060153253476
809,바램과믿음,경기 구리시 갈매순환로126번길 49 101호,37.6299336172565,127.12217394518
810,더블컴퍼니,경기 남양주시 별내동 33 4층,37.656199676769,127.13312584769
811,듀펫러브도그 의정부지하상가점,경기 의정부시 시민로 지하 100 의정부지하상가 서부 나열 217호,37.739245607783,127.047583828857
812,멈뭄베이크,경기 의정부시 신흥로274번길 17 1층,37.7405198848983,127.044252939025
813,지연이네 강아지수제간식,서울 도봉구 도봉동 83-1,37.6617590390985,127.029648320083
814,장보는강아지와고양이 구리본점,경기 구리시 동구릉로 434,37.6361571154006,127.140667855811
815,봉스왈왈,경기 남양주시 퇴계원읍 퇴계원로 65,37.6525026596299,127.142474300286
816,펫글로비즈,경기 구리시 동구릉로395번길 87,37.634292834291,127.1380433138
817,반하개,경기 남양주시 퇴계원읍 퇴계원로 69 1층,37.6529030155589,127.142731397309
818,페그너티,경기 남양주시 퇴계원읍 퇴계원로 102-2,37.6554541155748,127.144899199178
819,아이앤지펫케어,경기 구리시 동구릉로460번길 14,37.6385760676903,127.140374212678
820,아마존 애견용품할인마트,경기 구리시 경춘로 128,37.6006439133737,127.129467493785
821,애완용품할인매장,경기 구리시 동구릉로53번길 4 112호,37.6053803794935,127.133623329717
822,구름펫,경기 구리시 동구릉로53번길 67,37.6076336522201,127.131871043859
823,DC클럽,경기 구리시 동구릉로 70,37.6062804112057,127.134624486437
824,펫클럽 수택점,경기 구리시 경춘로 188 113호,37.6003049798915,127.136331814114
825,도그버디 구리점,경기 구리시 안골로57번길 36-6,37.5988184379731,127.137185527766
826,메토요,경기 구리시 동구릉로136번길 33 2층 201호,37.6113143088855,127.139982503085
827,마이펫하우스,경기 구리시 건원대로 56 삼보아파트 종합상가 106호,37.6078093914787,127.140497575586
828,쩡쓰퍼피,경기 구리시 검배로15번길 18,37.599285192985,127.142995012064
829,지니펫,경기 구리시 벌말로 163,37.5911840531994,127.149373346532
830,도그컷,경기 남양주시 미금로 43,37.6087346205872,127.151912709942
831,오구오구내새끼,경기 남양주시 다산중앙로20번길 10-34 1층,37.6143951443879,127.156414743928
832,견생냥품 무인24시 남양주다산역점,경기 남양주시 다산중앙로123번길 11,37.6236215336115,127.152203195532
833,펫클럽 진건점,경기 남양주시 진건읍 진관로363번길 103,37.6411662909607,127.15492925287
834,포독스,경기 남양주시 다산순환로 397-84 1층 101호,37.6207370447314,127.15982075697
835,지미니몰,경기 구리시 수택천로16번길 78,37.5962463044472,127.148346798647
836,도그니티,경기 남양주시 다산중앙로123번길 22-26,37.6248697460024,127.152423461684
837,주니박스펫스토어,경기 남양주시 다산중앙로171번길 32 120호-1,37.6287695616577,127.148833174888
838,댕댕아밥먹자,경기 남양주시 도농로 24 부영애시앙 사랑관 1층 54호,37.6082044738715,127.157753794985
839,펫클럽 수석점,경기 남양주시 강변북로 656-1,37.5886354660044,127.170546930899
840,도도,경기 남양주시 진건읍 진관로303번길 77,37.6355507952267,127.156108092762
841,아마레펫,경기 남양주시 다산지금로123번길 19,37.6031357432967,127.176907390008
842,대한사료,경기 남양주시 경춘로 651,37.6183382475175,127.181799789616
843,펫플러스,서울 강동구 구천면로 192 3416호,37.5480241087361,127.144781179602
844,라피아컴퍼니,서울 강동구 성안로7길 49 201호,37.5435279512752,127.139614641847
845,펫플러스,서울 강동구 구천면로 192 3416호,37.5459131303761,127.123899513015
846,펫라밸,서울 송파구 석촌호수로 188 104호,37.515554274587,127.156325291747
847,반려동물생활연구소 잠실본점,"서울 송파구 올림픽로12길 45 1,2층",37.5090073725531,127.084370235486
848,장보는강아지와고양이 위례점,경기 하남시 위례대로 190 1층 118호,37.478591797155,127.148271168865
849,기프트펫,서울 송파구 위례광장로 136 위례아이파크 상가C동 113호,37.4771943991724,127.14228123329
850,리프패럿,"경기 하남시 미사강변대로 76 미사베스트프라자 2층 203,204호",37.55663947452,127.187642973167
851,수빈샵,서울 송파구 법원로 128 씨동 지 114 에스192호,37.5364426106709,127.062856931148
852,멍식당,경기 하남시 미사강변대로 62 바토프라자 111호,37.5554139735083,127.187110476287
853,레몬펫,경기 하남시 조정대로 45 미사센텀비즈 F1042호,37.5506851829474,127.184475919003
854,비글C&M,서울 송파구 법원로 92 403호,37.5252547717564,127.047232410937
855,장보는강아지와고양이 하남점,경기 하남시 덕풍로65번길 2,37.5511760739156,127.20588057878
856,하나무,경기 하남시 미사강변대로 84 미사탑프라자 건물 뒷편 1층 102호,37.5574070985239,127.187998347201
857,페페,경기 하남시 미사강변서로 25 F동 8층 844호,37.552659968832,127.182808375056
858,위대한컴퍼니,경기 하남시 조정대로 45,37.5506851829474,127.184475919003
859,씨유펫 위례점,경기 성남시 수정구 위례광장로 104 위례한화오벨리스크센트럴스퀘어 1층 1012호,37.4730513390026,127.141262948182
860,베프 본점,경기 성남시 수정구 위례광장로 310 우성트램타워 A동 113호,37.4727089219441,127.142939037608
861,닥터루디,경기 하남시 미사강변서로 16,37.5518130290607,127.184490015618
862,아띠지기,경기 하남시 조정대로 35 미사하우스디엘타워 608호,37.550312481814,127.183350249088
863,아무도없개 위례점,경기 성남시 수정구 위례광장로 70 상가동 1층 122호,37.4707328255347,127.141217097272
864,리틀프렌즈,경기 하남시 풍산동 490-2 F동 230호,37.5517622353045,127.184475631292
865,플러쉬퍼피코리아,서울 강남구 테헤란로88길 10 805호,37.5378514345163,127.054278535466
866,씨유펫 하남 미사점,경기 하남시 미사강변중앙로 161,37.5610945158436,127.190693867516
867,장보는강아지와고양이 하남신장점,경기 하남시 신장동로 41 1층,37.5434607872274,127.212167414536
868,다우리,경기 성남시 수정구 위례서일로1길 22-6,37.4674251594368,127.138371864449
869,도그클럽,경기 하남시 덕풍공원로 43,37.5394317258621,127.19788338795
870,수수,경기 하남시 조정대로 150 아이테코 3층 364호,37.5535256980589,127.194669378414
871,수쌀롱,경기 성남시 수정구 위례서일로1길 22-6 1층 101호,37.4674251594368,127.138371864449
872,아로펫,경기 하남시 하남대로887번길 25,37.5436303588339,127.200671203206
873,페페,경기 하남시 고골로 199-17,37.5082598189305,127.195921093056
874,도기스쿨,경기 하남시 하남대로861번안길 16,37.5426990087262,127.200929300353
875,퍼피하우스,경기 하남시 신장로 164,37.5403835777006,127.201167717926
876,어바웃도그,경기 성남시 수정구 위례순환로4길 9 1층,37.4693048868611,127.148364510878
877,도담퍼피,경기 하남시 덕풍공원로87번길 20,37.5374841908968,127.201045990727
878,호야펫,경기 하남시 미사강변한강로158번길 48,37.5751499937758,127.190045051469
879,그룸앤먼치,경기 성남시 수정구 위례광장로 12 위례역푸르지오6단지 상가 115호,37.4667677914813,127.142159396264
880,와이엘홀딩스,서울 강남구 선릉로 659 301호,37.5717848917026,127.056216426234
881,동부유통애견용품,경기 하남시 대성로 323,37.536312979502,127.207762596448
882,캣독캣독,경기 성남시 수정구 복정로106번길 5-4,37.4627458200167,127.127672767117
883,서현사료,경기 하남시 신장로 70,37.5357949077721,127.209748863422
884,리베댕,경기 성남시 수정구 창곡동 564 위례역푸르지오5단지 5A-113호,37.4665498476414,127.141022601259
885,펫클럽 하남점,경기 하남시 미사대로 570 2층,37.5559025106843,127.208147551791
886,도도한독스 하남미사강변점,경기 하남시 망월동 400-3,37.5559025106843,127.208147551791
887,우리동물약품,경기 하남시 신장로 70,37.5357949077721,127.209748863422
888,개이득 성남위례점,경기 성남시 수정구 위례서일로 26 라크리움 지하 B111호,37.4647382626549,127.138673354172
889,강남펫스타일,서울 강남구 언주로79길 5 301호,37.4647382626549,127.138673354172
890,애견용품,경기 성남시 수정구 복정로118번길 15-1,37.4637854852756,127.128514610899
891,강남애니펫샵,경기 하남시 신평로 168,37.5471439078095,127.211451588327
892,동부유통,경기 하남시 하남대로 798,37.5409212222953,127.209092689083
893,삼팔오도씨,경기 하남시 신장1로34번길 52 101호,37.5372917338304,127.212522523571
894,반려동물생활연구소 잠실본점,"서울 송파구 올림픽로12길 45 1,2층",37.5103456407346,127.108135254503
895,펫라밸,서울 송파구 석촌호수로 188 104호,37.5036311003606,127.08779910853
896,수빈샵,서울 송파구 법원로 128 씨동 지 114 에스192호,37.5137519612953,127.104446890835
897,비글C&M,서울 송파구 법원로 92 403호,37.4931390130546,127.118864841565
898,라피아컴퍼니,서울 강동구 성안로7길 49 201호,37.5312746501374,127.137983786151
899,펫플러스,서울 강동구 구천면로 192 3416호,37.5284668669297,127.142903724014
900,플러쉬퍼피코리아,서울 강남구 테헤란로88길 10 805호,37.478591797155,127.148271168865
901,강남펫스타일,서울 강남구 언주로79길 5 301호,37.5498076398944,127.144555810258
902,와이엘홀딩스,서울 강남구 선릉로 659 301호,37.5541467256436,127.075007842853
903,벨벳케어,서울 서초구 샘마을길 3-4,37.4577098510831,127.070863284078
904,댕청미,경기 성남시 수정구 복정로20번길 22 1층,37.4552670661417,127.129572727138
905,디디테이블,서울 서초구 동산로16길 10 1층,37.4719146510106,127.047030160033
906,한국프로비던스 동물약품,서울 강남구 테헤란로4길 6 311호,37.5087465777169,127.02606013255
907,집에가야돼,경기 성남시 수정구 성남대로1390번길 10 지하1층,37.4539628079276,127.127791426267
908,바스펫,서울 강남구 강남대로136길 15 501호,37.5807028090239,127.092352106819
909,펫클럽 양재점,서울 서초구 청계산로 10 농협하나로클럽,37.4632288044056,127.043530153585
910,스윗도그,서울 강남구 압구정로 108 108호,37.4632288044056,127.043530153585
911,강남펫스타일,서울 강남구 언주로79길 5 301호,37.5077406886607,127.026896393144
912,와이엘홀딩스,서울 강남구 선릉로 659 301호,37.5336032834133,127.028325815765
913,한국프로비던스 동물약품,서울 강남구 테헤란로4길 6 311호,37.5086151302204,127.059765116537
914,바스펫,서울 강남구 강남대로136길 15 501호,37.5086151302204,127.059765116537
915,스윗도그,서울 강남구 압구정로 108 108호,37.4723695996899,127.051706222102
916,플러쉬퍼피코리아,서울 강남구 테헤란로88길 10 805호,37.4723695996899,127.051706222102
917,반려동물생활연구소 잠실본점,"서울 송파구 올림픽로12길 45 1,2층",37.5034551322511,127.084086226392
918,펫라밸,서울 송파구 석촌호수로 188 104호,37.5042493549782,127.021788854946
919,퍼리굿,서울 서초구 매헌로 31-3 백림빌딩 501호,37.4636300991925,127.034581420093
920,오구오구,서울 서초구 양재대로2길 8 1층 109호,37.4597249378479,127.024464322988
921,수빈샵,서울 송파구 법원로 128 씨동 지 114 에스192호,37.5322155400016,127.009158880405
922,펫트코리아,경기 성남시 수정구 적푸리로 30,37.4337595435511,127.084185591799
923,비글C&M,서울 송파구 법원로 92 403호,37.5482092288789,127.054874376488
924,라피아컴퍼니,서울 강동구 성안로7길 49 201호,37.5466437145234,127.019481520634
925,빛돌커뮤니케이션,경기 과천시 양지마을로 23,37.449444063079,126.996402555181
926,펫플러스,서울 강동구 구천면로 192 3416호,37.4665498476414,127.141022601259
927,한국프로비던스 동물약품,서울 강남구 테헤란로4길 6 311호,37.4792118566455,127.049844683283
928,강남펫스타일,서울 강남구 언주로79길 5 301호,37.4980695774469,127.052370453579
929,바스펫,서울 강남구 강남대로136길 15 501호,37.5120829256697,127.04345173664
930,플러쉬퍼피코리아,서울 강남구 테헤란로88길 10 805호,37.5146864494403,127.029141326558
931,와이엘홀딩스,서울 강남구 선릉로 659 301호,37.5146864494403,127.029141326558
932,반려동물생활연구소 잠실본점,"서울 송파구 올림픽로12길 45 1,2층",37.5167933274018,127.061762461036
933,스윗도그,서울 강남구 압구정로 108 108호,37.5259380777331,127.03747265825
934,펫라밸,서울 송파구 석촌호수로 188 104호,37.5337647642298,127.067241709119
935,수빈샵,서울 송파구 법원로 128 씨동 지 114 에스192호,37.4808342941547,127.121276830066
936,비글C&M,서울 송파구 법원로 92 403호,37.4868456339581,127.120489970866
937,펫클럽 신림점,서울 관악구 남부순환로 1552 1층,37.4831237016971,126.923007821932
938,펫하우스할인매장,서울 관악구 신림로 153,37.4727043443441,126.932916694759
939,강사모 애완용품도매아울렛,서울 관악구 문성로 226,37.4791811993449,126.928822494006
940,수족관 애완용품할인매장,서울 관악구 난곡로 244,37.475900695933,126.916539767186
941,프란다스의개,서울 관악구 호암로 581,37.4693649310598,126.932602705243
942,강아지본부 신대방점,서울 관악구 신사로 112,37.4876631414639,126.914714155117
943,수니앤도그,서울 관악구 법원단지21길 1,37.4749269781612,126.922634907358
944,러브스카이,서울 관악구 남부순환로161가길 17,37.484961792197,126.917840247291
945,댄스로우,서울 관악구 난곡로59길 5 지하1층,37.4800153616744,126.913939571872
946,모찌,서울 관악구 대학길 96 1층,37.4664486924998,126.937470862835
947,헬로독하이캣,서울 관악구 신림로 108,37.4711305016924,126.937597983499
948,미즈미스터펫,서울 관악구 조원로 128 지하,37.4851063771258,126.916644177851
949,애견용품도매위드독,서울 관악구 난곡로24가길 5,37.4698059058477,126.920999237413
950,펫아이돌,서울 관악구 난곡로9길 24 102호,37.4642791921907,126.917954104454
951,우리애견,서울 관악구 남부순환로 1538,37.4828473671422,126.921508767275
952,올프로무역,서울 관악구 문성로 226,37.4791811993449,126.928822494006
953,메이드바이핸드,서울 동작구 노량진1동 215-30,37.4959917112426,126.983722863078
954,펫마트 시흥점,서울 금천구 시흥대로 272 1층,37.4579204590411,126.899705400969
955,해피팡팡,서울 금천구 시흥대로 343,37.4642458978104,126.897161674476
956,도기랑냥이랑 독산점,서울 금천구 독산로 221,37.4667742322394,126.901506841166
957,윙크펫,서울 금천구 독산로 143-1 1층,37.4601918319504,126.904616894491
958,파트너펫,서울 금천구 독산로 61,37.4528848272133,126.905885540346
959,도그코리아,서울 구로구 디지털로32길 30,37.4833895421043,126.896519918476
960,블라썸독,서울 금천구 벚꽃로 30 금천롯데캐슬골드파크 2차 142호,37.4582229148592,126.893710403536
961,도깨비펫 구로본점,서울 구로구 구로동로26길 115,37.4901321937348,126.890478535204
962,펫츠비,서울 금천구 벚꽃로 298 대륭포스트타워6차,37.4814401689835,126.883871693415
963,오야오야,서울 금천구 벚꽃로 30 롯데캐슬골드파크2차상가 131호,37.4582229148592,126.893710403536
964,꼬누꼬삐아,서울 구로구 디지털로32가길 18 HK타워 903호,37.4826911313086,126.898447709523
965,몽하우스,서울 금천구 시흥대로 78,37.440938935711,126.903785809597
966,도그앤캣용품점,서울 구로구 구로동로18길 13,37.4881752262476,126.885464060144
967,멍이냥이얌얌,서울 금천구 벚꽃로 30 롯데캐슬 골드파크 2차 205동 209호,37.4582229148592,126.893710403536
968,미밍코 마리오아울렛점,서울 금천구 디지털로9길 23 1층,37.478720573213,126.886476789522
969,슈퍼패드,서울 구로구 디지털로27길 36 B01호,37.4837421726915,126.892556275585
970,포켄스코리아,서울 금천구 가산디지털1로 142 가산 더스카이밸리1차 412호,37.4784047058322,126.883358589722
971,씨유펫 독산점,서울 금천구 시흥대로 475 1층 102호,37.476110629469,126.898257640067
972,단추말이,경기 광명시 신촌북로 19 2층,37.4508354611293,126.891866498661
973,아이넷글로벌,서울 금천구 디지털로9길 47 304-2호,37.5374607506125,126.959373963365
974,왈츠컴퍼니,서울 금천구 가산디지털1로 45 1201-3호,37.5076289659006,127.009186639204
975,반하츠,경기 광명시 신촌로15번길 29,37.4496390644988,126.88901417256
976,슬기로운펫생활,서울 금천구 시흥대로 165,37.4479033151811,126.900722652942
977,독독독 광명본점,경기 광명시 오리로 643,37.4586198648169,126.877478680975
978,바우미우,서울 금천구 가산디지털1로 88 IT프리미어타워 8층 802호,37.4738866647292,126.885456361765
979,펫펄스,서울 금천구 가산디지털1로 131,37.4770478235296,126.882215451859
980,릴라러브스잇,서울 금천구 가산디지털1로 205 KCC웰츠밸리 703호,37.4839387775352,126.879573943646
981,댕댕공방,경기 광명시 안현로 19 1층,37.4645269560617,126.874530555828
982,캣글루,서울 금천구 가산디지털2로 108 뉴T캐슬 303호,37.4778955587368,126.880664798648
983,한스애견용품,서울 금천구 시흥대로 46 1동 207호,37.4377767300175,126.903781835304
984,털연구소,서울 금천구 가산디지털2로 169-37 B동 706호,37.4817195674745,126.875548541133
985,도그에몽,경기 광명시 광덕산로 5,37.4703880962954,126.869191370162
986,우미펫,경기 광명시 오리로 643,37.4586198648169,126.877478680975
987,한국프로비던스 동물약품,서울 강남구 테헤란로4길 6 311호,37.5285650253773,126.896111923991
988,킹스펫,경기 광명시 도덕공원로 69-1,37.4748820274078,126.864130241111
989,이레펫 광명소하본점,경기 광명시 기아로 6,37.4363594210818,126.880380160222
990,멍멍닷컴,경기 광명시 기아로13번길 13-1 지하1층,37.4377082755816,126.880949997899
991,멍박사 광명점,경기 광명시 오리로 897,37.4765877500755,126.862901418966
992,스윗도그,서울 강남구 압구정로 108 108호,37.4959614012826,127.036867266017
993,메이드바이핸드,서울 동작구 노량진1동 215-30,37.4794947250457,126.979247960428
994,도그버디 고척점,서울 구로구 고척로32길 3,37.5024509124715,126.849241337269
995,강아지고양이편의점 개봉점,서울 구로구 개봉로 17 성림빌딩,37.4871743603099,126.856110752819
996,메이드바이핸드,서울 동작구 노량진1동 215-30,37.5363296701581,126.960812077266
997,애완용품왕도소매,서울 구로구 서해안로28길 8,37.4928863573401,126.842865053803
998,라니펫,서울 서대문구 남가좌동 277-2,37.5344246148128,126.835477149426
999,우리강아지,서울 구로구 고척로21나길 42,37.5024319060263,126.843358833576
1000,폴리파크 광명사거리점,경기 광명시 오리로 970 크로앙스 B층 1127~1132호,37.4794606227849,126.855644254558
1001,개밥그릇 개봉3동점,서울 구로구 개봉로3길 18,37.4864507732313,126.85530901081
1002,아이넷글로벌,서울 금천구 디지털로9길 47 304-2호,37.4864507732313,126.85530901081
1003,개밥그릇 4동점,경기 광명시 오리로949번길 11,37.47747802088,126.857108294129
1004,빙고네애견용품,경기 광명시 광명로 877,37.4779125008652,126.853151063959
1005,이뻐해줄개,경기 광명시 새터로 108-2,37.4767914031172,126.857964406883
1006,왈츠컴퍼니,서울 금천구 가산디지털1로 45 1201-3호,37.4831186970222,126.94164102542
1007,펫피파니,경기 부천시 역곡로482번길 47 1층,37.52680872955,126.818619866664
1008,진스펫하우스,경기 광명시 광명로832번길 17,37.4729782769445,126.853564302214
1009,강사모애견백화점,경기 부천시 성지로 89-1,37.5271056111847,126.811035566353
1010,대산애견,경기 광명시 광명로848번길 74-8,37.4690649489108,126.851708084696
1011,펫블라썸,서울 은평구 응암동 126-21 B102호,37.4582229148592,126.893710403536
1012,아라교역,경기 광명시 금오로 840-1 1층,37.4737221341994,126.840201821205
1013,펫코디디자인연구소,경기 부천시 까치로20번길 24-39 1층,37.5070886055711,126.810710654403
1014,아이넷글로벌,서울 금천구 디지털로9길 47 304-2호,37.4770478235296,126.882215451859
1015,애견용품아울렛,경기 부천시 안곡로 239-5,37.4892214356355,126.817079933623
1016,왈츠컴퍼니,서울 금천구 가산디지털1로 45 1201-3호,37.5216463980389,126.832054306978
1017,장보는강아지와고양이 광명점,경기 광명시 금하로 237,37.4532090473605,126.859909314315
1018,펫하우스,경기 부천시 역곡로26번길 25,37.4880273107068,126.81190225232
1019,루미펫,경기 부천시 지봉로 131,37.4891823473104,126.813516528383
1020,와우펫애니멀인터네셔널,경기 부천시 양지로 205,37.4677985713913,126.824174708574
1021,엔젤하우스,경기 부천시 범안로21번길 92,37.478838516853,126.810967462984
1022,도미나켄넬 &도미나펫,경기 부천시 역곡로57번길 32 디아이빌아파트 상가 1층,37.4897905711534,126.807698938678
1023,아이넷글로벌,서울 금천구 디지털로9길 47 304-2호,37.5643984476205,126.839657569467
1024,버드펠리스,경기 부천시 부천로 238 경창빌딩 B동 4층,37.5053863506604,126.786911760599
1025,뉴트리웰 인천대리점,경기 부천시 성오로101번길 27,37.5223739138518,126.799080648421
1026,허니펫,경기 부천시 여월로 27 여월휴먼시아 511동 601호,37.5110034195199,126.801408540942
1027,왈츠컴퍼니,서울 금천구 가산디지털1로 45 1201-3호,37.5644543079065,126.924002869673
1028,애왕용품할인마트 강남펫직영점,경기 부천시 소안로74번길 21,37.4813087488206,126.804397919868
1029,폴리파크 원미점,경기 부천시 부천로 132,37.496054636181,126.785709625885
1030,펫마트 부천점,경기 부천시 부천로 100,37.4930434523874,126.785051628964
1031,천군맘마,경기 부천시 경인옛로 108-1 2층,37.480294866752,126.803867599109
1032,간식먹개,경기 부천시 소삼로 47-1 푸르지오상가 B동 122호,37.4794820091274,126.796899892434
1033,스카겐코리아,경기 부천시 부천로198번길 36 춘의테크노파크 101동 1103호,37.5018096652779,126.788885544583
1034,메이드바이핸드,서울 동작구 노량진1동 215-30,37.5621562345682,126.926722965806
1035,캣글루,경기 부천시 조마루로385번길 122 21층 스타트업 하이브,37.501588398621,126.791535004154
1036,펫북,경기 부천시 조마루로 424-6,37.4970621555851,126.790642793665
1037,리본독,경기 부천시 원미로 53 1층,37.4873695446359,126.789503750845
1038,에코노블,경기 부천시 조마루로385번길 50-6 4층,37.4994660096891,126.788000665402
1039,애니멀케어,경기 부천시 수도로 88-35 화일빌딩 2층,37.5138793319552,126.776927571455
1040,스토어봄 부천지사,경기 부천시 옥산로 136,37.5055784569953,126.780472781593
1041,멍멍이이발소,경기 부천시 은성로67번길 13,37.4758757290488,126.798217336889
1042,개린이유치원,경기 부천시 부흥로 447 1층,37.4872930864636,126.789271945195
1043,드림펫,경기 부천시 소사로 306,37.4853656080403,126.794463306805
1044,라니펫,서울 서대문구 남가좌동 277-2,37.4853656080403,126.794463306805
1045,모모모해,경기 부천시 소사로160번길 94,37.4724808864725,126.800806218045
1046,펫편의점,경기 부천시 부일로 519 화신오피스텔 101호,37.4853709247941,126.788038352004
1047,펫클럽 부천점,경기 부천시 신흥로470번길 5,37.5250357239142,126.777938407522
1048,춤추는강아지 소사점,경기 부천시 소사로 156,37.4721805964904,126.795749043211
1049,멍식당,경기 부천시 부흥로373번길 63 1층,37.4943020987754,126.784179561121
1050,프레시봄 부천점,경기 부천시 옥산로 138,37.5057212564505,126.780467613332
1051,에코앤세이브,경기 부천시 산업로7번길 73,37.5314165311543,126.780113327408
1052,도그싸롱,서울 강서구 금낭화로17길 3,37.5751318529262,126.811452783292
1053,라니펫,서울 서대문구 남가좌동 277-2,37.5030623066737,126.901044362245
1054,펫랜드 부천점,경기 부천시 도약로 239,37.5108626126492,126.775415050649
1055,펫블라썸,서울 은평구 응암동 126-21 B102호,37.5251775245928,126.924876706923
