,name,lat,lng,address,type
0,(사)대구수의사회,35.922346,128.5990394,대구광역시 북구 호국로 229 (서변동) 6층,동물보호센터
1,(사)대구시수의사회,35.922346,128.5990394,대구광역시 북구 호국로 229 (서변동) 대구경북수의사회관 6층,동물보호센터
2,(사)하얀비둘기,41.7629586,-76.8884225,부산광역시 강서구 제도로 726 (강동동),동물보호센터
3,119동물병원,33.2475922,-111.6231807,"대구광역시 달성군 다사읍 달구벌대로 893 (다사읍, 대실요양병원 장례식장) 다사읍 관할",동물보호센터
4,21세기동물병원,37.1930977,127.0733401,서울특별시 용산구 보광동 259-1,동물보호센터
5,24시아이동물메디컬,37.5256287,126.8045364,경기도 부천시 오정구 원종동 229-8,동물보호센터
6,C.T종합동물병원,37.546615,126.9574725,"서울특별시 마포구 만리재로 74 (신공덕동, 신공덕2차삼성래미안) 삼성 래미안상가 117호",동물보호센터
7,GD동물병원,37.5482102,127.1730939,서울특별시 강동구 상일로 13 (상일동) 1~2층 GD동물병원,동물보호센터
8,MK동물병원,37.8238137,-122.0039681,울산광역시 울주군 온산읍 덕신로 250 (온산읍),동물보호센터
9,cj동물병원,36.2533046,-115.1527828,"경기도 부천시 소향로 246 (중동, 새롬프라자6차)",동물보호센터
10,가나동물병원,40.0185127,-82.882952,경기도 부천시 경인로 72 (송내동),동물보호센터
11,가온동물병원,40.7595321,-73.7734396,경기도 파주시 가온로 116 (목동동),동물보호센터
12,가정동물병원,37.5155912,126.672973,인천광역시 서구 가정로 346 (가정동),동물보호센터
13,가평군유기동물보호소,37.870134,126.98335,"경기도 가평군 가평읍 아랫마장길 59 (가평읍, 농업기술센터) 가평 유기동물 보호소(10:00~18:00)",동물보호센터
14,감자동물병원,35.8412826,128.7047423,대구광역시 수성구 달구벌대로 3179 (매호동) 1층,동물보호센터
15,강남동물병원,37.507793,127.0344379,울산광역시 남구 돋질로 232 (달동) 1층,동물보호센터
16,강동구청 반려동물팀,37.5298053,127.1365795,"서울특별시 강동구 성내로 25 (성내동, 강동구청) 강동구청",동물보호센터
17,강동리본센터(reborn),37.5238281,127.1302496,서울특별시 강동구 양재대로81길 73 (성내동) 강동구 유기동물 분양센터(reborn),동물보호센터
18,강릉시동물사랑센터,37.6988702,128.8293682,강원도 강릉시 성산면 내맬길 172,동물보호센터
19,강진군 유기견 보호소,34.5693613,126.6062777,"전라남도 강진군 강진읍 초지길 109-62 (강진읍, 강진군상하수도사업소)",동물보호센터
20,강현림동물병원,37.5439796,126.8624166,서울특별시 양천구 등촌로 160 (목동) 1층,동물보호센터
21,거제시유기동물보호소,35.1194157,128.4682829,"경상남도 거제시 사등면 두동로1길 109 (사등면, 한국자원재생공사폐비닐적재장) 거제시유기동물보호소",동물보호센터
22,경동동물병원,37.4722068,126.6294507,인천광역시 중구 개항로 68 (경동),동물보호센터
23,경동동물병원,37.4722068,126.6294507,인천광역시 중구 개항로 68 (경동),동물보호센터
24,경산시유기동물보호소,35.838049,128.563137,경상북도 경산시 용성면 사양지길 95 (용성면),동물보호센터
25,경주시유기동물보호소,35.8397702,129.1842935,경상북도 경주시 용담로 12 (황성동),동물보호센터
26,계룡시유기동물보호소,36.4588151,127.383038,충청남도 계룡시 엄사면 천마로 12,동물보호센터
27,고성군유기동물보호소,35.1194157,128.4682829,경상남도 고성군 고성읍 남해안대로 2829-60 고성군농업기술센터 동물보호센터,동물보호센터
28,고양시동물보호센터,37.64892529999999,126.8702027,"경기도 고양시 덕양구 고양대로 1695 (원흥동, 고양시 농업기술센터) 고양시동물보호센터",동물보호센터
29,고창동물병원,35.4355654,126.6944703,전라북도 고창군 무장면 원금곡길 13,동물보호센터
30,고흥군임시보호센터,34.6218111,127.294795,"전라남도 고흥군 포두면 우주로 607 (포두면, 소매점)",동물보호센터
31,광명반함센터,37.4784878,126.8642888,경기도 광명시 오리로854번길 10 (철산동) 지하1층,동물보호센터
32,광양시 임시보호소,34.7737186,127.7201752,전라남도 광양시 봉강면 인덕로 1169-20 (봉강면) 지곡리 864-24,동물보호센터
33,광주 동물보호소,35.2224503,126.8816669,광주광역시 북구 본촌마을길 27 (본촌동) 광주광역시 동물보호소,동물보호센터
34,광주 동물보호소,35.2224503,126.8816669,광주광역시 북구 본촌마을길 27 (본촌동) 광주광역시 동물보호소,동물보호센터
35,광주 동물보호소,35.2224503,126.8816669,광주광역시 북구 본촌마을길 27 (본촌동) 광주광역시 동물보호소,동물보호센터
36,광주 동물보호소,35.2224503,126.8816669,광주광역시 북구 본촌마을길 27 (본촌동) 광주광역시 동물보호소,동물보호센터
37,광주 동물보호소,35.2224503,126.8816669,광주광역시 북구 본촌마을길 27 (본촌동) 광주공역시 동물보호소,동물보호센터
38,광주TNR동물병원송정,35.1797524,126.809108,경기도 광주시 경안천로 144 (송정동) 1층,동물보호센터
39,광주TNR동물병원초월,37.3778631,127.2538442,경기도 광주시 초월읍 현산로385번길 74-12 (초월읍),동물보호센터
40,구미시 동물보호센터,36.138712,128.418994,경상북도 구미시 해평면 낙동대로 2206,동물보호센터
41,군산유기동물보호센터,35.9605092,126.8157793,전라북도 군산시 대야면 보덕안정길 108-20,동물보호센터
42,금강동물병원,35.9797546,126.719097,서울특별시 용산구 이촌동 301-160,동물보호센터
43,금강동물병원,35.9797546,126.719097,대구광역시 수성구 동원로 150 (만촌동) 금강동물병원,동물보호센터
44,금릉동물병원,37.7514372,126.7661843,"경기도 파주시 금빛로 19 (금촌동, 파주프라임타워)",동물보호센터
45,김천시 동물보호센터,36.4588151,127.383038,경상북도 김천시 조마로 2128 (양천동),동물보호센터
46,나은동물병원,37.7651781,128.8770946,경기도 파주시 새꽃로 207 (아동동) 나은동물병원,동물보호센터
47,나주유기동물보호센터,35.2224503,126.8816669,전라남도 나주시 산포면 내기3길 71-43 [*미고시],동물보호센터
48,남부여동물병원,36.2810005,126.9086584,충청남도 부여군 부여읍 성왕로 190-1 남부여동물병원,동물보호센터
49,남산동물병원,37.5483938,126.9779995,서울특별시 용산구 후암동 244-60,동물보호센터
50,남산동물병원,37.5483938,126.9779995,울산광역시 남구 북부순환도로 40 (무거동),동물보호센터
51,남양유기견보호센터,37.2246939,126.8431367,경기도 화성시 남양읍 화성로 1483-27 (남양읍),동물보호센터
52,남양주동물보호협회,37.6488308,127.2353582,"경기도 남양주시 금곡로 44 (금곡동, 성원빌딩) 1층",동물보호센터
53,남해군유기동물보호소,34.8027119,127.9524813,경상남도 남해군 이동면 무림로 33-13 (이동면),동물보호센터
54,노원반려동물문화센터,38.8985658,-77.04428419999999,"서울특별시 노원구 수락산로 258 (상계동, 호성빌딩) 1층",동물보호센터
55,논산시청,36.187159,127.0988903,충청남도 논산시 시민로210번길 9 (내동),동물보호센터
56,누리동물병원,35.1965674,129.205997,부산광역시 해운대구 송정2로13번길 46 (송정동) 누리동물병원,동물보호센터
57,누리동물병원,35.1965674,129.205997,부산광역시 해운대구 송정동 85-1,동물보호센터
58,누리동물병원,35.1965674,129.205997,부산광역시 해운대구 송정2로13번길 46 (송정동),동물보호센터
59,누리동물병원,35.1965674,129.205997,부산광역시 해운대구 송정2로13번길 46 (송정동),동물보호센터
60,누리동물병원,35.1965674,129.205997,부산광역시 해운대구 송정2로13번길 46 (송정동),동물보호센터
61,늘푸른동물병원,37.5982252,126.9109657,인천광역시 부평구 후정동로 60 (삼산동),동물보호센터
62,다나동물병원,37.5485652,126.8366234,강원도 정선군 정선읍 비봉로 46,동물보호센터
63,단양군유기동물보호소,37.0089381,127.8496841,충청북도 단양군 매포읍 우덕리 910번지,동물보호센터
64,달성축산동물병원,35.6745771,128.4458225,대구광역시 달성군 현풍면 원교길 6 (현풍면),동물보호센터
65,담양군 동물보호센터,35.2224503,126.8816669,전라남도 담양군 용면 시암골로 280-57 (용면) :용면 두장리 21번지,동물보호센터
66,당진시동물보호소,36.9026305,126.6884595,충청남도 당진시 고대면 연동로 30-6 (고대면),동물보호센터
67,대구수의사회(달성군),35.922346,128.5990394,대구광역시 북구 호국로 229 (서변동),동물보호센터
68,대구수의사회(아이펫),35.8638288,128.5565623,대구광역시 서구 서대구로 64 (평리동),동물보호센터
69,대구시수의사회,35.922346,128.5990394,대구광역시 북구 호국로 229 (서변동) 대구경북수의사회관 6층,동물보호센터
70,대구시수의사회(고려),35.878846,128.7359468,대구광역시 중구 중앙대로 333 (남산동),동물보호센터
71,대구시수의사회(더난),35.922346,128.5990394,대구광역시 서구 국채보상로 176 (중리동),동물보호센터
72,대구시수의사회(더펫),35.922346,128.5990394,대구광역시 서구 서대구로 361 (비산동) 2층,동물보호센터
73,대구시수의사회(동산),35.922346,128.5990394,대구광역시 중구 남성로 서성로 34 (남성로),동물보호센터
74,대구시수의사회(동인),35.922346,128.5990394,대구광역시 중구 동인동4가 국채보상로 724,동물보호센터
75,대구시수의사회(보경),35.922346,128.5990394,대구광역시 서구 달서로 165 (비산동),동물보호센터
76,대구시수의사회(삼덕),35.878846,128.7359468,대구광역시 중구 삼덕동1가 달구벌대로 2145,동물보호센터
77,대구시수의사회(삼성),35.878846,128.7359468,대구광역시 서구 서대구로 24 (내당동),동물보호센터
78,대구시수의사회(원),35.922346,128.5990394,대구광역시 중구 동덕로8길 2 (대봉동),동물보호센터
79,대구유기동물보호센터,35.838049,128.563137,대구광역시 동구 금강로 151-13 (금강동),동물보호센터
80,대구유기동물보호센터,35.838049,128.563137,대구광역시 동구 금강로 151-13 (금강동),동물보호센터
81,대구유기동물보호센터,35.838049,128.563137,대구광역시 동구 금강로 151-13 (금강동),동물보호센터
82,대구유기동물보호센터,35.838049,128.563137,대구광역시 동구 금강로 151-13 (금강동),동물보호센터
83,대전동물보호센터,36.4588151,127.383038,대전광역시 유성구 금남구즉로 1234 (금고동) 대전광역시 동물보호센터,동물보호센터
84,대전동물보호센터,36.4588151,127.383038,대전광역시 유성구 금남구즉로 1234 (금고동) 대전광역시 동물보호센터,동물보호센터
85,대전동물보호센터,36.4588151,127.383038,대전광역시 유성구 금남구즉로 1234 (금고동) 대전광역시 동물보호센터,동물보호센터
86,대전동물보호센터,36.4588151,127.383038,대전광역시 유성구 금남구즉로 1234 (금고동) 대전광역시 동물보호센터,동물보호센터
87,대전동물보호센터,36.4588151,127.383038,대전광역시 유성구 금남구즉로 1234 (금고동) 대전광역시 동물보호센터,동물보호센터
88,대한동물사랑협회,34.9470715,127.4877401,전라남도 순천시 상사면 민속마을길 978 (상사면) .,동물보호센터
90,동물보호관리협회,35.1788983,128.8997675,부산광역시 강서구 가락대로1283번길 25-2 (봉림동),동물보호센터
92,동인동물병원,37.6562321,127.2470101,대구광역시 중구 동인동4가 국채보상로 724 (동인동4가) 가창면 관할,동물보호센터
93,동해시유기동물보호소,37.4850118,129.1190429,"강원도 동해시 대동로 159-13 (송정동, 동해시유기동물보호소)",동물보호센터
94,둔촌동물병원,37.5298053,127.1365795,서울특별시 강동구 양재대로 1385 (성내동) 둔촌동물병원,동물보호센터
95,디아크동물종합병원,37.5117369,126.9391006,서울특별시 동작구 장승배기로27길 18 (노량진동),동물보호센터
96,라온동물병원,37.5659678,126.9108041,서울특별시 용산구 이태원동 225-93,동물보호센터
97,러브펫동물병원,33.874133,-117.5457866,경기도 하남시 신평로 58 (신장동) 1층,동물보호센터
98,러브펫종합동물병원,37.4816143,126.9120617,서울특별시 관악구 남부순환로 1429 (신림동),동물보호센터
99,로뎀동물병원,37.4922072,126.7906844,"경기도 파주시 문산읍 방촌로 1636 (문산읍, 강산설렁탕)",동물보호센터
100,리틀쥬동물의료원,35.5417225,129.3062805,울산광역시 남구 봉월로 104 (신정동),동물보호센터
101,마산유기동물보호소,35.1194157,128.4682829,경상남도 창원시 마산합포구 진북면 지산2길 139-112 226-19,동물보호센터
102,마포구청,37.5662001,126.9016437,"서울특별시 마포구 월드컵로 212 (성산동, 마포구청) 8층 지역경제과",동물보호센터
104,명곡역동물병원,35.7993587,128.4908071,대구광역시 달성군 화원읍 비슬로 2490 (화원읍) 옥포면 관할,동물보호센터
105,목포시유기동물보호소,35.2224503,126.8816669,전라남도 무안군 삼향읍 석매길 21-5 (삼향읍),동물보호센터
106,무안군유기동물보호소,35.2224503,126.8816669,전라남도 무안군 무안읍 백로로 164-123,동물보호센터
107,문산동물병원,37.854996,126.7857024,경기도 파주시 문산읍 문향로 35 문산동물병원,동물보호센터
108,미래펫동물병원,35.2359105,128.6709633,울산광역시 남구 중앙로 218-1 (신정동),동물보호센터
109,미엘동물병원,37.7255402,126.7182723,경기도 파주시 청석로 264 (동패동) 2층 201호 거북목프라자,동물보호센터
110,민트동물병원,37.5337926,126.9500754,"서울특별시 용산구 원효로 51 (산천동, 삼성테마트) 119호",동물보호센터
111,밀양시동물보호센터,35.4910252,128.7292071,경상남도 밀양시 삼랑진읍 천태로 472 (삼랑진읍),동물보호센터
112,박영재동물병원,35.8102203,127.1491608,전라북도 전주시 완산구 전주천서로 111 (서서학동) 박영재 동물병원,동물보호센터
113,박창석동물병원,37.5414708,126.9503309,서울특별시 마포구 도화길 42 (도화동),동물보호센터
114,반려동물보호센터,36.5903637,127.3657007,충청북도 청주시 흥덕구 강내면 서부로 411-55 (강내면),동물보호센터
115,버디종합동물병원,40.8495488,-73.969281,경기도 파주시 문산읍 문산역로 77 버디종합동물병원,동물보호센터
116,범서조은동물병원,35.5635625,129.2310625,울산광역시 울주군 범서읍 천상중앙길 49 (범서읍),동물보호센터
117,베스트동물병원,36.085526,-95.8680393,"인천광역시 강화군 강화읍 강화대로 217 (강화읍, 린나이보일러)",동물보호센터
118,별빛유기동물지킴이,37.3667927,127.1273107,전라북도 완주군 용진읍 순지2길 187-6,동물보호센터
119,보령시임시동물보호소,36.332437,126.5878328,충청남도 보령시 녹문3길 7 (내항동),동물보호센터
120,보성유기동물보호센터,35.2224503,126.8816669,전라남도 보성군 노동면 노동천동길 209 (노동면) 신천리 71,동물보호센터
121,봉화군유기동물보호소,37.1724944,129.041338,경상북도 봉화군 봉성면 농업인길 24 (봉성면) 봉화군농업기술센터,동물보호센터
122,부산동물보호센터,35.1345653,128.9282488,부산광역시 강서구 맥도강변길 752-15 (대저2동),동물보호센터
123,부산동물보호센터,35.1345653,128.9282488,부산광역시 강서구 맥도강변길 752-15 (대저2동),동물보호센터
124,부산동물보호센터,35.1345653,128.9282488,부산광역시 강서구 맥도강변길 752-15 (대저2동),동물보호센터
125,부산동물보호센터,35.1345653,128.9282488,부산광역시 강서구 맥도강변길 752-15 (대저2동),동물보호센터
126,부천시수의사회,37.500431,126.794264,경기도 부천시 길주로 660 (춘의동),동물보호센터
127,불갑동물임시보호소,35.2089568,126.5076215,전라남도 영광군 불갑면 함영로 2758,동물보호센터
128,사단법인 하얀비둘기,35.1774925,128.9170235,부산광역시 강서구 제도로 726 (강동동),동물보호센터
129,사단법인 하얀비둘기,35.1774925,128.9170235,부산광역시 강서구 제도로 726 (강동동),동물보호센터
130,사랑동물병원,35.53587479999999,129.3135744,울산광역시 남구 중앙로 165-1 (신정동),동물보호센터
131,사천시 동물보호센터,35.0657972,128.0750009,경상남도 사천시 용현면 진삼로 902,동물보호센터
132,산청동물보호센터,35.4127737,127.8725262,경상남도 산청군 산청읍 친환경로 2783-25 (산청읍),동물보호센터
133,삼산종합동물병원,37.5081978,126.7361191,"인천광역시 부평구 체육관로 40 (삼산동, 신영프라자)",동물보호센터
134,삼척시유기동물보호소,37.4850118,129.1190429,"강원도 삼척시 근덕면 교곡길 127-281 (근덕면, 쓰레기소각시설) 유기동물보호소",동물보호센터
135,상주유기동물보호센터,37.0089381,127.8496841,경상북도 상주시 청리면 남상주로 1205-59,동물보호센터
136,서산동물병원,36.7844993,126.4503169,충청남도 서산시 안견로 235 (동문동),동물보호센터
137,서산시 동물보호센터,36.7774645,126.4489852,충청남도 서산시 인지면 무학재1길 99,동물보호센터
138,서울동물복지지원센터,37.4985933,126.8713366,서울특별시 마포구 매봉산로 31 (상암동) 지하1층,동물보호센터
139,서울동물복지지원센터,37.4985933,126.8713366,서울특별시 마포구 매봉산로 31 (상암동) 에스플렉스센터 지하1층,동물보호센터
140,서울동물복지지원센터,37.4985933,126.8713366,서울특별시 마포구 매봉산로 31 (상암동) 지하1층,동물보호센터
141,서천군유기동물보호소,35.9605092,126.8157793,충청남도 서천군 마산면 한마로 1189-19,동물보호센터
142,서초동물사랑센터,37.4763321,127.0381241,"서울특별시 서초구 양재천로19길 22 (양재동, 숨빌딩) 서초동물사랑센터",동물보호센터
143,성주유기동물보호센터,35.9605092,126.8157793,경상북도 성주군 선남면 선노로 522 (선남면),동물보호센터
144,세림동물병원,37.5038014,126.7099255,"인천광역시 부평구 원적로 392 (산곡동, 백마타운)",동물보호센터
145,세종유기동물보호센터,35.1345653,128.9282488,세종특별자치시 전동면 미륵당1길 188 (전동면),동물보호센터
146,세종종합동물병원,36.6027273,127.3042316,세종특별자치시 조치원읍 새내로 81-2 (조치원읍) 세종종합동물병원,동물보호센터
147,속초시유기동물보호소,38.2061255,128.585016,강원도 속초시 하도문길 103 (대포동),동물보호센터
148,수원시 동물보호센터,37.2852921,127.0784732,"경기도 수원시 영통구 광교호수로 234 (하동, 수원시 동물보호센터) 하동 40-10",동물보호센터
149,순천시유기동물보호소,34.9471116,127.487679,"전라남도 순천시 승주읍 승주로 628 (승주읍, 농업기술센터) 순천시유기동물보호소",동물보호센터
150,스마일동물병원,35.8649485,127.12823,울산광역시 남구 대학로 112 (무거동),동물보호센터
151,스타캣츠,37.47542200000001,127.0457819,경기도 안산시 단원구 한양대학로 208 (고잔동) 2층 스타캣츠,동물보호센터
152,시흥시농업기술센터,37.40077429999999,126.8084074,"경기도 시흥시 관곡지로 139 (하중동, 생명농업기술센터)",동물보호센터
153,신공항동물병원,37.4912946,126.5352837,인천광역시 중구 운중로 33 (운남동),동물보호센터
154,신세계동물병원,37.5064627,126.9992311,대구광역시 수성구 수성동1가 명덕로 393 (수성동1가),동물보호센터
155,신안유기동물보호센터,35.2224503,126.8816669,전라남도 무안군 삼향읍 석매길 21-5 (삼향읍),동물보호센터
156,아산시동물보호센터,36.8068504,127.0047685,충청남도 아산시 염치읍 충무로 295-9,동물보호센터
157,야당동물병원,37.715662,126.7600361,경기도 파주시 경의로 1100 (야당동) 201호,동물보호센터
158,양구,38.1100701,127.9898825,강원도 양구군 남면 양남로 319-31 (남면) 양구군농업기술센터,동물보호센터
159,양산시 동물보호센터,35.3353237,129.0257872,경상남도 양산시 동면 석산리 392 양산시농업기술센터,동물보호센터
160,양평군유기동물보호소,37.4424585,127.6316831,경기도 양평군 양평읍 농업기술센터길 59 (양평읍),동물보호센터
161,연합동물병원,35.34599499999999,129.0368529,"전라북도 부안군 부안읍 번영로 185 (부안읍, 르노삼성자동차) 연합동물병원",동물보호센터
162,열린동물병원,37.3374225,127.9287084,서울특별시 용산구 원효로2가 84-10,동물보호센터
163,영덕유기동물보호센터,36.14575019999999,129.3327567,경상북도 영덕군 영덕읍 구미2길 14-1 (영덕읍) 영덕군유기동물보호센터,동물보호센터
164,영양군유기동물보호소,36.14575019999999,129.3327567,경상북도 영양군 입암면 마령산해로 1202 (입암면) .,동물보호센터
165,영월군위탁동물보호소,37.0089381,127.8496841,강원도 영월군 영월읍 덕포우회길 329,동물보호센터
166,영일동물플러스,36.106395,129.3465209,경상북도 포항시 북구 흥해읍 덕장길 224 (흥해읍),동물보호센터
167,영주시 동물보호센터,36.8264708,128.621818,경상북도 영주시 문수면 반구로324번길 135 (문수면) 장수면 반구리 407-8,동물보호센터
168,영천유기동물보호센터,35.9912207,128.9246649,"경상북도 영천시 천문로 622-13 (오미동, 영천시농업기술센터)",동물보호센터
169,예산동물보호센터,36.6826123,126.8483951,충청남도 예산군 예산읍 아리랑로 236 지하1층,동물보호센터
170,예스동물병원,29.6984905,-95.5875163,대구광역시 수성구 동대구로 207 (황금동),동물보호센터
171,예천군유기동물보호소,37.0089381,127.8496841,"경상북도 예천군 예천읍 충효로 632-84 (예천읍, 유기동물보호소)",동물보호센터
172,오산시수의사회,37.2963571,127.0077353,경기도 오산시 성호대로 36 (오산동),동물보호센터
173,옥천동물병원,36.303032,127.5687809,"충청북도 옥천군 옥천읍 삼금로 53 (옥천읍, 동물병원) 옥천동물병원",동물보호센터
174,와우동물병원,37.4760427,126.9158344,울산광역시 울주군 언양읍 읍성로 135 (언양읍),동물보호센터
175,용강동물병원,37.5447749,126.9393825,서울특별시 마포구 대흥로 48 (대흥동),동물보호센터
176,용인시 동물보호센터,37.2433246,127.1591659,"경기도 용인시 처인구 중부대로 1074-1 (삼가동, 용인시 동물보호센터)",동물보호센터
177,우리동물병원,36.7780946,126.4579741,인천광역시 서구 서곶로 349 (연희동) 우리동물병원,동물보호센터
178,우성동물병원,37.3776995,127.1328487,경상북도 군위군 군위읍 중앙1길 17 (군위읍),동물보호센터
179,울릉군농업기술센터,37.4610679,130.8743201,"경상북도 울릉군 울릉읍 신리길 68 (울릉읍, 울릉도축장)",동물보호센터
180,울산유기동물보호센터,35.5344908,129.3179394,울산광역시 울주군 온양읍 화산발리로 543 (온양읍),동물보호센터
181,울산유기동물보호센터,35.5344908,129.3179394,울산광역시 울주군 온양읍 화산발리로 543 (온양읍),동물보호센터
182,울산유기동물보호센터,35.5344908,129.3179394,울산광역시 울주군 온양읍 발리 1144,동물보호센터
183,울산유기동물보호센터,35.5344908,129.3179394,울산광역시 울주군 온양읍 발리 1144,동물보호센터
184,울진군동물보호센터,36.9935218,129.4037226,경상북도 울진군 울진읍 대흥신림로 916-37,동물보호센터
185,원주유기동물보호센터,37.489854,127.9885661,강원도 원주시 호저면 칠봉로 110-6,동물보호센터
186,원효동물병원,37.5364057,126.9631403,서울특별시 용산구 원효로2가 30-4,동물보호센터
187,월드동물병원,35.1738391,-80.8030045,충청남도 금산군 금산읍 오리정로 68 월드동물병원,동물보호센터
188,웰니스클리닉,40.7594285,-73.7737306,"경기도 파주시 한울로 123 (동패동, 이마트운정점) 2층, 웰니스클리닉",동물보호센터
189,웰케어 동물병원,37.5568369,126.9190588,"서울특별시 마포구 월드컵북로 27 (서교동, 이화빌딩) 서교동447-2",동물보호센터
190,위더스 동물보호센터,37.1750998,127.0498535,경기도 여주시 능서면 능서공원길 34 (능서면),동물보호센터
191,위더스 동물보호센터,37.1750998,127.0498535,경기도 여주시 능서면 능서공원길 34 (능서면),동물보호센터
192,유기견임시보호소,37.618942,127.1036349,강원도 고성군 간성읍 꽃내마루길 53-49,동물보호센터
193,유기동물및동물보호협,35.1788983,128.8997675,부산광역시 강서구 가락대로1283번길 25-2 (봉림동),동물보호센터
194,유기동물보호센터,35.1345653,128.9282488,경상북도 안동시 서후면 풍산태사로 3252-29 (서후면),동물보호센터
195,유기동물보호소,35.1345653,128.9282488,"전라남도 여수시 주동1길 32 (주삼동, 여수시농업기술센터) 여수시 유기동물보호소",동물보호센터
196,유기동물임시보호센터,35.1345653,128.9282488,전라남도 완도군 신지면 신지로6번길 23-89 (신지면),동물보호센터
197,유실유기동물보호소,37.1307964,127.0555295,충청남도 천안시 동남구 충절로 437 (삼룡동),동물보호센터
198,이n김동물병원,37.6693897,127.0464436,서울특별시 도봉구 마들로 664 (도봉동) 2층,동물보호센터
199,이기영수의과병원,36.4528672,127.1220696,충청남도 공주시 감영길 7 (반죽동),동물보호센터
200,이상윤동물병원,37.5194202,126.9748273,서울특별시 용산구 이촌동 300-23,동물보호센터
201,이태원동물병원,37.5363658,126.9871919,서울특별시 용산구 이태원동 531,동물보호센터
202,익산유기동물보호소,35.9365491,127.0024098,전라북도 익산시 서동로42길 77 (용제동) 16통 1반,동물보호센터
203,인월동물병원,34.9462181,127.51413,전라북도 남원시 인월면 인월로 64,동물보호센터
204,인제군유기동물보호소,38.02392830000001,128.6401786,강원도 인제군 인제읍 비봉로44번길 105,동물보호센터
205,인천광역시 수의사회,37.5661963,126.7196302,"인천광역시 계양구 다남로165번길 56 (다남동, 유기동물보호소)",동물보호센터
206,인천광역시수의사회,37.5661963,126.7196302,"인천광역시 계양구 다남로165번길 56 (다남동, 유기동물보호소)",동물보호센터
207,인천수의사회유기동물,37.5661963,126.7196302,인천광역시 계양구 다남동 35-8,동물보호센터
208,임실유기동물보호센터,35.9605092,126.8157793,전라북도 임실군 오수면 오수로 182 번지,동물보호센터
209,장성군동물보호센터,35.2224503,126.8816669,전라남도 장성군 삼서면 대중길 29-27,동물보호센터
210,장흥군 동물보호센터,35.2224503,126.8816669,"전라남도 장흥군 안양면 우드랜드길 288 (안양면, 남도국제교육원) 축산사업소",동물보호센터
211,전북말산업복합센터,35.8238477,126.9944108,전라북도 김제시 용지면 금백로 571-39 (용지면) 전북말산업복합센터,동물보호센터
213,정선가축병원,37.379347,128.6607054,강원도 정선군 정선읍 정선로 1321 (정선읍),동물보호센터
214,정읍시 동물보호소,35.5914994,126.8737432,전라북도 정읍시 2산단5길 37-1 (하북동),동물보호센터
215,정철동물병원,35.56187920000001,129.3552795,울산광역시 북구 진장17길 11 (진장동) 정철동물병원,동물보호센터
216,제니스동물병원,38.7093321,-121.3143048,대구광역시 수성구 달구벌대로 2475 (범어동),동물보호센터
218,제주 동물보호센터,33.455449,126.5893339,제주특별자치도 제주시 첨단동길 184-14 (용강동),동물보호센터
219,제주동물보호센터,33.455449,126.5893339,제주특별자치도 제주시 첨단동길 184-14 (용강동),동물보호센터
220,제주동물보호센터,33.455449,126.5893339,제주특별자치도 제주시 첨단동길 184-14 (용강동),동물보호센터
221,제주애견학교,33.4960579,126.5350955,제주특별자치도 제주시 삼의영길 72 (아라일동),동물보호센터
222,제천시 동물보호센터,37.1527154,128.2298658,충청북도 제천시 금성면 적성로8길 51 (금성면),동물보호센터
223,조재진동물병원,37.5039544,126.7118045,인천광역시 부평구 원적로 409 (산곡동),동물보호센터
224,종합가축병원,40.8495488,-73.969281,경상북도 문경시 중앙로 170 (흥덕동) 종합가축병원,동물보호센터
225,주동물병원,38.9976955,-92.3213952,울산광역시 남구 돋질로 385-1 (삼산동),동물보호센터
226,진도개메디컬센터,34.4824496,126.2782551,전라남도 진도군 진도읍 성죽골길 30 (진도읍) 진도개축산과,동물보호센터
227,진주시유기동물보호소,35.1790795,128.1026166,"경상남도 진주시 집현면 신당길207번길 22 (집현면, 지역농업개발시설)",동물보호센터
228,진천군유기동물보호소,36.8587251,127.4447429,"충청북도 진천군 진천읍 문화6안길 14-1 (진천읍, 진천지게차) 진천동물병원",동물보호센터
229,진해유기동물보호소,35.1141397,128.7542844,"경상남도 창원시 진해구 웅천로 218 (성내동, 농업기술센터) 205번지",동물보호센터
230,짱구네동물병원,37.5176321,126.7316314,"인천광역시 부평구 평천로 356 (갈산동, 민상빌딩) 1층",동물보호센터
231,차오름동물병원,37.5342324,126.9510943,서울특별시 용산구 산천동 93-1,동물보호센터
232,창녕 유기동물보호소,35.5445563,128.4922143,경상남도 창녕군 고암면 창밀로 335-26 (고암면) 고암면 억만리 28,동물보호센터
233,창원유기동물보호소,35.1194157,128.4682829,"경상남도 창원시 의창구 창이대로 71 (명서동, 창원시농업기술센터) 축산과",동물보호센터
234,철원군,38.146609,127.3132256,"강원도 철원군 동송읍 장흥로 311 (동송읍, 철원군농업기술센타) 농업기술센터",동물보호센터
235,청도군동물보호소,35.6721248,128.5774399,경상북도 청도군 화양읍 청화3길 10 청도군 농업기술센터,동물보호센터
236,청양보호소,36.4588326,126.8022116,충청남도 청양군 대치면 청산로 446-17 (대치면),동물보호센터
237,청원동물병원,35.4089054,127.3867404,전라북도 남원시 죽항동 278번지,동물보호센터
238,최동물병원,33.8915491,-117.9458094,충청남도 태안군 태안읍 남문리 504-6,동물보호센터
239,최상오동물병원,32.8465843,-96.949846,충청북도 보은군 보은읍 보은로 119-1 (보은읍),동물보호센터
240,최종주동물병원,34.0493821,-118.2438524,"충청북도 영동군 영동읍 계산로 54 (영동읍, 최종주동물병원)",동물보호센터
241,춘천시 동물보호센터,37.8823499,127.7331546,강원도 춘천시 신북읍 영서로 3282 (신북읍) (전)102보충대 주차장,동물보호센터
242,칠곡유기동물보호센터,35.9912207,128.9246649,경상북도 칠곡군 석적읍 포망로 341 (석적읍),동물보호센터
243,캥거루동물병원,37.4897883,126.8397764,서울특별시 구로구 오류로 55 (오류동),동물보호센터
244,쿨펫 홈플러스 북구점,35.62995069999999,129.344826,"울산광역시 북구 신답로 26 (상안동, 홈플러스) 쿨펫동물병원 홈플러스 북구점",동물보호센터
245,쿨펫동물병원,36.8264712,127.1406664,"울산광역시 북구 진장유통로 64 (진장동, 롯데마트) 4층 쿨펫동물병원",동물보호센터
246,태민동물병원,35.568738,128.1566864,"경상남도 합천군 합천읍 옥산로 16 (합천읍, 까치빌라) 태민동물병원",동물보호센터
247,태백유기동물,37.162349,128.9851398,강원도 태백시 문의재로 5 (통동),동물보호센터
248,파주24시동물병원,37.710941,126.745787,경기도 파주시 교하로 87 (목동동) 삼성프라자 201,동물보호센터
249,펫동물병원,34.0493821,-118.2438524,대구광역시 수성구 달구벌대로 3144 (노변동) 펫동물병원,동물보호센터
250,펫토이동물병원,40.7608494,-73.8016876,서울특별시 용산구 한남동 653-26,동물보호센터
251,펫토피아동물병원,40.7608494,-73.8016876,"경기도 성남시 분당구 불정로 266 (수내동, 유신제일조합)",동물보호센터
252,평창군유기동물보호소,37.6988702,128.8293682,강원도 평창군 진부면 청송로 61,동물보호센터
253,평택시유기동물보호소,37.1307964,127.0555295,경기도 평택시 진위면 야막길 108-86 (진위면),동물보호센터
254,포산동물병원,35.6924258,128.4417881,대구광역시 달성군 현풍면 비슬로 614-1 (현풍면) 논공읍 관할,동물보호센터
255,하나동물병원,49.2492797,-122.8624465,전라북도 남원시 왕정동 67,동물보호센터
256,하남동물병원,37.5371424,127.2040914,경기도 하남시 신평로 37 (덕풍동) 하남동물병원,동물보호센터
257,하동군유기동물보호소,35.0672108,127.7512687,경상남도 하동군 적량면 한옥정길 90 (적량면) 유기동물보호소,동물보호센터
258,하얀비둘기,35.9567214,126.971962,부산광역시 강서구 제도로 726 (강동동),동물보호센터
260,한국동물구조관리협회,37.870134,126.98335,경기도 양주시 남면 감악산로 63-37 (남면),동물보호센터
261,한국동물구조관리협회,37.870134,126.98335,경기도 양주시 남면 감악산로 63-37 (남면),동물보호센터
262,한국동물구조관리협회,37.870134,126.98335,경기도 양주시 남면 감악산로 63-37 (남면),동물보호센터
263,한국동물구조관리협회,37.870134,126.98335,경기도 양주시 남면 감악산로 63-37 (남면),동물보호센터
264,한국동물구조관리협회,37.870134,126.98335,경기도 양주시 남면 감악산로 63-37,동물보호센터
265,한국동물구조관리협회,37.870134,126.98335,경기도 양주시 남면 감악산로 63-37,동물보호센터
266,한국동물구조관리협회,37.870134,126.98335,경기도 양주시 남면 감악산로 63-37 (남면),동물보호센터
267,한국동물구조관리협회,37.870134,126.98335,경기도 양주시 남면 감악산로 63-37,동물보호센터
268,한국동물구조관리협회,37.870134,126.98335,경기도 양주시 남면 상수리 410-1,동물보호센터
269,한국동물구조관리협회,37.870134,126.98335,경기도 양주시 남면 감악산로 63-37 (남면),동물보호센터
270,한국동물구조관리협회,37.870134,126.98335,경기도 양주시 남면 감악산로 63-48,동물보호센터
271,한국동물구조관리협회,37.870134,126.98335,경기도 양주시 남면 감악산로 63-37 (남면),동물보호센터
272,한국동물구조관리협회,37.870134,126.98335,경기도 양주시 남면 감악산로 63-37 (남면) 한국동물구조관리협회,동물보호센터
273,한국동물구조관리협회,37.870134,126.98335,경기도 양주시 남면 상수리 410-1,동물보호센터
274,한국동물구조관리협회,37.870134,126.98335,경기도 양주시 남면 감악산로 63-37 (남면),동물보호센터
275,한국동물구조관리협회,37.870134,126.98335,경기도 양주시 남면 감악산로 63-37,동물보호센터
276,한국동물구조관리협회,37.870134,126.98335,경기도 양주시 남면 감악산로 63-37 (남면),동물보호센터
277,한국동물구조관리협회,37.870134,126.98335,경기도 양주시 남면 감악산로 63-37 (남면) 한국동물구조관리협회,동물보호센터
278,한국동물구조관리협회,37.870134,126.98335,경기도 양주시 남면 감악산로 63-37 (남면),동물보호센터
279,한국동물구조관리협회,37.870134,126.98335,경기도 양주시 남면 감악산로 63-37 (사)한국동물구조관리협회,동물보호센터
280,한국동물구조관리협회,37.870134,126.98335,경기도 양주시 남면 감악산로 63-37,동물보호센터
281,한국동물구조관리협회,37.870134,126.98335,경기도 양주시 남면 감악산로 63-37 (남면),동물보호센터
282,한국동물구조관리협회,37.870134,126.98335,경기도 양주시 남면 감악산로 63-37,동물보호센터
283,한국동물구조관리협회,37.870134,126.98335,경기도 양주시 남면 감악산로 63-37 (남면),동물보호센터
284,한국동물구조관리협회,37.870134,126.98335,경기도 양주시 남면 감악산로 63-37 (남면) 한국동물구조관리협회,동물보호센터
285,한국야생동물보호협회,37.340129,126.8700489,경기도 안산시 상록구 청곡길 50 (부곡동),동물보호센터
286,한국야생동물보호협회,37.340129,126.8700489,경기도 안산시 상록구 청곡길 50 (부곡동) 한국야생동물보호협회,동물보호센터
287,한국야생동물보호협회,37.340129,126.8700489,경기도 안산시 상록구 청곡길 50 (부곡동) 안산시 상록구 부곡동 231-5,동물보호센터
288,한국야생동물보호협회,37.340129,126.8700489,경기도 안산시 상록구 청곡길 50 (부곡동) (사)한국야생동물보호협회,동물보호센터
289,한국야생동물보호협회,37.340129,126.8700489,경기도 안산시 상록구 청곡길 50 (부곡동),동물보호센터
290,한국야생동물보호협회,37.340129,126.8700489,경기도 안산시 상록구 청곡길 50 (부곡동),동물보호센터
291,한남동물병원,37.5323764,127.0052674,서울특별시 용산구 한남동 642-4,동물보호센터
292,한샘동물병원,37.4964388,126.8590964,"서울특별시 구로구 경인로 350 (개봉동, 비동) 105호",동물보호센터
293,함양군위탁보호소,35.50874110000001,127.7297869,"경상남도 함양군 함양읍 함양남서로 996-76 (함양읍, 농업기술센터)",동물보호센터
294,해남군임시동물보호소,35.2224503,126.8816669,전라남도 해남군 해남읍 부흥길 59-70,동물보호센터
295,행복한동물병원,37.2246718,-95.7380042,"경기도 파주시 중앙로 241 (금촌동, 한샘파주키친프라자) 행복한동물병원",동물보호센터
296,행복한동물병원,37.2246718,-95.7380042,전라북도 전주시 덕진구 건산로 243 (인후동1가) 행복한동물병원,동물보호센터
297,허동물병원,34.0862889,-117.4350925,대구광역시 수성구 수성동2가 명덕로 421 (수성동2가) 허동물병원,동물보호센터
298,현풍동물병원,35.6921219,128.4586417,대구광역시 달성군 유가읍 테크노공원로 51 (유가읍),동물보호센터
299,홍익동물병원,37.548036,126.9183648,서울특별시 마포구 독막로 45 (합정동),동물보호센터
300,홍천군유기동물보호소,37.489854,127.9885661,"강원도 홍천군 화촌면 둔덕이길 68 (화촌면, 홍천군유기동물보호센터)",동물보호센터
301,화순군유기동물보호소,35.2224503,126.8816669,전라남도 화순군 한천면 덕음로 115 (한천면),동물보호센터
302,화원연합동물병원,35.8036965,128.4974581,대구광역시 달성군 화원읍 사문진로 447 (화원읍) 화원읍 관할,동물보호센터
303,화천군농업기술센터,38.1144791,127.7027417,강원도 화천군 상서면 영서로 6387-9 화천군농업기술센터,동물보호센터
304,횡성유기동물보호센터,37.489854,127.9885661,강원도 원주시 호저면 칠봉로 110-6 (호저면),동물보호센터
