,name,address,lat,long
0,연희동 미미네애견훈련,주소보기,37.5605683150719,127.075145570006
1,쓰담 에듀애견훈련,주소보기,37.5605683150719,127.075145570006
2,독티애견훈련,주소보기,37.5605683150719,127.075145570006
3,멜리애견유치원애견훈련,주소보기,37.5605683150719,127.075145570006
4,훈트가르텐애견훈련,주소보기,37.5605683150719,127.075145570006
5,한국애견출장훈련소애견훈련,주소보기,37.5605683150719,127.075145570006
6,전봉재애견출장훈련소애견훈련,주소보기,37.5605683150719,127.075145570006
7,박준훈련사애견유치원강아지훈련소애견훈련,주소보기,37.5605683150719,127.075145570006
8,링큐어독애견훈련,주소보기,37.5605683150719,127.075145570006
9,사단법인 한국반려견문화교육원애견훈련,주소보기,37.5605683150719,127.075145570006
10,하남애견 종로지점애견훈련,주소보기,37.5605683150719,127.075145570006
11,대전월드 애견훈련소애견훈련,주소보기,37.5605683150719,127.075145570006
12,교감애견훈련,주소보기,37.5605683150719,127.075145570006
13,지미도기애견훈련,주소보기,37.5605683150719,127.075145570006
14,도기캠프애견훈련,주소보기,37.5605683150719,127.075145570006
15,바우라움 강아지유치원애견훈련,주소보기,37.5605683150719,127.075145570006
16,마이콩 컴퍼니애견훈련,주소보기,37.5605683150719,127.075145570006
17,와사비네집애견훈련,주소보기,37.5605683150719,127.075145570006
18,키즈멍애견훈련,주소보기,37.5605683150719,127.075145570006
19,DT838 반려견교육센터애견훈련,주소보기,37.5605683150719,127.075145570006
20,카나비스펫반려동물미용,주소보기,37.5605683150719,127.075145570006
21,개훈련소반려동물,위치부정확 서울특별시 광진구 자양동,37.5605683150719,127.075145570006
22,코리아애견훈련소 사무실반려동물,위치부정확 서울특별시 동대문구 청량리동,37.5605683150719,127.075145570006
23,땡일리 강아지유치원애견훈련,주소보기,37.5605683150719,127.075145570006
24,왈독반려동물호텔,주소보기,37.5605683150719,127.075145570006
25,코리아애견훈련소반려동물,주소보기,37.5605683150719,127.075145570006
26,퍼피솔루션애견훈련,주소보기,37.5605683150719,127.075145570006
27,다인진영애견훈련,주소보기,37.5605683150719,127.075145570006
28,코리아애견훈련소반려동물,위치부정확 서울특별시 노원구 상계1동,37.5605683150719,127.075145570006
29,퍼스트출장방문애견훈련소애견훈련,주소보기,37.5605683150719,127.075145570006
30,펫케어나와봄애견훈련,주소보기,37.5605683150719,127.075145570006
31,102Dog애견훈련,주소보기,37.5605683150719,127.075145570006
32,KKA 한국어질리티연합애견훈련,주소보기,37.5605683150719,127.075145570006
33,에듀펫 반려견아카데미애견훈련,주소보기,37.5605683150719,127.075145570006
34,비주독아카데미애견미용,주소보기,37.5605683150719,127.075145570006
35,탑 애견방문훈련소애견훈련,주소보기,37.5605683150719,127.075145570006
36,서창민애견출장훈련소애견훈련,주소보기,37.5605683150719,127.075145570006
37,박준애견유치원강아지훈련소애견훈련,주소보기,37.5605683150719,127.075145570006
38,펫도그 애견스쿨애견훈련,주소보기,37.5605683150719,127.075145570006
39,꽃미남출장애견훈련반려동물,주소보기,37.5605683150719,127.075145570006
40,힐링몽애견훈련,주소보기,37.5605683150719,127.075145570006
41,돌봄앤아카데미반려동물호텔,주소보기,37.5605683150719,127.075145570006
42,DND라이프케어반려동물,주소보기,37.5605683150719,127.075145570006
43,비바와이즈라인소프트웨어개발,주소보기,37.5605683150719,127.075145570006
44,해피퍼피애견훈련,주소보기,37.5605683150719,127.075145570006
45,도킹어바웃애견훈련,주소보기,37.5605683150719,127.075145570006
46,짐더독애견훈련,주소보기,37.5605683150719,127.075145570006
47,준애견훈련소강아지유치원애견훈련,주소보기,37.5605683150719,127.075145570006
48,왈스 반려견애견훈련,주소보기,37.5605683150719,127.075145570006
49,올바른 참견애견훈련,주소보기,37.5605683150719,127.075145570006
50,반려견 행복도우미애견훈련,주소보기,37.5605683150719,127.075145570006
51,IDTcenter애견훈련,주소보기,37.5605683150719,127.075145570006
52,반려견 행복도우미 전국방문애견훈련,주소보기,37.5605683150719,127.075145570006
53,킹독반려동물호텔,주소보기,37.5605683150719,127.075145570006
54,스타몽 강아지 유치원애견훈련,주소보기,37.5605683150719,127.075145570006
55,프랑소와펫 아카데미애견훈련,주소보기,37.5605683150719,127.075145570006
56,펫을부탁해애견훈련,주소보기,37.5605683150719,127.075145570006
57,Dogs and Human애견훈련,주소보기,37.5605683150719,127.075145570006
58,"I,m반려동물",주소보기,37.5605683150719,127.075145570006
59,위드퍼피애견훈련,주소보기,37.5605683150719,127.075145570006
60,박준강아지유치원애견훈련소애견훈련,주소보기,37.5605683150719,127.075145570006
61,슈퍼독애견훈련,주소보기,37.5605683150719,127.075145570006
62,제이클리커아카데미애견훈련,주소보기,37.5605683150719,127.075145570006
63,마음하우스애견훈련,주소보기,37.5605683150719,127.075145570006
64,도그하우스애견훈련,주소보기,37.5605683150719,127.075145570006
65,키움반려견아카데미애견훈련,주소보기,37.5605683150719,127.075145570006
66,황석찬애견출장학교애견훈련,주소보기,37.5605683150719,127.075145570006
67,이든반려견문화센터반려동물미용,주소보기,37.5605683150719,127.075145570006
68,립독반려동물호텔,주소보기,37.5605683150719,127.075145570006
69,이든애견미용반려동물미용,주소보기,37.5605683150719,127.075145570006
70,하울 애견 유치원애견훈련,주소보기,37.5605683150719,127.075145570006
71,독스네이처애견훈련,주소보기,37.5605683150719,127.075145570006
72,한양애견학교애견훈련,주소보기,37.5605683150719,127.075145570006
73,부산애견훈련학교애견훈련,주소보기,37.5605683150719,127.075145570006
