,name,lat,long,address,type
0,강아지대학로,37.5800539,127.0036798,서울특별시 종로구 동숭동,위탁관리업
1,미션코리아,37.57259880000001,127.0021697,서울특별시 종로구 효제동,위탁관리업
2,누리봄동물병원,37.5757558,126.9710255,서울특별시 종로구 내자동,위탁관리업
3,경희궁바른동물병원,37.5713246,126.9635654,서울특별시 종로구 홍파동,위탁관리업
4,월드펫동물병원,37.6049187,126.9612201,서울특별시 종로구 신영동,위탁관리업
5,북악동물병원,37.5988639,126.9602481,서울특별시 종로구 홍지동,위탁관리업
6,서촌도그살롱,37.5752881,126.9696147,서울특별시 종로구 필운동,위탁관리업
7,퍼플캣,37.5762587,127.0036526,서울특별시 종로구 이화동,위탁관리업
8,강아지 마법사 골드맘,37.5623261,127.0166625,서울특별시 중구 신당동,위탁관리업
9,강아지,37.55176429999999,127.0108665,서울특별시 중구 신당동,위탁관리업
10,애뚜애뚜,37.560998,127.0183992,서울특별시 중구 신당동,위탁관리업
11,미래지동물의료센터,37.5536414,127.0096041,서울특별시 중구 신당동,위탁관리업
12,남산동물병원,37.5491389,127.0093824,서울특별시 중구 신당동,위탁관리업
13,백슬동물병원,37.5543253,126.9657781,서울특별시 중구 만리동2가,위탁관리업
14,COZY,37.5570088,127.0146609,서울특별시 중구 신당동,위탁관리업
15,대한동물병원,37.5620673,126.9969058,서울특별시 중구 충무로4가,위탁관리업
16,금강동물병원,37.5174785,126.9805401,서울특별시 용산구 이촌동,위탁관리업
17,케이나인클럽하우스(K9 ClubHouse),37.539328,126.9905552,서울특별시 용산구 이태원동,위탁관리업
18,베럴라이프(BetterLife),37.5400456,126.9921017,서울특별시 용산구 이태원동,위탁관리업
19,다줄,37.52909229999999,126.9606764,서울특별시 용산구 한강로3가,위탁관리업
20,아츠,37.5327364,126.9904685,서울특별시 용산구 이태원동,위탁관리업
21,도기캠프,37.5387966,126.9639117,서울특별시 용산구 효창동,위탁관리업
22,꼬리살랑,37.5342733,126.9596974,서울특별시 용산구 원효로3가,위탁관리업
23,원스동물병원,37.5449499,126.9694824,서울특별시 용산구 청파동2가,위탁관리업
24,펫그라운드_해방촌,37.5433963,126.987477,서울특별시 용산구 용산동2가,위탁관리업
25,우쭈쭈,37.5330472,126.9939859,서울특별시 용산구 이태원동,위탁관리업
26,바다동물병원,37.5239562,126.9719637,서울특별시 용산구 용산동5가,위탁관리업
27,달래동물의료센터,37.5355035,127.0065391,서울특별시 용산구 한남동,위탁관리업
28,민트동물병원,37.5337926,126.9500754,서울특별시 용산구 산천동,위탁관리업
29,라온동물병원,37.5363658,126.9871919,서울특별시 용산구 이태원동,위탁관리업
30,메이펫케어,37.5323764,127.0052674,서울특별시 용산구 한남동,위탁관리업
31,남산동물병원,37.5483938,126.9779995,서울특별시 용산구 후암동,위탁관리업
32,24시 시유동물메디컬센터,37.5199656,126.9698589,서울특별시 용산구 이촌동,위탁관리업
33,베이동물병원,37.51784809999999,126.9729615,서울특별시 용산구 이촌동,위탁관리업
34,(주)이상윤동물병원,37.5194202,126.9748273,서울특별시 용산구 이촌동,위탁관리업
35,이태원동물병원,37.5363658,126.9871919,서울특별시 용산구 이태원동,위탁관리업
36,펫토이동물병원,37.5334282,127.0012182,서울특별시 용산구 한남동,위탁관리업
37,더힐동물의료센터,37.5346037,127.0095526,서울특별시 용산구 한남동,위탁관리업
38,펫살롱,37.5703152,127.0235578,서울특별시 성동구 상왕십리동,위탁관리업
39,댕댕이루,37.5435182,127.0437247,서울특별시 성동구 성수동1가,위탁관리업
40,개깎쟁이,37.561949,127.038485,서울특별시 성동구 행당동,위탁관리업
41,서울숲 dogs,,,서울특별시 성동구 성수동1가,위탁관리업
42,나인페츠,37.3618963,127.0437917,서울특별시 성동구 성수동1가,위탁관리업
43,"고양아, 안녕?",37.5626623,127.0415103,서울특별시 성동구 마장동,위탁관리업
44,주식회사 미래엔에듀케어 바우라움 서울숲 캠퍼스,37.5570821,127.0400999,서울특별시 성동구 행당동,위탁관리업
45,강아지,37.5385326,127.0574749,서울특별시 성동구 성수동2가,위탁관리업
46,바스멍,37.5543643,127.0244491,서울특별시 성동구 금호동1가,위탁관리업
47,댕댕이 하우스,37.5474202,127.044763,서울특별시 성동구 성수동1가,위탁관리업
48,베이글 버트 그루밍,37.5452462,127.0457956,서울특별시 성동구 성수동1가,위탁관리업
49,24시LC동물의료센터,37.5664017,127.0527262,서울특별시 성동구 용답동,위탁관리업
50,오렌지동물병원,37.5560093,127.0339644,서울특별시 성동구 행당동,위탁관리업
51,모동모동,,,서울특별시 성동구 성수동1가,위탁관리업
52,Show Dog,37.5570821,127.0400999,서울특별시 성동구 행당동,위탁관리업
53,서울숲 개구쟁이,37.5463204,127.0242025,서울특별시 성동구 금호동4가,위탁관리업
54,스테이 동물병원,37.5442674,127.0153759,서울특별시 성동구 옥수동,위탁관리업
55,이윤세동물병원,37.5564055,127.0277549,서울특별시 성동구 행당동,위탁관리업
56,왕십리조은동물병원,37.5645831,127.0278948,서울특별시 성동구 하왕십리동,위탁관리업
57,위대한캣츠빌,37.5394428,127.0542534,서울특별시 성동구 성수동2가,위탁관리업
58,금호동물병원,37.5523361,127.0246566,서울특별시 성동구 금호동2가,위탁관리업
59,버블퍼피,37.5607978,127.0297149,서울특별시 성동구 하왕십리동,위탁관리업
60,서울숲동물병원,37.5391972,127.0532098,서울특별시 성동구 성수동2가,위탁관리업
61,강아지song,37.5492214,127.0662886,서울특별시 성동구 송정동,위탁관리업
62,마이뷰티독,37.5701229,127.0261402,서울특별시 성동구 상왕십리동,위탁관리업
63,함께하는 동물병원,37.542955,127.0130779,서울특별시 성동구 옥수동,위탁관리업
64,한양동물메디컬센터,37.5596166,127.0369899,서울특별시 성동구 행당동,위탁관리업
65,펫365동물병원,37.54784739999999,127.0252644,서울특별시 성동구 금호동4가,위탁관리업
66,(주)이마트 성수점 몰리스,37.5397379,127.0531007,서울특별시 성동구 성수동2가,위탁관리업
67,toutou miel,37.5626197,127.0853672,서울특별시 광진구 중곡동,위탁관리업
68,펠리스 펫(웰니스),37.5316881,127.0870461,서울특별시 광진구 자양동,위탁관리업
69,아낌,37.5387348,127.0961255,서울특별시 광진구 구의동,위탁관리업
70,김언니 펫살롱,37.5306718,127.074441,서울특별시 광진구 자양동,위탁관리업
71,디어독,37.5065483,127.0922476,서울특별시 광진구 자양동,위탁관리업
72,Canine Bath House,36.1508327,-95.9879055,서울특별시 광진구 자양동,위탁관리업
73,엄마 잘 다녀와,37.5619165,127.0833395,서울특별시 광진구 중곡동,위탁관리업
74,컴투펫,37.5327963,127.0854067,서울특별시 광진구 자양동,위탁관리업
75,버블링,37.5306703,127.0873324,서울특별시 광진구 자양동,위탁관리업
76,bijou pet(비쥬펫),37.5469318,127.074404,서울특별시 광진구 화양동,위탁관리업
77,와사비네집,37.5595296,127.0878678,서울특별시 광진구 중곡동,위탁관리업
78,쥬라기동물병원,37.5420399,127.0952643,서울특별시 광진구 광장동,위탁관리업
79,이쁘개멋있개,37.5514315,127.0712859,서울특별시 광진구 군자동,위탁관리업
80,댕댕이집합소,37.5382416,127.0892961,서울특별시 광진구 구의동,위탁관리업
81,동서울동물병원,37.5417344,127.0961809,서울특별시 광진구 광장동,위탁관리업
82,광진24시 필동물병원,37.5370307,127.0953541,서울특별시 광진구 구의동,위탁관리업
83,개판오분전,37.5592162,127.076535,서울특별시 광진구 중곡동,위탁관리업
84,로얄에이알씨(주),37.5358089,127.0684009,서울특별시 광진구 자양동,위탁관리업
85,베이비독,37.5333386,127.0687835,서울특별시 광진구 자양동,위탁관리업
86,중앙애견,37.5330865,127.0690458,서울특별시 광진구 자양동,위탁관리업
87,나루동물병원,37.5426824,127.1000365,서울특별시 광진구 광장동,위탁관리업
88,스마트동물병원 군자점,37.560789,127.0812197,서울특별시 광진구 중곡동,위탁관리업
89,방주종합동물병원,37.5593153,127.0809319,서울특별시 광진구 중곡동,위탁관리업
90,피카소 동물병원 미용,37.5473514,127.0733237,서울특별시 광진구 화양동,위탁관리업
91,준동물병원,37.5348747,127.0703598,서울특별시 광진구 자양동,위탁관리업
92,서울동물병원,37.562676,127.0815429,서울특별시 광진구 중곡동,위탁관리업
93,신나개,37.5753431,127.073783,서울특별시 동대문구 장안동,위탁관리업
94,아이원 동물병원,37.5719207,127.0575818,서울특별시 동대문구 답십리동,위탁관리업
95,호야펫살롱,37.5808288,127.0707412,서울특별시 동대문구 장안동,위탁관리업
96,푸른종합동물병원,37.5833673,127.0439626,서울특별시 동대문구 청량리동,위탁관리업
97,제연동물병원,37.5750329,127.0496055,서울특별시 동대문구 전농동,위탁관리업
98,펫샵몽,37.581572,127.0741282,서울특별시 동대문구 휘경동,위탁관리업
99,꽃길만 걷개,37.5679378,127.0738227,서울특별시 동대문구 장안동,위탁관리업
100,사랑해줄개,37.5952357,127.0646869,서울특별시 동대문구 이문동,위탁관리업
101,견우,37.5714191,127.0718291,서울특별시 동대문구 장안동,위탁관리업
102,펫119,37.5714999,127.0562332,서울특별시 동대문구 답십리동,위탁관리업
103,빈스독,37.5952212,127.061971,서울특별시 동대문구 이문동,위탁관리업
104,시현펫살롱,37.598473,127.0675194,서울특별시 동대문구 이문동,위탁관리업
105,도그 하우스,37.5910124,127.0393133,서울특별시 동대문구 제기동,위탁관리업
106,아띠 동물의료센터,37.573679,127.0523385,서울특별시 동대문구 전농동,위탁관리업
107,마이티 그루밍(동대문점),37.5900176,127.0636187,서울특별시 동대문구 휘경동,위탁관리업
108,"페트로(Petro, 동물병원)",37.5677753,127.0685248,서울특별시 동대문구 장안동,위탁관리업
109,까네지노,37.5687601,127.0567092,서울특별시 동대문구 답십리동,위탁관리업
110,버블독,37.5659531,127.0635445,서울특별시 동대문구 장안동,위탁관리업
111,주주 동물병원,37.5778143,127.0584687,서울특별시 동대문구 전농동,위탁관리업
112,둥글개 둥글개,37.5753431,127.073783,서울특별시 동대문구 장안동,위탁관리업
113,현대종합펫(현대동물병원),37.5724575,127.0730343,서울특별시 동대문구 장안동,위탁관리업
114,하이유 동물병원,37.5726188,127.0576283,서울특별시 동대문구 답십리동,위탁관리업
115,그루밍살롱 마루네,37.5809463,127.0710926,서울특별시 동대문구 장안동,위탁관리업
116,스마트 동물병원,37.57544,127.0676082,서울특별시 동대문구 장안동,위탁관리업
117,뉴월드 동물병원,37.5712021,127.0464349,서울특별시 동대문구 답십리동,위탁관리업
118,디아크 동물병원,37.5859225,127.0435459,서울특별시 동대문구 청량리동,위탁관리업
119,더케이 동물병원,37.5726727,127.0557243,서울특별시 동대문구 답십리동,위탁관리업
120,바론 동물의료센터,37.5984506,127.0618484,서울특별시 동대문구 이문동,위탁관리업
121,엘 동물병원,37.5746245,127.0377861,서울특별시 동대문구 용두동,위탁관리업
122,퍼피테일,37.5735085,127.0572925,서울특별시 동대문구 답십리동,위탁관리업
123,미니 앤 바니 애견샵,37.5684054,127.0687784,서울특별시 동대문구 장안동,위탁관리업
124,마리앤독,37.5995064,127.0778661,서울특별시 중랑구 중화동,위탁관리업
125,내안에너있DOG,37.6103313,127.0960772,서울특별시 중랑구 신내동,위탁관리업
126,댕댕살롱,37.579209,127.0872519,서울특별시 중랑구 면목동,위탁관리업
127,아이봄동물병원,37.6050099,127.095637,서울특별시 중랑구 신내동,위탁관리업
128,지앤에프,37.5816737,127.0931466,서울특별시 중랑구 면목동,위탁관리업
129,카페개인,37.57404289999999,127.0799241,서울특별시 중랑구 면목동,위탁관리업
130,개발소,37.582864,127.0863683,서울특별시 중랑구 면목동,위탁관리업
131,몽스토리,37.6027437,127.1079284,서울특별시 중랑구 망우동,위탁관리업
132,말랑말랑,37.6040303,127.0774536,서울특별시 중랑구 중화동,위탁관리업
133,태능동물병원 펫샵,37.6125587,127.0775696,서울특별시 중랑구 묵동,위탁관리업
134,디자인펫샵,37.5806066,127.0897143,서울특별시 중랑구 면목동,위탁관리업
135,닥터아이펫 동물병원,37.5971356,127.0875535,서울특별시 중랑구 상봉동,위탁관리업
136,우아하개,37.5884569,127.085461,서울특별시 중랑구 면목동,위탁관리업
137,홍상희동물병원,37.6125564,127.0775777,서울특별시 중랑구 묵동,위탁관리업
138,개날라리,37.5898542,127.0869476,서울특별시 중랑구 면목동,위탁관리업
139,주식회사 알에이엠씨로얄지점,37.5952831,127.0799032,서울특별시 중랑구 중화동,위탁관리업
140,금란동물애견,37.59842200000001,127.1005678,서울특별시 중랑구 망우동,위탁관리업
141,쁘띠멍,37.5785197,127.0908787,서울특별시 중랑구 면목동,위탁관리업
142,수애견,37.61503099999999,127.0787109,서울특별시 중랑구 묵동,위탁관리업
143,사랑해줄개,37.6039172,127.0957843,서울특별시 중랑구 신내동,위탁관리업
144,큐티펫,37.5913101,127.0768762,서울특별시 중랑구 면목동,위탁관리업
145,순진한 강아지,37.5927106,127.0982045,서울특별시 중랑구 망우동,위탁관리업
146,숲속동물병원,37.5893118,127.0910412,서울특별시 중랑구 면목동,위탁관리업
147,러블리펫,37.608603,127.0795151,서울특별시 중랑구 묵동,위탁관리업
148,진실이네 애견샵,37.5785063,127.0848275,서울특별시 중랑구 면목동,위탁관리업
149,진서동물병원,37.6046561,127.0959119,서울특별시 중랑구 신내동,위탁관리업
150,몽몽이#,37.5901798,127.0772577,서울특별시 중랑구 면목동,위탁관리업
151,땡일리 강아지 유치원,37.6156087,127.0507954,서울특별시 성북구 장위동,위탁관리업
152,강아지카페 카페개네,37.5921344,127.0172261,서울특별시 성북구 동선동2가,위탁관리업
153,VOVOPET,37.6104746,127.0193531,서울특별시 성북구 길음동,위탁관리업
154,블랑프리미엄펫,37.593239,127.0186315,서울특별시 성북구 동선동1가,위탁관리업
155,캣츠아일랜드,37.5947663,127.0104379,서울특별시 성북구 돈암동,위탁관리업
156,더편한동물병원,37.6124043,127.0272631,서울특별시 성북구 길음동,위탁관리업
157,마이도그(My Dog),37.6061261,127.061453,서울특별시 성북구 석관동,위탁관리업
158,카카오N동물병원,37.6075197,127.018009,서울특별시 성북구 길음동,위탁관리업
159,행복하개키울고양,37.5873143,127.0218412,서울특별시 성북구 안암동2가,위탁관리업
160,호펫 강아지 고양이 성신여대본점,37.5945128,127.0201163,서울특별시 성북구 동선동3가,위탁관리업
161,이쁘니 이발소,37.5963117,127.013792,서울특별시 성북구 동소문동7가,위탁관리업
162,한사랑펫,,,서울특별시 성북구 성북동1가,위탁관리업
163,한사랑동물병원,37.59339600000001,127.0016826,서울특별시 성북구 성북동1가,위탁관리업
164,호담동물병원,37.6067525,127.0285191,서울특별시 성북구 하월곡동,위탁관리업
165,스마트동물병원 성북길음점,37.6095887,127.0186795,서울특별시 성북구 길음동,위탁관리업
166,넬동물의료센터,37.6087789,127.0357595,서울특별시 성북구 하월곡동,위탁관리업
167,페리독,37.5937887,127.0152736,서울특별시 성북구 동소문동6가,위탁관리업
168,야옹아 멍멍해봐,37.5897851,127.0152971,서울특별시 성북구 삼선동5가,위탁관리업
169,행복하개,37.6137323,127.046243,서울특별시 성북구 장위동,위탁관리업
170,토미펫샵,37.5874359,127.0104807,서울특별시 성북구 삼선동2가,위탁관리업
171,앙리동물병원,37.59339600000001,127.0016826,서울특별시 성북구 성북동,위탁관리업
172,털좀밀개,37.642338,127.0300198,서울특별시 강북구 수유동,위탁관리업
173,리독,37.6329905,127.0381844,서울특별시 강북구 수유동,위탁관리업
174,멍멍슈퍼,37.6377632,127.0223881,서울특별시 강북구 수유동,위탁관리업
175,멍멍이발소,37.6389042,127.0204729,서울특별시 강북구 수유동,위탁관리업
176,coco puppy,37.6317105,127.0277876,서울특별시 강북구 미아동,위탁관리업
177,아이사랑 동물병원,37.6171833,127.0220243,서울특별시 강북구 미아동,위탁관리업
178,솔샘펫,37.62021379999999,127.0158881,서울특별시 강북구 미아동,위탁관리업
179,H 동물병원,37.6142123,127.0340232,서울특별시 강북구 미아동,위탁관리업
180,위드벳홀딩스 주식회사,37.5518018,127.0736345,서울특별시 강북구 수유동,위탁관리업
181,24시 수유 바른펫 동물의료센터,37.6414183,127.0222438,서울특별시 강북구 수유동,위탁관리업
182,펫시터(애견호텔)라울레미 하우스,37.6268335,127.0269077,서울특별시 강북구 미아동,위탁관리업
183,버블펫,37.624054,127.0322283,서울특별시 강북구 미아동,위탁관리업
184,꽃보다 개,37.6454576,127.0245285,서울특별시 강북구 수유동,위탁관리업
185,나라 앤 송이 애견샵,37.6430126,127.027306,서울특별시 강북구 수유동,위탁관리업
186,몽앤츄,37.6555565,127.0414833,서울특별시 도봉구 창동,위탁관리업
187,푹쉬개 애견샵,37.6571794,127.0483916,서울특별시 도봉구 창동,위탁관리업
188,waldog(왈독),37.6568202,127.0399881,서울특별시 도봉구 창동,위탁관리업
189,고놈들,37.6435791,127.0305575,서울특별시 도봉구 쌍문동,위탁관리업
190,두부네,37.6680236,127.047071,서울특별시 도봉구 방학동,위탁관리업
191,사랑해줄개,37.6773914,127.0446283,서울특별시 도봉구 도봉동,위탁관리업
192,푼푼호텔,37.6615544,127.0389036,서울특별시 도봉구 쌍문동,위탁관리업
193,(주)마이리틀프렌드 도봉지점,37.66756640000001,127.0454944,서울특별시 도봉구 방학동,위탁관리업
194,도그송,37.6459611,127.0395567,서울특별시 도봉구 창동,위탁관리업
195,강아지풀,37.6385567,127.0402412,서울특별시 도봉구 창동,위탁관리업
196,핑크퍼피(PINKPUPPY),37.6709097,127.0407746,서울특별시 도봉구 도봉동,위탁관리업
197,강아지세상,37.6573275,127.0282084,서울특별시 도봉구 쌍문동,위탁관리업
198,하비동물병원,37.6519864,127.0464766,서울특별시 도봉구 창동,위탁관리업
199,(주)비에이치벳홀딩스,37.669057,127.0431913,서울특별시 도봉구 방학동,위탁관리업
200,쌍문동 댕댕이네,37.6464278,127.0267924,서울특별시 도봉구 쌍문동,위탁관리업
201,365동물병원,37.6629348,127.0463381,서울특별시 도봉구 방학동,위탁관리업
202,몽블리펫,37.63511099999999,127.042166,서울특별시 도봉구 창동,위탁관리업
203,애견놀이터,37.6490537,127.0274879,서울특별시 도봉구 쌍문동,위탁관리업
204,강북우리동물의료센터,37.6568202,127.0399881,서울특별시 도봉구 창동,위탁관리업
205,댕댕스토리,37.6566575,127.0625433,서울특별시 노원구 상계동,위탁관리업
206,웰리스동물병원,37.649542,127.0763583,서울특별시 노원구 중계동,위탁관리업
207,개와커피가썸타는날(개썸커피),37.6556456,127.0653791,서울특별시 노원구 상계동,위탁관리업
208,애견미용 견출지 노원점,37.6660498,127.0570368,서울특별시 노원구 상계동,위탁관리업
209,아이엠독,37.650405,127.0612677,서울특별시 노원구 상계동,위탁관리업
210,독스미스,37.6481369,127.0576735,서울특별시 노원구 상계동,위탁관리업
211,나나펫(NaNaPet),37.6567482,127.0745358,서울특별시 노원구 중계동,위탁관리업
212,개과천선,37.6548571,127.0695833,서울특별시 노원구 상계동,위탁관리업
213,도그마루 노원점,37.6206102,127.0749119,서울특별시 노원구 상계동,위탁관리업
214,개다방,37.6557521,127.0631338,서울특별시 노원구 상계동,위탁관리업
215,도니바니 애견카페,37.6566014,127.0629736,서울특별시 노원구 상계동,위탁관리업
216,똑똑독,37.6621157,127.0701422,서울특별시 노원구 상계동,위탁관리업
217,아담스펫강아지&가필드고양이,37.7202886,126.7386688,서울특별시 노원구 상계동,위탁관리업
218,소담 살롱,37.6634939,127.072045,서울특별시 노원구 상계동,위탁관리업
219,루프독 1027,37.621786,127.0738653,서울특별시 노원구 공릉동,위탁관리업
220,루피네,37.6778272,127.0544831,서울특별시 노원구 상계동,위탁관리업
221,카페멍스,37.6569224,127.0635645,서울특별시 노원구 상계동,위탁관리업
222,유림동물병원,37.6267357,127.0511204,서울특별시 노원구 월계동,위탁관리업
223,닥터스종합동물병원,37.6291401,127.0578102,서울특별시 노원구 월계동,위탁관리업
224,파트라슈,37.6478055,127.0792139,서울특별시 노원구 중계동,위탁관리업
225,수락동물병원,37.6729279,127.055951,서울특별시 노원구 상계동,위탁관리업
226,메인동물메디컬센터,37.621655,127.0739,서울특별시 노원구 공릉동,위탁관리업
227,스마일플러스동물병원,37.6238031,127.0733708,서울특별시 노원구 공릉동,위탁관리업
228,한빛종합동물병원,37.6508762,127.0618329,서울특별시 노원구 상계동,위탁관리업
229,엔젤동물병원,37.6285085,127.0718579,서울특별시 노원구 공릉동,위탁관리업
230,애견카페 개그멍,37.6563304,127.0617496,서울특별시 노원구 상계동,위탁관리업
231,MOMO,37.632673,127.0436897,서울특별시 노원구 월계동,위탁관리업
232,핫독,37.6242239,127.0794698,서울특별시 노원구 공릉동,위탁관리업
233,별이&체리,37.5892434,126.9158281,서울특별시 은평구 응암동,위탁관리업
234,어울동물의료센터,37.6057539,126.93343,서울특별시 은평구 녹번동,위탁관리업
235,낭만고양이,37.5738865,127.0161358,서울특별시 은평구 응암동,위탁관리업
236,몽슈슈 강아지,37.5107721,126.7303275,서울특별시 은평구 진관동,위탁관리업
237,The 이뿌개,37.6092732,126.910721,서울특별시 은평구 응암동,위탁관리업
238,honapet(호나펫),37.5934242,126.92162,서울특별시 은평구 응암동,위탁관리업
239,애견미니호텔,37.5928245,126.9180176,서울특별시 은평구 응암동,위탁관리업
240,메르시몽프레,37.6206602,126.9204168,서울특별시 은평구 불광동,위탁관리업
241,디어도그,37.58679,126.9199584,서울특별시 은평구 응암동,위탁관리업
242,도그펠리스,37.6553816,126.9482092,서울특별시 은평구 진관동,위탁관리업
243,해피멍,37.6046641,126.9144984,서울특별시 은평구 역촌동,위탁관리업
244,도그원,37.6193935,126.917576,서울특별시 은평구 갈현동,위탁관리업
245,고마워 MIN,37.5774078,126.9090084,서울특별시 은평구 역촌동,위탁관리업
246,메디펫 동물병원,37.6219565,126.9195031,서울특별시 은평구 갈현동,위탁관리업
247,퍼피하우스,37.5958383,126.9144749,서울특별시 은평구 신사동,위탁관리업
248,금쪽같은 내새끼 동물병원,37.615343,126.9178488,서울특별시 은평구 갈현동,위탁관리업
249,Dr.윤24시동물병원,37.6165209,126.9231826,서울특별시 은평구 대조동,위탁관리업
250,우리덕구 동물병원,37.6343201,126.9265883,서울특별시 은평구 진관동,위탁관리업
251,한빛동물병원,37.6474019,126.929563,서울특별시 은평구 진관동,위탁관리업
252,미용하는 강아지,37.5886594,126.9122795,서울특별시 은평구 증산동,위탁관리업
253,은평애견,37.6031294,126.9160371,서울특별시 은평구 역촌동,위탁관리업
254,행복한 강아지,37.6238482,126.9197036,서울특별시 은평구 갈현동,위탁관리업
255,미니펫,37.5968812,126.919038,서울특별시 은평구 응암동,위탁관리업
256,미미에토,37.571228,126.9339927,서울특별시 서대문구 연희동,위탁관리업
257,Hello,37.5810808,126.9146246,서울특별시 서대문구 북가좌동,위탁관리업
258,우연희,37.5535514,126.9037756,서울특별시 서대문구 연희동,위탁관리업
259,바오펫살롱,37.5754798,126.9361793,서울특별시 서대문구 연희동,위탁관리업
260,펫티즈,37.5671648,126.931125,서울특별시 서대문구 연희동,위탁관리업
261,GAEKOS Family,37.5728364,126.938104,서울특별시 서대문구 연희동,위탁관리업
262,연희동 미미네,37.5708777,126.9345413,서울특별시 서대문구 연희동,위탁관리업
263,BOSS PUPPY,37.5708777,126.9345413,서울특별시 서대문구 연희동,위탁관리업
264,아이 러브 펫,37.6138454,127.0410652,서울특별시 서대문구 홍제동,위탁관리업
265,링크애견샵,37.5571583,126.9492609,서울특별시 서대문구 북아현동,위탁관리업
266,개들의 왕국,37.5606558,126.9465796,서울특별시 서대문구 대현동,위탁관리업
267,퍼피독,37.5575365,126.9349608,서울특별시 서대문구 창천동,위탁관리업
268,썬 개린이집,37.4923809,127.0400194,서울특별시 서대문구 연희동,위탁관리업
269,핑키펫,37.5956765,126.9490626,서울특별시 서대문구 홍은동,위탁관리업
270,카페 곳,37.5957125,126.9486496,서울특별시 서대문구 홍제동,위탁관리업
271,mummui(멈무이),37.5969051,126.9472992,서울특별시 서대문구 홍제동,위탁관리업
272,은퇴한 수의사의 저택,37.5871322,126.9319759,서울특별시 서대문구 홍은동,위탁관리업
273,퍼피하우스,37.560833,126.956123,서울특별시 서대문구 북아현동,위탁관리업
274,러브펫,37.5704286,126.9600924,서울특별시 서대문구 영천동,위탁관리업
275,우리동물병원,37.5708604,126.9612919,서울특별시 서대문구 영천동,위탁관리업
276,스타일나개,37.569703,126.961128,서울특별시 서대문구 옥천동,위탁관리업
277,견살롱,37.5475378,126.9422181,서울특별시 마포구 대흥동,위탁관리업
278,세븐에이치샵(7H#),37.5599577,126.9025057,서울특별시 마포구 망원동,위탁관리업
279,겨울이 머무는 집,37.5499182,126.9218476,서울특별시 마포구 서교동,위탁관리업
280,멍멍벅스,37.5557309,126.9107312,서울특별시 마포구 서교동,위탁관리업
281,반려독 (Band Your Dpg),37.5559772,126.9012821,서울특별시 마포구 망원동,위탁관리업
282,독핏케어센터,37.551566,126.9121256,서울특별시 마포구 합정동,위탁관리업
283,나만믿개,37.5800693,126.8914327,서울특별시 마포구 상암동,위탁관리업
284,감성그루밍,37.5568129,126.9477118,서울특별시 마포구 대흥동,위탁관리업
285,마이펫 글리,37.5583834,126.9085428,서울특별시 마포구 성산동,위탁관리업
286,워킹페코,37.5536378,126.9229541,서울특별시 마포구 창전동,위탁관리업
287,플라잉펫,37.54891509999999,126.9521527,서울특별시 마포구 공덕동,위탁관리업
288,웰케어동물병원,37.5568369,126.9190588,서울특별시 마포구 서교동,위탁관리업
289,다온펫샵,37.5554807,126.9335479,서울특별시 마포구 노고산동,위탁관리업
290,와우동물병원,37.56696489999999,126.9097901,서울특별시 마포구 성산동,위탁관리업
291,푸른숲동물병원,37.5573504,126.9092511,서울특별시 마포구 서교동,위탁관리업
292,써니네,37.5566873,126.9254042,서울특별시 마포구 동교동,위탁관리업
293,쥬쥬펫,37.5626227,126.9235471,서울특별시 마포구 연남동,위탁관리업
294,닥터호오 동물병원,37.54300920000001,126.937863,서울특별시 마포구 용강동,위탁관리업
295,목욕하는 강아지,37.5471299,126.9377066,서울특별시 마포구 신수동,위탁관리업
296,구름뜬하늘,37.5541595,126.9271021,서울특별시 마포구 서교동,위탁관리업
297,(주)독핏코리아,37.5520144,126.9120676,서울특별시 마포구 합정동,위탁관리업
298,즐거운 애견미용,37.5574878,126.9149647,서울특별시 마포구 서교동,위탁관리업
299,독앤독,37.5493302,126.9521129,서울특별시 마포구 도화동,위탁관리업
300,아이멍쥬,37.519421,126.8444014,서울특별시 양천구 신월동,위탁관리업
301,서서울호수동물병원,37.5302541,126.8324079,서울특별시 양천구 신월동,위탁관리업
302,가나종합동물병원,37.5377149,126.8820894,서울특별시 양천구 목동,위탁관리업
303,리더스 동물병원,37.5216218,126.8742309,서울특별시 양천구 신정동,위탁관리업
304,POSH(포쉬),37.524965,126.8548529,서울특별시 양천구 신정동,위탁관리업
305,양천종합동물병원,37.5222264,126.8426171,서울특별시 양천구 신월동,위탁관리업
306,파란동물병원,37.5222264,126.8426171,서울특별시 양천구 신월동,위탁관리업
307,몽스파목동점,37.53020830000001,126.8732314,서울특별시 양천구 목동,위탁관리업
308,파란동물병원,37.5222264,126.8426171,서울특별시 양천구 신월동,위탁관리업
309,페토브 동물병원,37.5145134,126.8715105,서울특별시 양천구 신정동,위탁관리업
310,별개,37.5225727,126.8325717,서울특별시 양천구 신월동,위탁관리업
311,신월동물병원,37.52045469999999,126.8444005,서울특별시 양천구 신월동,위탁관리업
312,봄날동물병원,37.5373159,126.8720861,서울특별시 양천구 목동,위탁관리업
313,이든반려견 문화센터,37.52808290000001,126.858874,서울특별시 양천구 신정동,위탁관리업
314,아이러브독 애견미용실,37.5244205,126.859391,서울특별시 양천구 신정동,위탁관리업
315,몽몽,37.5195484,126.8568464,서울특별시 양천구 신정동,위탁관리업
316,예뻐지개,37.588594,126.9375128,서울특별시 양천구 신월동,위탁관리업
317,냥플레이스,37.5362003,126.8674024,서울특별시 양천구 목동,위탁관리업
318,너.애.개,37.5212723,126.8396906,서울특별시 양천구 신월동,위탁관리업
319,파리스동물병원,37.5344258,126.8754662,서울특별시 양천구 목동,위탁관리업
320,립독,37.54108,126.8687905,서울특별시 양천구 목동,위탁관리업
321,스테이펫_호텔,37.5092629,126.8688037,서울특별시 양천구 신정동,위탁관리업
322,쿨펫이마트 목동점 동물병원,37.5257763,126.8703272,서울특별시 양천구 목동,위탁관리업
323,알콩달콩 애견,37.52998970000001,126.8360177,서울특별시 양천구 신월동,위탁관리업
324,캣츠아일랜드,37.5166014,126.8638714,서울특별시 양천구 신정동,위탁관리업
325,뽀송하개,37.5252196,126.8508283,서울특별시 양천구 신정동,위탁관리업
326,몽몽바블펫#,37.519515,126.8565618,서울특별시 양천구 신정동,위탁관리업
327,노아동물병원,37.5184063,126.8706612,서울특별시 양천구 신정동,위탁관리업
328,마음사랑동물병원,37.5534272,126.8264511,서울특별시 강서구 내발산동,위탁관리업
329,필독(feel dog),37.5509103,126.8495742,서울특별시 강서구 화곡동,위탁관리업
330,멍마르뜨,37.545733,126.9146791,서울특별시 강서구 방화동,위탁관리업
331,포독,37.5619185,126.826919,서울특별시 강서구 마곡동,위탁관리업
332,마이댕댕스쿨,37.5432774,126.844753,서울특별시 강서구 화곡동,위탁관리업
333,뽀도독,37.55124139999999,126.8645132,서울특별시 강서구 등촌동,위탁관리업
334,빈스 앤 멍,37.5339816,126.8468659,서울특별시 강서구 화곡동,위탁관리업
335,도그비잉 펫케어,37.53811839999999,126.8471024,서울특별시 강서구 화곡동,위탁관리업
336,박동물병원,37.558922,126.837046,서울특별시 강서구 내발산동,위탁관리업
337,지디파크,37.5803576,126.8194609,서울특별시 강서구 방화동,위탁관리업
338,커멍커멍,37.4962248,126.953249,서울특별시 강서구 마곡동,위탁관리업
339,스타독스,,,서울특별시 강서구 내발산동,위탁관리업
340,서울강서지역자활센터,37.56921,126.8404312,서울특별시 강서구 가양동,위탁관리업
341,서울강서지역자활센터,37.56921,126.8404312,서울특별시 강서구 가양동,위탁관리업
342,우장산동물의료센터,37.5508666,126.8365747,서울특별시 강서구 내발산동,위탁관리업
343,오늘도댕댕,37.5586703,126.9350918,서울특별시 강서구 방화동,위탁관리업
344,하이독스,37.5764563,126.813873,서울특별시 강서구 방화동,위탁관리업
345,독살롱 다듬,37.5604026,126.8323291,서울특별시 강서구 마곡동,위탁관리업
346,OMW dogs cafe,37.5566873,126.9254042,서울특별시 강서구 화곡동,위탁관리업
347,마곡M동물의료센터,37.5686689,126.8163382,서울특별시 강서구 방화동,위탁관리업
348,라운지독,37.5616626,126.8449988,서울특별시 강서구 등촌동,위탁관리업
349,하울 애견 유치원,37.5317992,126.8582818,서울특별시 강서구 화곡동,위탁관리업
350,"냉큼, 오레오",37.5527859,126.8530693,서울특별시 강서구 화곡동,위탁관리업
351,왓더독,37.5700746,126.8400486,서울특별시 강서구 마곡동,위탁관리업
352,멋지고 이쁜개,37.5679458,126.8118984,서울특별시 강서구 방화동,위탁관리업
353,순독살롱,37.55004890000001,126.8685067,서울특별시 강서구 염창동,위탁관리업
354,아임멍,37.5742074,126.821735,서울특별시 강서구 마곡동,위탁관리업
355,스프링그루밍,37.5443631,126.8315655,서울특별시 강서구 화곡동,위탁관리업
356,카카오독,37.5307544,126.8632782,서울특별시 강서구 화곡동,위탁관리업
357,펫티,37.5619185,126.826919,서울특별시 강서구 마곡동,위탁관리업
358,멍멍이다방,37.5404069,126.834868,서울특별시 강서구 화곡동,위탁관리업
359,놀러오개,37.5426897,126.843902,서울특별시 강서구 화곡동,위탁관리업
360,강아지정류장,37.549892,126.8748115,서울특별시 강서구 염창동,위탁관리업
361,몽몽이 펫뷰티,37.5632603,126.8031088,서울특별시 강서구 방화동,위탁관리업
362,묘한호텔,37.5299712,126.8493933,서울특별시 강서구 화곡동,위탁관리업
363,시온동물병원,37.5451922,126.8473197,서울특별시 강서구 화곡동,위탁관리업
364,곁에 있을개,37.5545019,126.8615889,서울특별시 강서구 등촌동,위탁관리업
365,올스타동물의료센터,37.5369219,126.8379048,서울특별시 강서구 화곡동,위탁관리업
366,마곡나무 동물병원,37.560233,126.819497,서울특별시 강서구 마곡동,위탁관리업
367,외박해도 괜찮아,37.5472054,126.8433871,서울특별시 강서구 화곡동,위탁관리업
368,송정동물메디컬센터,37.5616991,126.8095417,서울특별시 강서구 공항동,위탁관리업
369,서서울 동물병원,37.5516302,126.8717139,서울특별시 강서구 염창동,위탁관리업
370,(주)다온케이,37.552738,126.9076886,서울특별시 강서구 화곡동,위탁관리업
371,24시 안박동물병원,37.5600646,126.8563419,서울특별시 강서구 등촌동,위탁관리업
372,고려종합동물병원,37.5691433,126.8403436,서울특별시 강서구 가양동,위탁관리업
373,맘즈펫부티끄,37.5788529,126.8151509,서울특별시 강서구 방화동,위탁관리업
374,아프리카펫센터,37.5581495,126.8449071,서울특별시 강서구 등촌동,위탁관리업
375,꿈꾸는 고양이,37.5456648,126.8615162,서울특별시 강서구 등촌동,위탁관리업
376,서울플러스 종합 동물병원,37.53477609999999,126.8632239,서울특별시 강서구 화곡동,위탁관리업
377,우산쓴고양이,37.5321121,126.8628853,서울특별시 강서구 화곡동,위탁관리업
378,염창제일동물병원,37.5530068,126.8698416,서울특별시 강서구 염창동,위탁관리업
379,미소동물의료센터,37.544852,126.8368232,서울특별시 강서구 화곡동,위탁관리업
380,스마일동물병원,37.552547,126.8261922,서울특별시 강서구 내발산동,위탁관리업
381,DADOG,37.5408665,126.8400931,서울특별시 강서구 화곡동,위탁관리업
382,노블도그,37.5468258,126.8358714,서울특별시 강서구 화곡동,위탁관리업
383,버들강아지,37.5443631,126.8315655,서울특별시 강서구 화곡동,위탁관리업
384,피플앤독,37.5688472,126.8421304,서울특별시 강서구 가양동,위탁관리업
385,TOPnTOP Grooming(탑앤탑그루밍),37.49705,126.8369578,서울특별시 구로구 오류동,위탁관리업
386,"헬로우, 마루네 애견운동장",37.4949624,126.8307614,서울특별시 구로구 오류동,위탁관리업
387,구로다나은동물병원,37.50589009999999,126.8772398,서울특별시 구로구 신도림동,위탁관리업
388,고척 원 동물의료센터,37.498029,126.8642314,서울특별시 구로구 고척동,위탁관리업
389,준펫살롱,37.4858641,126.8531298,서울특별시 구로구 개봉동,위탁관리업
390,24시 지구촌 동물 메디컬 센타 미용 분양,37.4992561,126.8848661,서울특별시 구로구 구로동,위탁관리업
391,365 마음동물병원,37.497041,126.8465954,서울특별시 구로구 궁동,위탁관리업
392,금이네펫#,37.4840018,126.8422448,서울특별시 구로구 천왕동,위탁관리업
393,라라동물의료원,37.4893062,126.8916581,서울특별시 구로구 구로동,위탁관리업
394,캣스테이,37.5021861,126.8642268,서울특별시 구로구 고척동,위탁관리업
395,롱롱#,37.4757361,126.8978811,서울특별시 금천구 독산동,위탁관리업
396,냥카페 묘연,37.4473571,126.9029504,서울특별시 금천구 시흥동,위탁관리업
397,쿨펫동물병원,37.4704705,126.8956692,서울특별시 금천구 독산동,위탁관리업
398,개편한카페,37.4503296,126.9102521,서울특별시 금천구 시흥동,위탁관리업
399,파랑새동물병원,37.4582411,126.8995358,서울특별시 금천구 독산동,위탁관리업
400,24시 글로리 동물병원,37.4767045,126.8982445,서울특별시 금천구 독산동,위탁관리업
401,우리동물메디컬센터,37.4796797,126.9047268,서울특별시 금천구 독산동,위탁관리업
402,제일종합동물병원,37.4525197,126.9062297,서울특별시 금천구 시흥동,위탁관리업
403,해피치 애견카페,37.4649256,126.8972269,서울특별시 금천구 독산동,위탁관리업
404,금천24시 K동물의료센터,37.456214,126.8996427,서울특별시 금천구 시흥동,위탁관리업
405,금나래동물병원,37.4570911,126.8943265,서울특별시 금천구 독산동,위탁관리업
406,몽하우스,37.4408997,126.9037747,서울특별시 금천구 시흥동,위탁관리업
407,더 예쁘개,37.4580116,126.8943013,서울특별시 금천구 독산동,위탁관리업
408,고양이무마취미용 고무미,37.4771751,126.9104163,서울특별시 금천구 독산동,위탁관리업
409,더조은동물의료센터,37.449426,126.9029397,서울특별시 금천구 시흥동,위탁관리업
410,봄을 다듬다,37.5062485,126.9139521,서울특별시 영등포구 신길동,위탁관리업
411,개좋은날,37.5138193,126.919019,서울특별시 영등포구 신길동,위탁관리업
412,케이스타일,37.4980473,126.91723,서울특별시 영등포구 신길동,위탁관리업
413,다즐링(Dazzling),37.5032123,126.9101273,서울특별시 영등포구 신길동,위탁관리업
414,휴먼플러스(개밥주는고양이),37.5029153,126.9010002,서울특별시 영등포구 신길동,위탁관리업
415,BOB영등포점,37.5136701,126.9108214,서울특별시 영등포구 영등포동,위탁관리업
416,애견이야기,37.4998906,126.9156434,서울특별시 영등포구 신길동,위탁관리업
417,슈퍼독,37.5189095,126.9390169,서울특별시 영등포구 여의도동,위탁관리업
418,바스텟,37.5195663,126.9078715,서울특별시 영등포구 영등포동5가,위탁관리업
419,꽃단장 애견미용실,37.522456,126.9075884,서울특별시 영등포구 영등포동7가,위탁관리업
420,한가람동물의료센터,37.5133941,126.9185342,서울특별시 영등포구 신길동,위탁관리업
421,미스터 토리,37.5069932,126.9016462,서울특별시 영등포구 도림동,위탁관리업
422,유석 동물병원,37.4934314,126.9098116,서울특별시 영등포구 신길동,위탁관리업
423,영등포 우신종합 동물병원,37.50711570000001,126.9111947,서울특별시 영등포구 신길동,위탁관리업
424,여의도 동물병원 은하점,37.5187643,126.9334972,서울특별시 영등포구 여의도동,위탁관리업
425,Dr.수 동물병원,37.5187643,126.9334972,서울특별시 영등포구 여의도동,위탁관리업
426,온누리 종합 동물병원,37.5107907,126.9120272,서울특별시 영등포구 신길동,위탁관리업
427,도그플러스 동물병원,37.5181712,126.8959156,서울특별시 영등포구 문래동3가,위탁관리업
428,아람 동물병원,37.5120688,126.9159649,서울특별시 영등포구 신길동,위탁관리업
429,24시 수 동물메디컬센터,37.5223134,126.8911485,서울특별시 영등포구 양평동1가,위탁관리업
430,러브펫 동물병원,37.5166315,126.9024521,서울특별시 영등포구 영등포동4가,위탁관리업
431,왈츠동물병원,37.4983516,126.8954939,서울특별시 영등포구 대림동,위탁관리업
432,뽀리&쵸쵸,37.555482,126.927481,서울특별시 동작구 신대방동,위탁관리업
433,흑석24시동물병원,37.5080213,126.9639877,서울특별시 동작구 흑석동,위탁관리업
434,품 동물병원,37.4972477,126.9531759,서울특별시 동작구 상도1동,위탁관리업
435,슈슈펫살롱,37.4873915,126.9085029,서울특별시 동작구 신대방동,위탁관리업
436,이스트핸즈(낚시터고양이),37.49958,126.9433935,서울특별시 동작구 상도동,위탁관리업
437,굿파파24시 반려동물 건강검진센터,37.4847105,126.9795675,서울특별시 동작구 사당동,위탁관리업
438,상도힐링동물병원,37.4972477,126.9531759,서울특별시 동작구 상도동,위탁관리업
439,정겨운동물병원,37.4999832,126.9507265,서울특별시 동작구 상도1동,위탁관리업
440,재미나개,37.5094857,126.9605285,서울특별시 동작구 흑석동,위탁관리업
441,두젠틀,37.5040863,127.0358013,서울특별시 동작구 상도동,위탁관리업
442,유케어종합동물병원,37.5050587,126.942391,서울특별시 동작구 상도동,위탁관리업
443,지엔동물병원,37.505233,126.9404066,서울특별시 동작구 상도동,위탁관리업
444,두리디엠 (미스미스터펫),37.48529389999999,126.9180613,서울특별시 관악구 신림동,위탁관리업
445,"아름다울, 개",37.487519,126.913282,서울특별시 관악구 신림동,위탁관리업
446,디어몽 (Dear mong),37.4770177,126.962668,서울특별시 관악구 신림동,위탁관리업
447,보그펫,37.4881004,126.9596087,서울특별시 관악구 봉천동,위탁관리업
448,정글독,37.4688435,126.9201678,서울특별시 관악구 신림동,위탁관리업
449,도그 인 시티,37.4800665,126.9309226,서울특별시 관악구 신림동,위탁관리업
450,몽블레스,37.4626176,126.9383251,서울특별시 관악구 신림동,위탁관리업
451,서울개입구,37.48121,126.952712,서울특별시 관악구 봉천동,위탁관리업
452,방가댕댕,37.4820385,126.9402847,서울특별시 관악구 봉천동,위탁관리업
453,개엄마,37.4795734,126.9314034,서울특별시 관악구 신림동,위탁관리업
454,돌봐줄개,37.4626176,126.9383251,서울특별시 관악구 신림동,위탁관리업
455,퍼피앤커피,37.4815035,126.9294782,서울특별시 관악구 신림동,위탁관리업
456,러브펫종합동물병원,37.4816143,126.9120617,서울특별시 관악구 신림동,위탁관리업
457,샴푸하는강아지,37.4910962,126.9273504,서울특별시 관악구 봉천동,위탁관리업
458,고양이호텔 냥이아지트,37.488577,126.928096,서울특별시 관악구 봉천동,위탁관리업
459,차르도르 애견카페,37.4909879,126.9269381,서울특별시 관악구 봉천동,위탁관리업
460,혼자두면 장판뜯어서 차린 개카페,37.4850696,126.9356716,서울특별시 관악구 봉천동,위탁관리업
461,더블유동물병원,37.4870194,126.944708,서울특별시 관악구 봉천동,위탁관리업
462,독특하개,37.4868513,126.926148,서울특별시 관악구 신림동,위탁관리업
463,식빵굽는나비,37.4797152,126.9460782,서울특별시 관악구 봉천동,위탁관리업
464,개라다이스,37.4876235,126.9326117,서울특별시 관악구 봉천동,위탁관리업
465,애니아이,37.4790891,126.9559404,서울특별시 관악구 봉천동,위탁관리업
466,양지동물병원,37.4858549,126.9344245,서울특별시 관악구 봉천동,위탁관리업
467,로잔동물의료센터,37.48636430000001,126.9564585,서울특별시 관악구 봉천동,위탁관리업
468,투퍼피,37.488577,126.928096,서울특별시 관악구 신림동,위탁관리업
469,한성동물병원,37.4782212,126.9318251,서울특별시 관악구 신림동,위탁관리업
470,태우하우스,37.4777792,126.9344507,서울특별시 관악구 신림동,위탁관리업
471,지니앤독,37.48431739999999,126.9364918,서울특별시 관악구 신림동,위탁관리업
472,(주)스타몽,37.4985126,127.0257229,서울특별시 서초구 서초동,위탁관리업
473,케이펫스타(K-펫스타),37.5111861,127.020743,서울특별시 서초구 잠원동,위탁관리업
474,프랑소와펫 아카데미,37.4959976,126.9966397,서울특별시 서초구 반포동,위탁관리업
475,주식회사 하울팟,37.49368390000001,127.0180483,서울특별시 서초구 서초동,위탁관리업
476,서울종합동물병원방배,37.4849406,126.9940254,서울특별시 서초구 방배동,위탁관리업
477,LAONHAJE(라온하제),37.4977192,126.9908954,서울특별시 서초구 방배동,위탁관리업
478,오구오구,37.4749416,127.0509208,서울특별시 서초구 우면동,위탁관리업
479,프랑소와펫 트레이닝센터,37.4890332,127.0099698,서울특별시 서초구 반포동,위탁관리업
480,서초이음동물병원,37.4868229,127.0221044,서울특별시 서초구 서초동,위탁관리업
481,메르시몬시앙,37.4941839,126.9867271,서울특별시 서초구 방배동,위탁관리업
482,에이비씨(ABC)동물병원,37.4921048,127.0257835,서울특별시 서초구 서초동,위탁관리업
483,헬로우도치,37.485339,127.0188292,서울특별시 서초구 서초동,위탁관리업
484,브이케어,37.504631,127.0224878,서울특별시 서초구 반포동,위탁관리업
485,내품에 강아지,37.4879937,127.0305375,서울특별시 서초구 서초동,위탁관리업
486,야옹아 멍멍해봐 양재점,37.4795466,127.0424657,서울특별시 서초구 양재동,위탁관리업
487,마이펫스토리 (MY PET STORY),37.4951095,127.03265,서울특별시 서초구 반포동,위탁관리업
488,신세계 동물병원,37.5064627,126.9992311,서울특별시 서초구 반포동,위탁관리업
489,헤이븐동물병원 이수점,37.4909882,126.984555,서울특별시 서초구 방배동,위탁관리업
490,두리종합동물병원,37.5033209,127.0108015,서울특별시 서초구 반포동,위탁관리업
491,이을반려동물케어센터,37.4990946,126.9971831,서울특별시 서초구 반포동,위탁관리업
492,개랑놀아주는남자,37.5034333,127.0226821,서울특별시 서초구 서초동,위탁관리업
493,내방동물병원,37.487437,126.9941229,서울특별시 서초구 방배동,위탁관리업
494,한동물병원,37.4808558,127.0416985,서울특별시 서초구 양재동,위탁관리업
495,라파엘동물병원,37.5087927,127.0219391,서울특별시 서초구 반포동,위탁관리업
496,리즈동물병원,37.521223,127.0151286,서울특별시 서초구 잠원동,위탁관리업
497,개아범,37.5052066,126.9890664,서울특별시 서초구 반포동,위탁관리업
498,버블독,37.4814794,126.9822657,서울특별시 서초구 방배동,위탁관리업
499,동건스애견카페,37.4931059,126.9862143,서울특별시 서초구 방배동,위탁관리업
500,나나리펫하우스,37.4763984,127.0463008,서울특별시 서초구 양재동,위탁관리업
501,에이원동물병원,37.4885013,127.0137038,서울특별시 서초구 서초동,위탁관리업
502,메이페어,37.4875848,126.9900061,서울특별시 서초구 방배동,위탁관리업
503,반려동물 의료센터 다울,37.4807372,126.9946017,서울특별시 서초구 방배동,위탁관리업
504,남서울펫호텔,37.4824128,126.953877,서울특별시 서초구 방배동,위탁관리업
505,하나동물병원,37.4557859,127.0574326,서울특별시 서초구 신원동,위탁관리업
506,Im(아이엠),37.4937645,127.0017019,서울특별시 서초구 반포동,위탁관리업
507,오드리캣츠호텔,37.4716323,127.0452478,서울특별시 서초구 양재동,위탁관리업
508,서초M동물의료센터,37.48921,127.0183656,서울특별시 서초구 서초동,위탁관리업
509,VIP펫,37.4796343,126.9821794,서울특별시 서초구 방배동,위탁관리업
510,서초동물병원,37.4854065,127.0170236,서울특별시 서초구 서초동,위탁관리업
511,디아나동물병원,37.4845986,126.9952165,서울특별시 서초구 방배동,위탁관리업
512,방배한강동물병원,37.4916646,126.9914732,서울특별시 서초구 방배동,위탁관리업
513,잇츠그루밍타임,37.4814794,126.9822657,서울특별시 서초구 방배동,위탁관리업
514,펫을부탁해,37.5129733,127.0178624,서울특별시 서초구 잠원동,위탁관리업
515,㈜이마트양재점,37.46339529999999,127.0370134,서울특별시 서초구 양재동,위탁관리업
516,달링그루밍(Darling Grooming),37.5147075,127.0122041,서울특별시 서초구 잠원동,위탁관리업
517,몰리스 펫 샵 센트럴시티점,37.5041299,127.0030692,서울특별시 서초구 반포동,위탁관리업
518,algok kennel(알곡켄넬),37.5228244,127.0471597,서울특별시 강남구 청담동,위탁관리업
519,멍투게더,37.5071471,127.0316678,서울특별시 강남구 역삼동,위탁관리업
520,KNOLLO(놀로),37.5193735,127.0491258,서울특별시 강남구 청담동,위탁관리업
521,도킹어바웃,32.8965338,-96.8987951,서울특별시 강남구 개포동,위탁관리업
522,바오로(Baolo Pet&Grooming),37.4827115,127.0622097,서울특별시 강남구 개포동,위탁관리업
523,불도저 독 케어 센터,37.5124831,127.0441089,서울특별시 강남구 역삼동,위탁관리업
524,반려동물생활연구소 압구정점,37.5233172,127.0213378,서울특별시 강남구 신사동,위탁관리업
525,해피퍼피 강아지 유치원 & 미용,37.5155371,127.0306609,서울특별시 강남구 논현동,위탁관리업
526,세븐에이치,37.50066,127.0346397,서울특별시 강남구 역삼동,위탁관리업
527,머멍펫살롱(MuMung),37.5104579,127.0398207,서울특별시 강남구 논현동,위탁관리업
528,킹독,37.5044256,127.0382942,서울특별시 강남구 역삼동,위탁관리업
529,말랑맨션,37.5247631,127.030049,서울특별시 강남구 신사동,위탁관리업
530,Team MK(전설의 강아지),37.5120274,127.0411376,서울특별시 강남구 논현동,위탁관리업
531,Pet.J,37.5247246,127.0437582,서울특별시 강남구 청담동,위탁관리업
532,프랑소와펫 강남센터점,37.5328218,127.0280273,서울특별시 강남구 신사동,위탁관리업
533,아이조아펫파크 강남점,37.5135229,127.0397747,서울특별시 강남구 논현동,위탁관리업
534,(주) 다독인더씨티,37.5045647,127.0340341,서울특별시 강남구 역삼동,위탁관리업
535,미라클펫살롱,37.49396540000001,127.0750977,서울특별시 강남구 개포동,위탁관리업
536,대치동물메디컬센터,37.499343,127.0634426,서울특별시 강남구 대치동,위탁관리업
537,(주)애니멀고,37.518064,127.053874,서울특별시 강남구 삼성동,위탁관리업
538,페스츄리(PETS TREE),37.494725,127.0362055,서울특별시 강남구 역삼동,위탁관리업
539,필스타,37.5235096,127.0297941,서울특별시 강남구 신사동,위탁관리업
540,편안하개,37.5066542,127.0288551,서울특별시 강남구 논현동,위탁관리업
541,독핏웰니스센터,37.5140165,127.0227251,서울특별시 강남구 논현동,위탁관리업
542,그루잠,37.5016886,127.0525095,서울특별시 강남구 대치동,위탁관리업
543,마이펫동물의료센터,37.5125118,127.0531532,서울특별시 강남구 삼성동,위탁관리업
544,에이드동물병원,37.5211367,127.0278857,서울특별시 강남구 신사동,위탁관리업
545,츄츄동물병원,37.4930979,127.0354083,서울특별시 강남구 역삼동,위탁관리업
546,꿈에 개린,37.4912672,127.0349106,서울특별시 강남구 역삼동,위탁관리업
547,엘리스펫,37.5021237,127.0537334,서울특별시 강남구 대치동,위탁관리업
548,묘랑묘랑 강남점,37.496941,127.05332,서울특별시 강남구 삼성동,위탁관리업
549,블리스독,37.5283514,127.0372234,서울특별시 강남구 신사동,위탁관리업
550,24시청담우리동물병원,37.5145834,127.0526429,서울특별시 강남구 삼성동,위탁관리업
551,논현애견？,37.507476,127.0267895,서울특별시 강남구 논현동,위탁관리업
552,그레이스펫그루밍스튜디오,37.5224705,127.0421262,서울특별시 강남구 논현동,위탁관리업
553,개포별빛동물병원,37.4763984,127.0463008,서울특별시 강남구 개포동,위탁관리업
554,수정동물병원,37.482905,127.080106,서울특별시 강남구 일원동,위탁관리업
555,수서동물병원,37.4848802,127.09066,서울특별시 강남구 수서동,위탁관리업
556,반려문화,37.5159279,127.0332757,서울특별시 강남구 논현동,위탁관리업
557,짐더독,37.4934356,127.0393036,서울특별시 강남구 도곡동,위탁관리업
558,힐스타동물병원,37.4749549,127.105226,서울특별시 강남구 자곡동,위탁관리업
559,래이동물의료센터,37.4926646,127.0576942,서울특별시 강남구 대치동,위탁관리업
560,도기도기,37.5095402,127.026774,서울특별시 강남구 논현동,위탁관리업
561,하룻강아지,37.479168,127.0498464,서울특별시 강남구 개포동,위탁관리업
562,자곡퍼스트동물의료센터,37.4908965,127.0875101,서울특별시 강남구 자곡동,위탁관리업
563,펑키코코살롱,37.5140554,127.0486814,서울특별시 강남구 삼성동,위탁관리업
564,비안코이탈리아,37.4929839,127.0159552,서울특별시 강남구 청담동,위탁관리업
565,24시신사동물용품,37.5194571,127.0289281,서울특별시 강남구 논현동,위탁관리업
566,필스타 단(FEELSTAR DAAN),37.5027632,127.0325599,서울특별시 강남구 역삼동,위탁관리업
567,주주동물종합병원,37.5016802,127.0505632,서울특별시 강남구 대치동,위탁관리업
568,도곡종합동물병원,37.495879,127.046228,서울특별시 강남구 역삼동,위탁관리업
569,와이즈24시동물병원,37.5112192,127.0238712,서울특별시 강남구 논현동,위탁관리업
570,강남25시동물병원,37.5160698,127.0386317,서울특별시 강남구 논현동,위탁관리업
571,강남다온동물병원,37.4913221,127.0384611,서울특별시 강남구 도곡동,위탁관리업
572,더왈츠앤조이피아,37.5057148,127.0377235,서울특별시 강남구 역삼동,위탁관리업
573,마더스동물병원,37.4656514,127.1011166,서울특별시 강남구 세곡동,위탁관리업
574,멈미스,37.5199625,127.0595683,서울특별시 강남구 청담동,위탁관리업
575,그루밍캣 압구정점,37.5245578,127.0260795,서울특별시 강남구 신사동,위탁관리업
576,스마트동물병원,37.5022236,127.0503311,서울특별시 강남구 대치동,위탁관리업
577,PET.꾸밈,37.4769692,127.1134686,서울특별시 강남구 자곡동,위탁관리업
578,이리온동물병원,37.5242841,127.0447752,서울특별시 강남구 청담동,위탁관리업
579,압구정웰동물병원,37.5233172,127.0213378,서울특별시 강남구 신사동,위탁관리업
580,예은동물병원,37.4923809,127.0400194,서울특별시 강남구 역삼동,위탁관리업
581,아지원,37.5236374,127.0509536,서울특별시 강남구 청담동,위탁관리업
582,봉브라더스,37.5202946,127.0359457,서울특별시 강남구 논현동,위탁관리업
583,24시스마트동물병원(신사본점),37.5206602,127.0299781,서울특별시 강남구 신사동,위탁관리업
584,대치성심동물병원,37.49345599999999,127.0597594,서울특별시 강남구 대치동,위탁관리업
585,개러리아,37.5144315,127.0429213,서울특별시 강남구 삼성동,위탁관리업
586,압구정메이트동물병원,37.5281518,127.0377982,서울특별시 강남구 신사동,위탁관리업
587,대치수동물병원,37.4952087,127.0645006,서울특별시 강남구 대치동,위탁관리업
588,선릉동물병원,37.5068489,127.0476866,서울특별시 강남구 역삼동,위탁관리업
589,청담아이윌동물병원,37.5196064,127.0491924,서울특별시 강남구 청담동,위탁관리업
590,퍼피즌동물병원,37.5121535,127.0439095,서울특별시 강남구 삼성동,위탁관리업
591,봄사랑동물병원,37.5320757,127.0284556,서울특별시 강남구 압구정동,위탁관리업
592,Kindergarten for dog,37.5235096,127.0297941,서울특별시 강남구 논현동,위탁관리업
593,주식회사 중앙동물메디컬센터,37.5098484,127.0414372,서울특별시 강남구 논현동,위탁관리업
594,가로수동물병원,37.5243111,127.0234993,서울특별시 강남구 신사동,위탁관리업
595,닥터그레이동물병원,37.4885335,127.0520866,서울특별시 강남구 도곡동,위탁관리업
596,라라캣,37.4955776,127.0339169,서울특별시 강남구 역삼동,위탁관리업
597,까르텔,37.5201638,127.0201862,서울특별시 강남구 신사동,위탁관리업
598,퍼플퍼피,37.5239142,127.0245396,서울특별시 강남구 신사동,위탁관리업
599,두젠틀(DOGENTLE),37.5040863,127.0358013,서울특별시 강남구 역삼동,위탁관리업
600,치료멍멍동물병원,37.522319,127.0351874,서울특별시 강남구 신사동,위탁관리업
601,강남강아지,37.4993527,127.0428502,서울특별시 강남구 역삼동,위탁관리업
602,아지케어,37.5074387,127.0273996,서울특별시 강남구 논현동,위탁관리업
603,멍멍스토리,37.5082866,127.027185,서울특별시 강남구 논현동,위탁관리업
604,퍼피스쿨,37.5136773,127.0618982,서울특별시 강남구 삼성동,위탁관리업
605,캣틀리에,37.5050478,127.059389,서울특별시 강남구 대치동,위탁관리업
606,힐링몽,37.4901502,127.1274276,서울특별시 송파구 문정동,위탁관리업
607,위드멍,37.500024,127.1107646,서울특별시 송파구 석촌동,위탁관리업
608,엘동물병원,37.5086171,127.1340049,서울특별시 송파구 오금동,위탁관리업
609,패밀리앤퍼피,37.500102,127.1472175,서울특별시 송파구 마천동,위탁관리업
610,비숑 테네리페,37.4851331,127.1238462,서울특별시 송파구 문정동,위탁관리업
611,몽타운,37.4889676,127.1244482,서울특별시 송파구 문정동,위탁관리업
612,개님살롱레이크사이드,37.5063065,127.0993807,서울특별시 송파구 석촌동,위탁관리업
613,도그와트,37.5089734,127.0843594,서울특별시 송파구 석촌동,위탁관리업
614,하우독,37.5095674,127.11296,서울특별시 송파구 송파동,위탁관리업
615,돌봄앤아카데미,37.4863819,127.1242488,서울특별시 송파구 방이동,위탁관리업
616,하리네 쉼터 잠실점,37.5097431,127.1030184,서울특별시 송파구 석촌동,위탁관리업
617,THE 발라당호텔,37.5020888,127.0888261,서울특별시 송파구 삼전동,위탁관리업
618,펫살롱 헤아림,37.5053108,127.093604,서울특별시 송파구 방이동,위탁관리업
619,동물병원알루,37.4817094,127.1220141,서울특별시 송파구 문정동,위탁관리업
620,야옹아멍멍해봐 송파위례점,37.48747669999999,127.1426889,서울특별시 송파구 거여동,위탁관리업
621,멍멍멍,37.4988351,127.1179172,서울특별시 송파구 가락동,위탁관리업
622,시바스럽,37.5105555,127.1217155,서울특별시 송파구 방이동,위탁관리업
623,킨더독,37.50385,127.0872676,서울특별시 송파구 잠실동,위탁관리업
624,애플애견샵,37.5109187,127.109925,서울특별시 송파구 송파동,위탁관리업
625,퍼피파우더룸,37.5074043,127.0877164,서울특별시 송파구 잠실동,위탁관리업
626,안다캔넬,37.5105555,127.1217155,서울특별시 송파구 방이동,위탁관리업
627,도그멍,37.5463194,127.1346938,서울특별시 송파구 마천동,위탁관리업
628,멍얀트리,37.4852608,127.1230227,서울특별시 송파구 문정동,위탁관리업
629,펫프랜드,37.5102454,127.0850124,서울특별시 송파구 잠실동,위탁관리업
630,아망도그플레이스,37.4942226,127.1425091,서울특별시 송파구 거여동,위탁관리업
631,MM애견공방,37.505332,127.0852533,서울특별시 송파구 잠실동,위탁관리업
632,문정힐스동물병원,37.4840951,127.1239001,서울특별시 송파구 문정동,위탁관리업
633,밸리스 LAB 반려동물 생활연구소,37.5074561,127.0838819,서울특별시 송파구 잠실동,위탁관리업
634,샤인동물메디컬센터,37.5068137,127.1061372,서울특별시 송파구 송파동,위탁관리업
635,두리동물병원,37.499102,127.1534481,서울특별시 송파구 마천동,위탁관리업
636,우다닥고양이호텔,37.50198100000001,127.098596,서울특별시 송파구 석촌동,위탁관리업
637,멍돌하우스,37.4885328,127.1241434,서울특별시 송파구 문정동,위탁관리업
638,펫가든 동물병원,37.4967406,127.1367616,서울특별시 송파구 문정동,위탁관리업
639,씨밀레 동물병원,37.5285138,127.1168018,서울특별시 송파구 풍납동,위탁관리업
640,행복한우리아이 동물병원,37.5068554,127.09316,서울특별시 송파구 삼전동,위탁관리업
641,꿈이크는 동물병원,37.50683360000001,127.0799699,서울특별시 송파구 잠실동,위탁관리업
642,더샵동물메디컬센터,37.5179896,127.1055895,서울특별시 송파구 신천동,위탁관리업
643,종합동물병원 펫토피아,37.5082944,127.1166521,서울특별시 송파구 방이동,위탁관리업
644,돌봄,37.5099837,127.0795138,서울특별시 송파구 잠실동,위탁관리업
645,한양동물병원,37.50323940000001,127.1134581,서울특별시 송파구 송파동,위탁관리업
646,송파데일리동물병원,37.48302870000001,127.1277222,서울특별시 송파구 문정동,위탁관리업
647,라임동물병원,37.5108776,127.1188738,서울특별시 송파구 방이동,위탁관리업
648,유앤동물병원,37.5096501,127.1273296,서울특별시 송파구 오금동,위탁관리업
649,온마음 동물메디컬센터,37.4945354,127.1419084,서울특별시 송파구 거여동,위탁관리업
650,웰니스동물병원 롯데월드점,37.5112348,127.0980274,서울특별시 송파구 잠실동,위탁관리업
651,25시 펫샵,37.5055165,127.0894048,서울특별시 송파구 삼전동,위탁관리업
652,송파바로동물병원,37.48302870000001,127.1277222,서울특별시 송파구 문정동,위탁관리업
653,이룸동물병원,37.5011267,127.0970647,서울특별시 송파구 석촌동,위탁관리업
654,잔다냥 강동점,37.5340718,127.1214342,서울특별시 송파구 풍납동,위탁관리업
655,송파스마일동물병원,37.4840951,127.1239001,서울특별시 송파구 문정동,위탁관리업
656,위드펫,37.5054331,127.0848497,서울특별시 송파구 잠실동,위탁관리업
657,잠실베스트동물메디컬센터,37.50492620000001,127.0973953,서울특별시 송파구 석촌동,위탁관리업
658,멍찌네하우스,37.4951713,127.1265098,서울특별시 송파구 가락동,위탁관리업
659,보리네 펫하우스,37.5043064,127.1141939,서울특별시 송파구 송파동,위탁관리업
660,펫도그 애견스쿨,37.4837192,127.129973,서울특별시 송파구 문정동,위탁관리업
661,맡김,37.507466,127.0800943,서울특별시 송파구 잠실동,위탁관리업
662,몰리스 놀이터/호텔,37.4851331,127.1238462,서울특별시 송파구 문정동,위탁관리업
663,연동물병원,37.5120643,127.0824157,서울특별시 송파구 잠실동,위탁관리업
664,제이코코(J co co),37.4773867,127.1285282,서울특별시 송파구 장지동,위탁관리업
665,에버펫동물병원,37.4967406,127.1367616,서울특별시 송파구 가락동,위탁관리업
666,제니펫하우스,37.5325623,127.1192286,서울특별시 송파구 풍납동,위탁관리업
667,루시몽,37.5021671,127.1360643,서울특별시 송파구 오금동,위탁관리업
668,퍼피월드,37.49754739999999,127.1438723,서울특별시 송파구 거여동,위탁관리업
669,우다닥고양이호텔,37.50198100000001,127.098596,서울특별시 송파구 석촌동,위탁관리업
670,제제네 멍치원,37.5463194,127.1346938,서울특별시 강동구 천호동,위탁관리업
671,뭉스벨리,37.5380754,127.1266728,서울특별시 강동구 천호동,위탁관리업
672,늘사랑동물병원,37.5544909,127.1433265,서울특별시 강동구 명일동,위탁관리업
673,(주)에듀펫,37.5597228,127.1706374,서울특별시 강동구 고덕동,위탁관리업
674,(주) 한국어질리티연합(카페어질리티),37.527359,127.1356019,서울특별시 강동구 성내동,위탁관리업
675,펫트리동물의료센터,37.53429879999999,127.1359586,서울특별시 강동구 길동,위탁관리업
676,개즈니랜드,37.5272992,127.1329733,서울특별시 강동구 성내동,위탁관리업
677,미소펫,37.5398238,127.1411113,서울특별시 강동구 길동,위탁관리업
678,개이쁘다,37.55178290000001,127.1354908,서울특별시 강동구 암사동,위탁관리업
679,한강 펫케어센터 강동점,37.5440055,127.1212667,서울특별시 강동구 천호동,위탁관리업
680,멍멍이냥 강아지분양,37.5414614,127.1416617,서울특별시 강동구 천호동,위탁관리업
681,깐쵸네 명일점,37.5546516,127.1557517,서울특별시 강동구 명일동,위탁관리업
682,깐쵸네 애견서비스,37.5482804,127.1527408,서울특별시 강동구 고덕동,위탁관리업
683,강동24시 SKY 동물의료센터,37.53429879999999,127.1359586,서울특별시 강동구 성내동,위탁관리업
684,올바른동물병원,37.55150769999999,127.1277099,서울특별시 강동구 암사동,위탁관리업
685,코코펫,37.5325848,127.1233378,서울특별시 강동구 성내동,위탁관리업
686,노랑강아지,37.5389735,127.1304107,서울특별시 강동구 천호동,위탁관리업
687,마리스동물의료센터,37.5540272,127.1292084,서울특별시 강동구 암사동,위탁관리업
688,스마트 동물병원,37.55451350000001,127.1375202,서울특별시 강동구 암사동,위탁관리업
689,애견샵서울리버티벨,37.531707,127.1381235,서울특별시 강동구 둔촌동,위탁관리업
690,돌봄 동물병원,37.5519713,127.1279048,서울특별시 강동구 암사동,위탁관리업
691,씨티독 도심속의 강아지,37.5372573,127.1259738,서울특별시 강동구 성내동,위탁관리업
692,둔촌동물병원,37.5298053,127.1365795,서울특별시 강동구 성내동,위탁관리업
693,멍뭉네 이발관,37.5580974,127.1450851,서울특별시 강동구 고덕동,위탁관리업
694,고래힐 동물병원,37.5583657,127.1510413,서울특별시 강동구 고덕동,위탁관리업
695,내품에동물병원,37.534564,127.135634,서울특별시 강동구 성내동,위탁관리업
696,방주동물의료센터,37.5224484,127.1336562,서울특별시 강동구 성내동,위탁관리업
697,미드미 동물의료센터,37.547239,127.1436574,서울특별시 강동구 명일동,위탁관리업
698,동물병원 공감,37.5492368,127.1434387,서울특별시 강동구 천호동,위탁관리업
699,가람동물병원,37.5290014,127.1242079,서울특별시 강동구 성내동,위탁관리업
0,워킹페코반려동물,37.5543692,126.9303532,"서울특별시 마포구 서강로9길 59 3층, 핑크색 문❤",동물위탁관리업
1,독핏 케어센터반려동물,37.5490226,126.9068567,서울특별시 마포구 희우정로1길 25 지하1층,동물위탁관리업
2,하울 애견 유치원애견훈련,37.5317992,126.8582818,서울특별시 강서구 곰달래로 227 2층.3층 하울유치원,동물위탁관리업
3,도그하우스애견훈련,37.5332212,126.8692555,서울특별시 양천구 목동중앙서로 47 성보주상복합아파트 1층,동물위탁관리업
4,키움반려견아카데미애견훈련,37.5281566,126.8587809,서울특별시 양천구 은행정로 94 201호,동물위탁관리업
5,도기캠프애견훈련,37.5387966,126.9639117,"서울특별시 용산구 백범로 313 롯데캐슬상가 B2층 203,204호 도기캠프",동물위탁관리업
6,퍼피루시드앤로던트클럽반려동물미용,37.6372458,126.8322044,경기도 고양시 덕양구 꽃마을로 4 퍼스트타워 310호,동물위탁관리업
7,이든반려견문화센터반려동물미용,37.5281566,126.8587809,서울특별시 양천구 은행정로 94,동물위탁관리업
8,곁에 있을개반려동물미용,37.5545019,126.8615889,서울특별시 강서구 화곡로66길 162,동물위탁관리업
9,강아지정류장애견카페,37.549892,126.8748115,서울특별시 강서구 양천로 709,동물위탁관리업
10,마이댕댕스쿨반려견놀이터,37.5453378,126.8470297,서울특별시 강서구 까치산로 75 호왕빌딩 7층 마이댕댕스쿨,동물위탁관리업
11,꽃길만가개반려동물,37.5462095,126.8461517,서울특별시 강서구 화곡로42가길 5-7,동물위탁관리업
12,박준훈련사애견유치원강아지훈련소애견훈련,37.5683731,126.9782699,서울특별시 중구 세종대로 136,동물위탁관리업
13,내생각애견호텔유치원반려동물호텔,37.6220653,126.9270822,서울특별시 은평구 연서로 298 2층,동물위탁관리업
14,멍설유치원반려견놀이터,37.6592063,126.8716043,경기도 고양시 덕양구 서삼릉길 357 1층,동물위탁관리업
15,힐링독반려견센터애견훈련,37.6546652,126.8982438,경기도 고양시 덕양구 통일로 210 1층,동물위탁관리업
16,네발아이들애견훈련,37.6339441,126.8725315,경기도 고양시 덕양구 의장로 122 원프라자 4층,동물위탁관리업
17,강아지대학로애견카페,37.5800586,127.0036687,서울특별시 종로구 대학로12길 92 지하1층,동물위탁관리업
18,핫Dog 1호점반려동물미용,37.6387457,127.0202733,서울특별시 강북구 노해로11길 41,동물위탁관리업
19,GODOG반려동물미용,37.6093856,127.0224424,서울특별시 성북구 삼양로 69 지상1층,동물위탁관리업
20,멍멍슈퍼반려동물,37.6377335,127.0224042,서울특별시 강북구 노해로7길 7-1,동물위탁관리업
21,더케어코리아기업,37.6057605,127.0243654,서울특별시 성북구 삼양로4길 3 한림빌딩 4F,동물위탁관리업
22,멜리애견유치원애견훈련,37.4742622,126.6313671,인천광역시 중구 월촌길 52,동물위탁관리업
23,러블리독반려동물미용,37.4954307,126.5430811,인천광역시 중구 운중로 170 러블리독,동물위탁관리업
24,개인플레이반려동물호텔,37.4859037,126.5401787,인천광역시 중구 운중로48번길 102,동물위탁관리업
25,견과류 Dog&You반려동물호텔,37.5148088,126.5353952,인천광역시 중구 논골길 5,동물위탁관리업
26,하이포우반려견유치원반려견놀이터,37.3788938,126.6388452,인천광역시 연수구 하모니로 158 D동 412호,동물위탁관리업
27,베테랑동물병원 청라점동물병원,37.52731,126.6278726,인천광역시 서구 청라한내로100번길 8-28,동물위탁관리업
28,아토 사랑스러워반려동물미용,37.52731,126.6278726,인천광역시 서구 청라한내로161번길 3-3 4층 아토사랑스러워,동물위탁관리업
29,별다섯 개반려동물호텔,37.3788938,126.6388452,인천광역시 연수구 하모니로188번길 17 SK뷰센트럴 상가 218호,동물위탁관리업
30,아소비퍼피스반려견놀이터,37.400886,126.6386,인천광역시 연수구 아트센터대로 107 커낼워크 301동 513호,동물위탁관리업
31,놀러들오개애견카페,37.4225466,126.6474225,인천광역시 연수구 한나루로 87 주문빌딩5층,동물위탁관리업
32,도기캠프애견훈련,37.5387966,126.9639117,"서울특별시 용산구 백범로 313 롯데캐슬상가 B2층 203,204호 도기캠프",동물위탁관리업
33,스타몽 강아지 유치원애견훈련,37.4985126,127.0257229,서울특별시 서초구 서초대로73길 12 세계빌딩 B1층,동물위탁관리업
34,나밍밍강아지네반려동물미용,37.5065872,126.9621719,서울특별시 동작구 서달로 150 이랜드 해가든 상가 110호,동물위탁관리업
35,프랑소와펫 아카데미애견훈련,37.4991233,126.9981167,서울특별시 서초구 서래로 47 지하1층,동물위탁관리업
36,브이케어반려동물미용,37.504631,127.0224878,서울특별시 서초구 강남대로79길 32 2층,동물위탁관리업
37,슈퍼독애견훈련,37.5184931,126.9395997,서울특별시 영등포구 여의동로 213 상가층 114호,동물위탁관리업
38,바우라움 강아지유치원애견훈련,37.5571021,127.0401852,서울특별시 성동구 왕십리로 241 4층 바우라움,동물위탁관리업
39,댕댕이하우스반려동물미용,37.5474202,127.044763,서울특별시 성동구 왕십리로 110 2층,동물위탁관리업
40,9PETS반려동물미용,37.54638740000001,127.042291,서울특별시 성동구 서울숲2길 32-14 101동 106~107호,동물위탁관리업
41,모동모동반려동물미용,37.5506123,127.0459769,서울특별시 성동구 왕십리로 16 트리마제 상가 103호,동물위탁관리업
42,키즈멍애견훈련,37.5592162,127.076535,서울특별시 광진구 동일로62길 41,동물위탁관리업
43,뚜뚜미엘반려동물미용,37.5618437,127.0826714,서울특별시 광진구 긴고랑로 60 2층 뚜뚜미엘,동물위탁관리업
44,필스타반려동물,37.5235096,127.0297941,서울특별시 강남구 논현로164길 17,동물위탁관리업
45,바라봄애견카페,37.5251795,127.0554979,서울특별시 강남구 영동대로142길 27 1층,동물위탁관리업
46,와사비네집애견훈련,37.5595296,127.0878678,서울특별시 광진구 용마산로 66 3층 와사비네집,동물위탁관리업
47,강아지유치원 퍼피스쿨반려동물,37.5136773,127.0618982,서울특별시 강남구 봉은사로104길 10 동화빌딩 4층,동물위탁관리업
48,박준애견유치원강아지훈련소애견훈련,37.5213517,127.1026097,서울특별시 송파구 올림픽로 300,동물위탁관리업
49,한강펫케어센터 강동점반려동물호텔,37.5440055,127.1212667,서울특별시 강동구 천중로2길 57 노승빌딩 5층,동물위탁관리업
50,코코퍼피반려동물미용,37.617544,127.0356305,서울특별시 강북구 오현로 56 꿈의숲 롯데캐슬 101동 4호,동물위탁관리업
51,마이도그반려동물미용,37.6136415,127.05085,서울특별시 성북구 돌곶이로 19 한양빌딩 1층 골목 초입,동물위탁관리업
52,땡일리 강아지유치원애견훈련,37.619344,127.0448112,서울특별시 성북구 월계로32길 24,동물위탁관리업
53,도니바니애견카페애견카페,37.6566014,127.0629736,서울특별시 노원구 상계로 71-1 2층,동물위탁관리업
54,포레스트독반려동물,37.670274,127.0820675,서울특별시 노원구 덕릉로126길 12 병창빌딩,동물위탁관리업
55,멍뭉유치원반려동물,37.6669626,127.1147453,경기도 남양주시 별내3로 334 다우프라자 2층 멍뭉유치원,동물위탁관리업
56,리틀원유치원반려견놀이터,37.6631312,127.1271035,경기도 남양주시 별내5로23번길 18-26 1층 리틀원,동물위탁관리업
57,파파퍼피 DOG하우스애견훈련,37.6484473,127.1092994,경기도 남양주시 불암로81번길 7,동물위탁관리업
58,우리아기 예뻐지는 날반려동물미용,37.6360028,127.2165279,경기도 남양주시 덕송2로10번길 15-94 102호,동물위탁관리업
59,제제네멍치원반려동물호텔,37.5463194,127.1346938,서울특별시 강동구 구천면로42길 8 5층,동물위탁관리업
60,도리스애견훈련,37.5691025,127.18498,"경기도 하남시 미사강변중앙로 189 에코브릿지2 308,309호",동물위탁관리업
61,해피독 트레이닝 스쿨애견훈련,37.5691025,127.18498,경기도 하남시 미사강변한강로136번안길 9 1층,동물위탁관리업
62,안녕강아지애견카페,37.5691025,127.18498,경기도 하남시 미사강변중앙로 221 센트럴파크2 305호 안녕강아지,동물위탁관리업
63,MM애견공방반려동물미용,37.5058775,127.086794,서울특별시 송파구 백제고분로 165 서도빌딩,동물위탁관리업
64,펫도그 애견스쿨애견훈련,37.5134326,127.1096249,서울특별시 송파구 새말로 146 하나빌딩 3층,동물위탁관리업
65,힐링몽애견훈련,37.4889676,127.1244482,서울특별시 송파구 동남로4길 13 지하1층,동물위탁관리업
66,멍찌네하우스반려동물호텔,37.4951713,127.1265098,서울특별시 송파구 중대로16길 19-10,동물위탁관리업
67,멍돌하우스반려동물호텔,37.4885328,127.1241434,서울특별시 송파구 문정로1길 26,동물위탁관리업
68,돌봄반려동물호텔,37.513265,127.101133,서울특별시 송파구 백제고분로7길 6-5 지하1층,동물위탁관리업
69,갓독애견호텔반려동물호텔,37.4836751,127.1286743,서울특별시 송파구 새말로 62 송파 푸르지오시티,동물위탁관리업
70,24개스트하우스 강남강아지유치원반려견놀이터,37.503868,127.0333441,서울특별시 강남구 봉은사로20길 52 지하 1층,동물위탁관리업
71,멍투게더 강아지유치원반려동물호텔,37.4935884,127.0354824,서울특별시 강남구 역삼로14길 14 명진빌딩 3층,동물위탁관리업
72,준애견훈련소강아지유치원애견훈련,37.4999269,127.0365526,서울특별시 강남구 테헤란로 152,동물위탁관리업
73,강남강아지반려견놀이터,37.4993527,127.0428502,서울특별시 강남구 언주로79길 14 2층,동물위탁관리업
74,해피퍼피애견훈련,37.5155371,127.0306609,서울특별시 강남구 논현로134길 5,동물위탁관리업
75,스타일리다독반려동물미용,37.5045647,127.0340341,서울특별시 강남구 논현로101길 10,동물위탁관리업
76,나나리펫하우스반려동물호텔,37.5214217,127.0381383,서울특별시 강남구 논현로 70 동성빌딩 2층,동물위탁관리업
77,전설의강아지애견카페,37.5120274,127.0411376,서울특별시 강남구 선릉로115길 22,동물위탁관리업
78,야옹아멍멍해봐 양재점반려동물분양,37.4794966,127.0425575,서울특별시 서초구 양재천로 141,동물위탁관리업
79,하울팟 케어클럽 서초본점반려동물,37.4858797,126.9889187,서울특별시 서초구 서초대로58길 36 4~5F,동물위탁관리업
80,프랑소와펫 서래점반려동물미용,37.4961266,126.9970813,"서울특별시 서초구 서래로1길 18 엠제이빌딩 1층, 지하1층",동물위탁관리업
81,하울팟 케어클럽 서초본점반려동물,37.4858797,126.9889187,서울특별시 서초구 서초대로58길 36 4~5F,동물위탁관리업
82,유어마이독반려동물,37.4880562,126.986664,서울특별시 서초구 도구로 128-13 1층,동물위탁관리업
83,디어몽반려동물미용,37.48111859999999,126.9141954,서울특별시 관악구 난곡로63길 6,동물위탁관리업
84,투퍼피반려동물호텔,37.488577,126.928096,서울특별시 관악구 신림로 387 3층 투퍼피,동물위탁관리업
85,개라다이스반려동물호텔,37.487627,126.9326428,서울특별시 관악구 봉천로 283 대윤빌딩,동물위탁관리업
86,태우하우스반려동물호텔,37.4778815,126.9345174,서울특별시 관악구 신림로 242,동물위탁관리업
87,다즐링반려동물미용,37.5029226,126.9094598,서울특별시 영등포구 신길로 119 1층 121호,동물위탁관리업
88,체크인독반려동물호텔,37.4955123,126.7861847,경기도 광명시 금하로 534 종만빌딩 4층,동물위탁관리업
89,박준강아지유치원애견훈련소애견훈련,37.517007,126.9041419,서울특별시 영등포구 영중로 15,동물위탁관리업
90,몽이슈반려동물미용,37.4756175,126.8523921,경기도 광명시 광명로 855-1 3층,동물위탁관리업
91,아름다울개반려동물미용,37.4703975,126.8560839,경기도 광명시 도덕로 79 3층,동물위탁관리업
92,몽몽바블펫샵반려동물미용,37.519515,126.8565618,서울특별시 양천구 중앙로36길 24,동물위탁관리업
93,포독반려동물미용,37.5590032,126.8343207,서울특별시 강서구 마곡동로10길 46 406호,동물위탁관리업
94,댕댕당반려동물미용,37.6147407,126.8331688,경기도 고양시 덕양구 무원로6번길 61 GL프라자 3층,동물위탁관리업
