,name,lat,lng,address,type
0,감초약국,37.5312518,126.8472929,서울특별시 강서구 화곡동 342-58,동물약국업
1,다온약국,37.6104323,127.0094342,서울특별시 성북구 정릉동 285-12,동물약국업
2,수유시장약국,37.6304236,127.0241631,서울특별시 강북구 미아동 202-12 102호,동물약국업
3,서울이약국,37.5794673,127.001298,서울특별시 종로구 연건동 44-5,동물약국업
4,명약국,37.5423046,127.1004789,서울특별시 광진구 광장동 463-3 101호,동물약국업
5,마곡스타약국,37.5764888,126.8307466,서울특별시 강서구 마곡동 798-3 106-1호,동물약국업
6,셀약국,37.5534897,126.9177304,서울특별시 마포구 서교동 494,동물약국업
7,황약국,37.5987325,127.0969451,서울특별시 중랑구 망우동 490-9,동물약국업
8,다올약국,37.49236260000001,127.1443453,서울특별시 송파구 거여동 566,동물약국업
9,세계로 약국,37.5996433,127.0794341,서울특별시 중랑구 중화동 303-14 그린빌딩,동물약국업
10,새봄약국,37.5360271,127.0661386,서울특별시 광진구 자양동 553-15,동물약국업
11,스토리약국,37.4864724,127.0358875,서울특별시 강남구 도곡동 950-8 1층,동물약국업
12,에스온누리약국,37.52551589999999,127.0260302,서울특별시 강남구 신사동 575 극동타워 116 117호,동물약국업
13,가양온누리약국,37.5612833,126.8602034,서울특별시 강서구 가양동 1488 가양프라자,동물약국업
14,천우약국,37.519621,126.9072575,서울특별시 영등포구 영등포동5가 6-3,동물약국업
15,스마트약국,37.5408808,127.0024461,서울특별시 양천구 신정동 329-10 목동 블루스퀘어,동물약국업
16,솔약국,37.53803,127.140249,서울특별시 강동구 길동 415-13 강동 큐브 2차,동물약국업
17,태이린한약국,37.5535991,126.9038598,서울특별시 마포구 망원동 395-24,동물약국업
18,사랑온누리약국,37.5083432,127.0585185,서울특별시 강남구 삼성동 158-14,동물약국업
19,서초행복약국,37.4856842,127.0114408,서울특별시 서초구 서초동 1583-10 서초아트자이,동물약국업
20,가까운약국,37.517425,126.8964798,서울특별시 영등포구 문래동3가 55-5 로데오 ? 쇼핑몰,동물약국업
21,신두산약국,37.5735393,127.0154532,서울특별시 종로구 창신동 264,동물약국업
22,상봉태평양약국,37.5946937,127.0856632,서울특별시 중랑구 상봉동 113-4 오렌지타워,동물약국업
23,숭인약국,37.5754579,127.0223156,서울특별시 종로구 숭인동 1266,동물약국업
24,신세원약국,37.602842,127.0201982,서울특별시 성북구 길음동 1286-10 길음뉴타운9단지래미안 상가,동물약국업
25,올리브 약국,37.5552808,126.9353155,서울특별시 마포구 노고산동 57-12,동물약국업
26,안생약국,37.5462898,126.9231413,서울특별시 마포구 상수동 331-11,동물약국업
27,미동약국,37.5490357,126.9384146,서울특별시 마포구 신수동 85-5,동물약국업
28,홍대365약국,37.5546568,126.9261061,서울특별시 마포구 서교동 340-1,동물약국업
29,스타온누리약국,37.5010448,127.0863219,서울특별시 송파구 잠실동 242-17번지 대성빌딩 ,동물약국업
30,가장빠른천사약국,37.5255442,127.1143162,서울특별시 송파구 풍납동 388-7번지 ,동물약국업
31,강남샘약국,37.4950554,127.0457221,서울특별시 강남구 역삼동 784-6 기성빌딩 1층,동물약국업
32,에이원약국,37.4996935,127.0255707,서울특별시 서초구 서초동 1307-21 BLOCK77,동물약국업
33,수프라자약국,37.498419,127.146399,서울특별시 송파구 마천동 35-1,동물약국업
34,송파새길약국,37.485978,127.122489,서울특별시 송파구 문정동 652-2번지 문정 오벨리스크 ,동물약국업
35,행복한약국,37.4976866,127.1066825,서울특별시 송파구 가락동 479번지 헬리오시티 ,동물약국업
36,송파샘약국,37.4976866,127.1066825,서울특별시 송파구 가락동 479번지 헬리오시티 ,동물약국업
37,가든파이브약국,37.4775761,127.125043,서울특별시 송파구 문정동 634번지 가든파이브라이프 ,동물약국업
38,녹십자약국,37.511016,127.0737121,,동물약국업
39,우리들약국,37.5119129,127.1135622,서울특별시 송파구 방이동 149번지 세나빌딩 ,동물약국업
40,샤인약국,37.4976866,127.1066825,서울특별시 송파구 가락동 479번지 헬리오시티 ,동물약국업
41,힐링약국,37.503426,127.1248257,서울특별시 송파구 가락동 3-3번지 ,동물약국업
42,풍납라파약국,37.5375899,127.1193132,서울특별시 송파구 풍납동 141-7번지 ,동물약국업
43,누가신약국,37.501543,127.1100227,서울특별시 송파구 석촌동 296-9번지 ,동물약국업
44,방이수약국,37.5125119,127.1131853,서울특별시 송파구 방이동 107-6번지 ,동물약국업
45,제일약국,37.5114778,127.1126195,,동물약국업
46,반가운약국,37.4919649,127.1254739,서울특별시 송파구 가락동 120-4번지 ,동물약국업
47,유창온누리약국,37.4950035,127.1170293,서울특별시 송파구 가락동 96번지 신정빌딩 1층 ,동물약국업
48,오메디약국,37.520094,127.112974,서울특별시 송파구 신천동 17-4번지 파크리오상가 A동 316호,동물약국업
49,명문동물약국,37.4969021,127.1495874,,동물약국업
50,북부약국,37.622225,127.0281875,서울특별시 강북구 미아동 131-4번지 창림빌딩,동물약국업
51,스타온누리약국,37.491949,127.008718,서울특별시 서초구 서초동 1553-3 스타갤러리브릿지,동물약국업
52,팜프라자약국,37.6375688,126.9181915,서울특별시 은평구 진관동 63 롯데몰 은평점 4층,동물약국업
53,새조은약국,37.5006069,127.1108662,서울특별시 송파구 석촌동 296-15,동물약국업
54,숨온누리약국,37.4711862,127.0248843,서울특별시 서초구 방배동 897-2 J.H 빌딩,동물약국업
55,키즈플러스약국,37.5111158,127.098167,,동물약국업
56,시장온누리약국,37.5380409,127.1220396,서울특별시 송파구 풍납동 152-2번지 1층 ,동물약국업
57,옵티마100세약국,37.4971862,127.148754,서울특별시 송파구 마천동 126-5번지 ,동물약국업
58,참한약국,37.4774185,127.1231749,,동물약국업
59,일번약국,37.5307648,127.112985,서울특별시 송파구 풍납동 269-30번지 ,동물약국업
60,트램온누리약국,37.4797341,127.1440951,,동물약국업
61,팜코리아약국,37.5012824,127.1070016,서울특별시 송파구 석촌동 277-1번지 ,동물약국업
62,모범약국,37.5045167,127.0969041,,동물약국업
63,햇살약국,37.508659,127.1272145,,동물약국업
64,윤정온누리약국,37.49910149999999,127.138428,,동물약국업
65,잠실프라자약국,37.5051414,127.0858879,서울특별시 송파구 잠실동 234-9번지 ,동물약국업
66,새독일약국,37.5010901,127.1113762,서울특별시 송파구 송파동 97-35번지 ,동물약국업
67,진메디칼약국,37.4945745,127.1519824,서울특별시 송파구 마천동 307-13번지 1층 ,동물약국업
68,메디팜대신M약국,37.4982843,127.1207781,서울특별시 송파구 가락동 48번지 ,동물약국업
69,삼성수약국,37.5188607,127.0992536,서울특별시 송파구 신천동 7-29번지 ,동물약국업
70,송파정약국,37.4772734,127.1273388,서울특별시 송파구 장지동 841-4번지 대진프라자 105호,동물약국업
71,파란문약국,37.5714356,126.9615273,서울특별시 종로구 교북동 126 경희궁자이 4단지,동물약국업
72,지앤미약국,37.49656179999999,127.1315385,서울특별시 송파구 가락동 164-23번지 ,동물약국업
73,송파사거리약국,37.5018989,127.1095299,서울특별시 송파구 석촌동 295-6번지 ,동물약국업
74,윤약국,37.5052217,127.1062715,서울특별시 송파구 석촌동 174-2번지 ,동물약국업
75,문정약국,37.4879027,127.1249649,서울특별시 송파구 문정동 31번지 ,동물약국업
76,마천푸른솔약국,37.4981295,127.1469272,서울특별시 송파구 마천동 118-12번지 1층 ,동물약국업
77,뉴프라임약국,37.494231,127.1177169,서울특별시 송파구 가락동 96-16번지 ,동물약국업
78,예사랑약국,37.509456,127.1120394,서울특별시 송파구 송파동 135-3번지 ,동물약국업
79,잠실미소약국,37.5162275,127.1029989,서울특별시 송파구 신천동 7-12번지 홈플러스잠실점 지하1층 ,동물약국업
80,그린약국,37.5120464,127.0841726,서울특별시 송파구 잠실동 19-9번지 잠실파인애플상가 2층 60~61호 ,동물약국업
81,피나팜맑은약국,37.4848376,127.1254914,서울특별시 송파구 문정동 642번지 송파 테라타워2 B동 144호,동물약국업
82,키즈플러스약국,37.51117869999999,127.0979853,서울특별시 송파구 잠실동 40-1번지 롯데월드 웰빙센터동 A-104호,동물약국업
83,가까운현대약국,37.6399379,127.029329,서울특별시 강북구 번동 462-22 1층,동물약국업
84,왕약국,37.5026889,127.0955177,서울특별시 송파구 삼전동 133-9번지 ,동물약국업
85,큰사랑동물약국,37.4963108,127.1312282,서울특별시 송파구 가락동 164-20번지 ,동물약국업
86,메디팜양의약국,37.5113733,127.0929575,서울특별시 송파구 잠실동 40번지 갤러리아팰리스 1층 23호,동물약국업
87,남매약국,37.4925182,127.1472973,서울특별시 송파구 거여동 31번지 ,동물약국업
88,태평양약국,37.5078652,127.0879833,,동물약국업
89,진약국,37.4893289,127.1227512,,동물약국업
90,소나무약국,37.4916854,127.117708,,동물약국업
91,참약국,37.6449603,127.0201906,서울특별시 강북구 수유동 256-3 JK빌딩 104호,동물약국업
92,비온뒤 숲속약국,37.5580624,126.90781,서울특별시 마포구 망원동 482-9번지 풍성빌딩 1041호,동물약국업
93,녹원약국,37.5133985,127.1173917,,동물약국업
94,박순영온누리약국,37.508128,127.1284843,서울특별시 송파구 오금동 19번지 대림아파트상가 117~1호,동물약국업
95,늘봄약국,37.5279994,127.1183907,,동물약국업
96,참행복한약국,37.49905630000001,127.1194199,,동물약국업
97,참약국,37.5175312,127.103575,서울특별시 송파구 신천동 11-4번지 잠실 푸르지오 월드마크 219호,동물약국업
98,문정이화약국,37.4859826,127.1197497,서울특별시 송파구 문정동 643-1번지 엠스테이트 C동 214호,동물약국업
99,송파온누리약국,37.5039061,127.1192075,서울특별시 송파구 송파동 163-20번지 1층 ,동물약국업
100,방이종로약국,37.5094929,127.12423,서울특별시 송파구 방이동 208-3번지 ,동물약국업
101,베스트약국,37.5033831,127.0902874,서울특별시 송파구 삼전동 48-10번지 ,동물약국업
102,밝은약국,37.5120464,127.0841726,서울특별시 송파구 잠실동 19-9번지 ,동물약국업
103,한가족약국,37.5044846,127.107339,서울특별시 송파구 석촌동 286-1번지 ,동물약국업
104,수약국,37.5016284,127.1086253,,동물약국업
105,월드중앙약국,37.5193571,127.0993659,,동물약국업
106,숲약국,37.5101888,127.0856227,,동물약국업
107,프라자약국,37.51593200000001,127.1320277,,동물약국업
108,신화약국,37.5085653,127.0833193,,동물약국업
109,메디팜하나약국,37.5003751,127.1110805,서울특별시 송파구 석촌동 296-17번지 ,동물약국업
110,단비온누리약국,37.5119601,127.0869604,,동물약국업
111,온누리건강약국,37.5157622,127.1320826,,동물약국업
112,송파태양약국,37.51062450000001,127.1161033,서울특별시 송파구 방이동 119번지 1층 ,동물약국업
113,굿모닝약국,37.5687597,126.9661671,서울특별시 종로구 평동 233번지 경희궁자이 3단지 ,동물약국업
114,유한약국,37.570743,127.003384,서울특별시 종로구 종로5가 193-1번지 ,동물약국업
115,열린약국,37.5706604,127.0003266,서울특별시 종로구 종로4가 185번지 ,동물약국업
116,위드팜바로드림약국,37.5687597,126.9661671,서울특별시 종로구 평동 233번지 경희궁자이 3단지 3150호,동물약국업
117,유약국,37.5687597,126.9661671,서울특별시 종로구 평동 233번지 경희궁자이 3단지 상가동 3146호,동물약국업
118,일등약국,37.5687597,126.9661671,서울특별시 종로구 평동 233번지 경희궁자이 3단지 ,동물약국업
119,경희궁햇살약국,37.5705113,126.9639734,서울특별시 종로구 홍파동 199번지 경희궁자이 2단지 ,동물약국업
120,예은약국,37.6068278,126.9584295,서울특별시 종로구 구기동 94번지 ,동물약국업
121,솔약국,37.646607,126.927195,서울특별시 은평구 진관동 6 은평뉴타운상림마을 702동 113호,동물약국업
122,사랑약국,37.6080571,126.9564982,서울특별시 종로구 구기동 110-1번지 요진오피스텔 3호,동물약국업
123,종로프라자약국,37.581555,126.9705744,서울특별시 종로구 옥인동 19-33번지 ,동물약국업
124,종로온누리약국,37.4996619,127.0320322,서울특별시 종로구 창신동 562번지 하나저축은행 ,동물약국업
125,경희궁햇살약국,37.5713246,126.9635654,서울특별시 종로구 홍파동 42-13번지 ,동물약국업
126,동남약국,37.5700878,126.9912669,서울특별시 종로구 종로3가 123-2번지 ,동물약국업
127,수도약국,37.5740791,126.9851395,,동물약국업
128,사랑온누리약국,37.5768766,127.0152236,,동물약국업
129,푸른온누리약국,37.567388,126.9678863,서울특별시 종로구 평동 180번지 ,동물약국업
130,신동화약국,37.571853,127.0078329,서울특별시 종로구 종로6가 ,동물약국업
131,종로백제약국,37.5712211,127.0039744,서울특별시 종로구 종로5가 36-1번지 ,동물약국업
132,삼오약국,37.5704416,126.9761633,서울특별시 종로구 신문로1가 1-1번지 ,동물약국업
133,신세계약국,37.5700629,126.9915219,,동물약국업
134,다정약국,37.5698561,126.9851538,,동물약국업
135,삼원약국,37.5704416,126.9761633,서울특별시 종로구 신문로1가 1-1번지 ,동물약국업
136,서울위드팜약국,37.5818924,127.0016664,서울특별시 종로구 명륜4가 94-2번지 12층 ,동물약국업
137,엄마약국,37.5710353,126.9991612,서울특별시 종로구 종로4가 9-6번지 ,동물약국업
138,종로백제약국,37.571278,127.0039991,서울특별시 종로구 종로5가 36-1번지 백제약국 ,동물약국업
139,파랑새약국,37.5819971,127.001588,서울특별시 종로구 명륜4가 93번지 ,동물약국업
140,창신종로약국,37.5737181,127.0104369,서울특별시 종로구 창신동 647-16번지 ,동물약국업
141,세검정약국,37.60159,126.9617878,서울특별시 종로구 신영동 105-30번지 ,동물약국업
142,광화문123약국,37.5723533,126.9796646,서울특별시 종로구 청진동 215-1번지 ,동물약국업
143,종오약국,37.57108729999999,126.9994469,서울특별시 종로구 종로4가 7번지 ,동물약국업
144,종로수약국,37.57073740000001,127.0028239,서울특별시 종로구 종로5가 193-5번지 ,동물약국업
145,약수하나약국,37.5539916,127.0096702,,동물약국업
146,충정로 조은약국,37.558819,126.9635417,서울특별시 중구 중림동 398-9번지 ,동물약국업
147,웰니스약국,37.5615611,126.9859618,서울특별시 중구 충무로2가 63-2번지 삼윤빌딩 ,동물약국업
148,알파약국,37.5645831,127.0281283,서울특별시 중구 황학동 1781번지 대중약국 ,동물약국업
149,판도라 숭례문 약국,37.5583299,126.9730558,서울특별시 중구 남대문로5가 6-8번지 ,동물약국업
150,서울하이약국,37.5581881,126.97312,서울특별시 중구 남대문로5가 6-9번지 ,동물약국업
151,인앤아웃약국,37.5709593,126.9798759,서울특별시 종로구 종로1가 24 르메이에르종로타운1,동물약국업
152,케이온누리약국,37.5645947,126.9843988,서울특별시 중구 명동1가 42-1번지 ,동물약국업
153,허브약국,37.5516055,127.0083697,서울특별시 중구 신당동 366-106번지 ,동물약국업
154,서현온누리약국,37.5593241,126.9789051,서울특별시 중구 남창동 9-15번지 ,동물약국업
155,봄약국,37.5682052,126.9840007,서울특별시 중구 삼각동 ,동물약국업
156,샘물온누리약국,37.5615738,127.0194523,서울특별시 중구 신당동 ,동물약국업
157,우리네약국,37.5547032,127.0146066,서울특별시 중구 신당동 842번지 ,동물약국업
158,동화약국,37.5617223,127.0170847,서울특별시 중구 신당동 282-107번지 1층 ,동물약국업
159,맑은약국,37.5556465,126.9378626,서울특별시 서대문구 창천동 29-92 세인빌딩,동물약국업
160,황학동동물약국,37.5702876,127.0231642,서울특별시 중구 황학동 2153번지 ,동물약국업
161,신중앙약국,37.5647457,127.0190915,서울특별시 중구 신당동 140-1번지 ,동물약국업
162,다산온누리약국,37.5615738,127.0194523,서울특별시 중구 신당동 ,동물약국업
163,명동하이약국,37.5658904,126.9850802,서울특별시 중구 을지로2가 ,동물약국업
164,명동명약국,37.5636186,126.9812193,서울특별시 중구 소공동 28번지 태양빌딩 ,동물약국업
165,가장큰태평양약국,37.5332791,127.0038569,서울특별시 용산구 한남동 653-1번지 ,동물약국업
166,남선약국,37.5350006,126.9614535,서울특별시 용산구 원효로2가 94-2번지 103호,동물약국업
167,이층성장약국,37.5201398,126.9718634,서울특별시 용산구 이촌동 300-27번지 2층 ,동물약국업
168,메디팜 미래로 약국,37.5447824,126.9682535,서울특별시 용산구 청파동2가 71-14번지 ,동물약국업
169,힐링약국,37.5432524,126.9875039,서울특별시 용산구 용산동2가 27-4번지 기업은행 ,동물약국업
170,신세계약국,37.5259291,126.9998852,서울특별시 용산구 보광동 216-100번지 연소아과의원 신세계약국 ,동물약국업
171,우리선약국,37.5272032,127.144105,서울특별시 강동구 둔촌동 ,동물약국업
172,누리약국,37.52050370000001,127.1066833,서울특별시 송파구 신천동 17번지 파크리오 ,동물약국업
173,숙명온누리약국,37.54504319999999,126.966755,서울특별시 용산구 청파동2가 63-5번지 중하빌딩 ,동물약국업
174,인원약국,37.5459866,126.9849365,서울특별시 용산구 용산동2가 1-560번지 ,동물약국업
175,한라약국,37.5337862,126.9942656,서울특별시 용산구 이태원동 131-3번지 ,동물약국업
176,정화약국,37.5454262,126.9734983,,동물약국업
177,보현약국,37.5458724,126.9850682,서울특별시 용산구 용산동2가 1-530번지 ,동물약국업
178,메디팜나은약국,37.53711800000001,126.9728863,서울특별시 용산구 한강로1가 64번지 1층 110호,동물약국업
179,센트럴파란문약국,37.5292323,126.9669747,서울특별시 용산구 한강로2가 422번지 래미안용산 더 센트럴 A동 208-1호,동물약국업
180,3층파란문약국,37.5271632,126.9651663,서울특별시 용산구 한강로2가 420번지 용산푸르지오써밋 305-1호,동물약국업
181,분홍약국,37.5326969,126.9907875,서울특별시 용산구 이태원동 44-17번지 1층 ,동물약국업
182,이촌사랑약국,37.5180409,126.9779431,서울특별시 용산구 이촌동 301-263번지 렉스상가 1호,동물약국업
183,혜민약국,37.5478162,127.0522128,서울특별시 성동구 행당동 12-5번지 미진빌딩 ,동물약국업
184,참사랑약국,37.5658317,127.043053,서울특별시 성동구 마장동 791-2번지 ,동물약국업
185,태화약국,37.5453477,127.0542691,서울특별시 성동구 성수동2가 300-79번지 ,동물약국업
186,어울림온누리약국,37.5425339,127.0164563,서울특별시 성동구 옥수동 363번지 ,동물약국업
187,한양약국,37.5594683,127.0404632,서울특별시 성동구 행당동 19-54번지 1층 ,동물약국업
188,백두산약국,37.5462755,127.0440499,서울특별시 성동구 성수동1가 668-39번지 ,동물약국업
189,화생약국,37.5547663,127.020345,서울특별시 성동구 금호동1가 125-1번지 로타리빌딩 103호,동물약국업
190,비트플렉스약국,37.5621482,127.0379421,서울특별시 성동구 행당동 168-1번지 2층 ,동물약국업
191,텐즈힐약국,37.5679524,127.0249238,서울특별시 성동구 상왕십리동 811번지 텐즈힐 2층 221동 110호,동물약국업
192,방초한약국,37.5618973,127.0254373,,동물약국업
193,금호동물약국,37.5553878,127.0248889,,동물약국업
194,메디팜푸른약국,37.5688023,127.0279267,서울특별시 성동구 하왕십리동 339-67번지 텐즈힐@상가 151동 104호,동물약국업
195,자연온누리약국,37.5384827,127.0549567,서울특별시 성동구 성수동2가 339-5번지 ,동물약국업
196,스마일온누리약국,37.5397379,127.0531007,서울특별시 성동구 성수동2가 333-16번지 이마트성수점 3층 ,동물약국업
197,옵티마뚝도시장약국,37.5374541,127.0540995,서울특별시 성동구 성수동2가 532-19번지 ,동물약국업
198,유림약국,37.5607155,127.0293549,서울특별시 성동구 하왕십리동 982-10번지 ,동물약국업
199,신금호중앙약국,37.5550277,127.0202477,서울특별시 성동구 금호동1가 121-3번지 ,동물약국업
200,천우약국,37.5675528,127.025988,서울특별시 성동구 하왕십리동 512-2   번지 ,동물약국업
201,대학약국,37.5598989,127.0415624,서울특별시 성동구 행당동 14-1   번지 ,동물약국업
202,우리들 약국,37.5379841,127.0524631,서울특별시 성동구 성수동2가 344-5번지 정화빌딩 ,동물약국업
203,153온누리약국,37.5695572,127.031966,서울특별시 성동구 하왕십리동 1070번지 센트라스 ,동물약국업
204,정성온누리약국,37.5675592,127.0287352,,동물약국업
205,메디팜일진약국,37.5626807,127.0541707,서울특별시 성동구 용답동 44-6번지 일진약국 ,동물약국업
206,용한약국,37.5702068,127.0373607,서울특별시 성동구 마장동 474-5   번지 ,동물약국업
207,다나약국,37.5495103,127.0469355,서울특별시 성동구 성수동1가 706번지 쌍용아파트 상가 B동 101호,동물약국업
208,새서독약국,37.55846289999999,127.0333014,서울특별시 성동구 행당동 317-52번지 ,동물약국업
209,샘터온누리약국,37.5545206,127.0204818,서울특별시 성동구 금호동1가 506-1   번지 ,동물약국업
210,대중약국,37.5644806,127.0281017,서울특별시 성동구 하왕십리동 890-80번지 ,동물약국업
211,실로암약국,37.5645052,127.0535335,서울특별시 성동구 용답동 58-3번지 ,동물약국업
212,유연약국,37.5695572,127.031966,서울특별시 성동구 하왕십리동 1070번지 센트라스상가 L동 318호,동물약국업
213,지안약국,37.5620533,127.0381196,서울특별시 성동구 행당동 168-151번지 왕십리민자역사4층 ,동물약국업
214,미소어울림약국,37.5421774,127.0181052,서울특별시 성동구 옥수동 560번지 옥수 어울림상가 1층 211호,동물약국업
215,성동동물약국,37.5550277,127.0202477,서울특별시 성동구 금호동1가 121-3번지 ,동물약국업
216,성수햇살약국,37.5438853,127.0572038,서울특별시 성동구 성수동2가 317-3번지 베델 플레이스 ,동물약국업
217,더밝은약국,37.5611276,127.0397537,서울특별시 성동구 행당동 1-33번지 ,동물약국업
218,자이팜약국,37.5559161,127.0389455,서울특별시 성동구 행당동 380번지 서울숲리버뷰자이(상가1동) 1203호,동물약국업
219,늘푸른약국,37.5695572,127.031966,서울특별시 성동구 하왕십리동 1070번지 센트라스 D동 비103호,동물약국업
220,멍냥동약,37.5459554,127.0541571,서울특별시 성동구 성수동2가 289-273번지 선약국 ,동물약국업
221,더나은약국,37.5560906,127.081051,서울특별시 광진구 능동 222-2번지 ,동물약국업
222,광진약국,37.542102,127.0981299,서울특별시 광진구 광장동 425-2번지 ,동물약국업
223,화양종로약국,37.54965079999999,127.0705803,서울특별시 광진구 군자동 346-22번지 ,동물약국업
224,예일약국,37.54004,127.0893896,서울특별시 광진구 구의동 221-1번지 ,동물약국업
225,옵티마자양미소약국,37.53262429999999,127.076846,서울특별시 광진구 자양동 608-7번지 ,동물약국업
226,세계로약국,37.5410879,127.0679154,서울특별시 광진구 화양동 48-14번지 ,동물약국업
227,메디팜백악관약국,37.5540067,127.0887534,서울특별시 광진구 중곡동 93-4번지 ,동물약국업
228,그랜드약국,37.5432911,127.069075,서울특별시 광진구 화양동 34-4번지 ,동물약국업
229,신성모약국,37.536277,127.0637797,서울특별시 광진구 자양동 52-6번지 ,동물약국업
230,명성약국,37.5440939,127.0892894,서울특별시 광진구 구의동 230-23번지 ,동물약국업
231,건대 가온약국,37.5465376,127.0750404,서울특별시 광진구 화양동 527번지 105호,동물약국업
232,메디팜백악관약국,37.5564128,127.0893692,,동물약국업
233,건강한약국,37.5525373,127.0897231,서울특별시 광진구 중곡동 115-9번지 ,동물약국업
234,새서울약국,37.5513382,127.092086,서울특별시 광진구 구의동 47-19번지 ,동물약국업
235,진주약국,37.5357006,127.0830019,서울특별시 광진구 자양동 626번지 ,동물약국업
236,힘찬동물약국,37.5320125,127.0799707,서울특별시 광진구 자양동 635-28번지 ,동물약국업
237,착한약국,37.5316997,127.0855186,서울특별시 광진구 자양동 677-7번지 ,동물약국업
238,아차산하이약국,37.5514522,127.0917927,서울특별시 광진구 구의동 50-13번지 ,동물약국업
239,온누리현대약국,37.5349372,127.0957088,서울특별시 광진구 구의동 546-4번지 ,동물약국업
240,햇살온누리약국,37.5434818,127.0699485,서울특별시 광진구 화양동 10-1번지 한아름건물 ,동물약국업
241,태평양약국,37.5323375,127.0857348,서울특별시 광진구 자양동 681번지 ,동물약국업
242,건대역약국,37.5407618,127.067406,서울특별시 광진구 자양동 8-24번지 성원빌딩 ,동물약국업
243,느티나무동물약국,37.5356144,127.0836095,서울특별시 광진구 자양동 627-2번지 ,동물약국업
244,더?스타시티약국,37.53858839999999,127.0726347,서울특별시 광진구 자양동 227-7번지 스타시티쇼핑몰 1층 ,동물약국업
245,쉐르빌대학약국,37.54001239999999,127.0946811,서울특별시 광진구 구의동 199-18번지 삼성쉐르빌 105호,동물약국업
246,금성당약국,37.5593302,127.0879574,서울특별시 광진구 중곡동 58-27번지 ,동물약국업
247,우리들약국,37.5586554,127.0774157,서울특별시 광진구 중곡동 89-1번지 ,동물약국업
248,자양하나약국,37.53173,127.0811803,서울특별시 광진구 자양동 653-47번지 ,동물약국업
249,신승보약국,37.5359363,127.063655,서울특별시 광진구 자양동 52-193번지 ,동물약국업
250,봄약국,37.5326803,127.0758338,서울특별시 광진구 자양동 608-21번지 103호,동물약국업
251,스타시티약국,37.5383305,127.0751022,서울특별시 광진구 자양동 227-6번지 ,동물약국업
252,금성약국,37.5375422,127.083673,서울특별시 광진구 구의동 252-90번지 ,동물약국업
253,온누리메디칼약국,37.5406229,127.067656,서울특별시 광진구 자양동 8-1번지 송천빌딩 ,동물약국업
254,중곡종로약국,37.5575847,127.0881598,서울특별시 광진구 중곡동 79-9번지 ,동물약국업
255,서울온누리약국,37.5394892,127.0938116,서울특별시 광진구 구의동 213-3번지 ,동물약국업
256,튼튼온누리약국,37.538409,127.0918321,서울특별시 광진구 구의동 218-37번지 ,동물약국업
257,온누리 강변 프라자 약국,37.5376898,127.097524,서울특별시 광진구 구의동 631-1번지 현대프라임아파트 107~9호,동물약국업
258,늘푸른약국,37.5781311,127.0576348,서울특별시 동대문구 전농동 295-102번지 ,동물약국업
259,영림약국,37.5904818,127.0622926,서울특별시 동대문구 휘경동 254번지 ,동물약국업
260,서초늘봄약국,37.4903683,127.0059966,서울특별시 서초구 서초동 1498-5 마제스타시티 힐스테이트 서리풀,동물약국업
261,장안미소약국,37.5723095,127.0743753,서울특별시 동대문구 장안동 331-3번지 ,동물약국업
262,코아약국,37.5900607,127.056608,서울특별시 동대문구 휘경동 320-4번지 ,동물약국업
263,다온약국,37.5726236,127.070784,서울특별시 동대문구 장안동 307-6번지 한양빌딩 ,동물약국업
264,경애약국,37.5795419,127.0705689,서울특별시 동대문구 장안동 93-10번지 ,동물약국업
265,새이화약국,37.5728009,127.0721334,서울특별시 동대문구 장안동 308-1번지 ,동물약국업
266,이웃사랑약국,37.5815693,127.0713759,서울특별시 동대문구 장안동 93-86번지 ,동물약국업
267,청솔약국,37.5745808,127.0599849,서울특별시 동대문구 답십리동 80번지 청솔우성아파트 A상가 108호 ,동물약국업
268,국제약국,37.5722258,127.0680969,,동물약국업
269,이문태평양약국,37.5980735,127.0614466,서울특별시 동대문구 이문동 292-32번지 ,동물약국업
270,삼화약국,37.5808208,127.0457652,서울특별시 동대문구 청량리동 264번지 ,동물약국업
271,외대조은약국,37.5959219,127.0610025,서울특별시 동대문구 이문동 288-39번지 ,동물약국업
272,장안제일약국,37.571834,127.0710802,서울특별시 동대문구 장안동 369-3번지 ,동물약국업
273,신유약국,37.570627,127.0706515,서울특별시 동대문구 장안동 ,동물약국업
274,우진당 약국,37.5780803,127.0579298,서울특별시 동대문구 전농동 295-16번지 ,동물약국업
275,한사랑온누리약국,37.6031017,127.0667232,서울특별시 동대문구 이문동 220-202번지 ,동물약국업
276,연세약국,37.57849179999999,127.0581296,서울특별시 동대문구 전농동 60-167번지 ,동물약국업
277,종로약국,37.5682348,127.057275,,동물약국업
278,자연약국,37.5951579,127.0633958,서울특별시 동대문구 이문동 82-25번지 ,동물약국업
279,경희 다정한 약국,37.5759638,127.0696432,서울특별시 동대문구 장안동 122-2번지 ,동물약국업
280,세광약국,37.5794752,127.042044,서울특별시 동대문구 제기동 652-2번지 ,동물약국업
281,본약국,37.58308299999999,127.0540037,서울특별시 동대문구 전농동 135-44번지 ,동물약국업
282,명문온누리약국,37.5789005,127.070124,서울특별시 동대문구 장안동 99-13번지 ,동물약국업
283,아이약국,37.5755482,127.0732824,서울특별시 동대문구 장안동 321-10번지 삼성리치캐슬 ,동물약국업
284,아이약국,37.5755482,127.0732824,서울특별시 동대문구 장안동 321-10번지 삼성리치캐슬 ,동물약국업
285,조약국,37.5745068,127.0387406,,동물약국업
286,조은온누리약국,37.5656711,127.0671202,,동물약국업
287,청수약국,37.5777737,127.0339394,서울특별시 동대문구 용두동 100-1번지 ,동물약국업
288,행복한약국,37.5685662,127.0662102,서울특별시 동대문구 장안동 394-11번지 ,동물약국업
289,경희고황약국,37.5931286,127.0524226,,동물약국업
290,햇살약국,37.5631754,127.0661145,서울특별시 동대문구 장안동 433-4번지 ,동물약국업
291,나나약국,37.5676018,127.0722308,서울특별시 동대문구 장안동 349-17번지 ,동물약국업
292,그린약국,37.5719615,127.0709178,서울특별시 동대문구 장안동 369-2번지 ,동물약국업
293,협성가축약품,37.58301890000001,127.0484335,서울특별시 동대문구 청량리동 235-4번지 미주상가 ,동물약국업
294,하늘후문약국,37.5652271,127.0563098,서울특별시 동대문구 답십리동 530-17번지 한성아펠시티 ,동물약국업
295,초원옵티마약국,37.5865089,127.0425098,서울특별시 동대문구 청량리동 496번지 ,동물약국업
296,태평양약국,37.5995978,127.0981633,서울특별시 중랑구 망우동 488-3번지 ,동물약국업
297,면목백화점약국,37.58102179999999,127.0935553,서울특별시 중랑구 면목동 507-26번지 ,동물약국업
298,국제약국,37.6064082,127.0946811,서울특별시 중랑구 신내동 666번지 1층 104호,동물약국업
299,하늘약국,37.593212,127.0748661,서울특별시 중랑구 상봉동 130-99번지 ,동물약국업
300,면목약국,37.5884749,127.0890626,서울특별시 중랑구 면목동 105-7번지 ,동물약국업
301,바른굿모닝약국,37.5106974,126.889291,서울특별시 구로구 신도림동 338 신도림2차푸르지오 302호,동물약국업
302,팜코리아약국,37.5831897,127.0886458,서울특별시 중랑구 면목동 458-1번지 ,동물약국업
303,성경온누리약국,37.6003266,127.1052461,서울특별시 중랑구 망우동 149-16번지 ,동물약국업
304,우리종로약국,37.5957651,127.0998618,서울특별시 중랑구 망우동 465-14번지 ,동물약국업
305,참약국,37.5995979,127.0873868,서울특별시 중랑구 상봉동 202-1번지 1층 ,동물약국업
306,튼튼약국,37.5838499,127.0884928,서울특별시 중랑구 면목동 428-8번지 1층 ,동물약국업
307,건명약국,37.589608,127.0870355,서울특별시 중랑구 면목동 126-6번지 ,동물약국업
308,백세약국,37.6066393,127.0955549,서울특별시 중랑구 신내동 667번지 1층 109호,동물약국업
309,사가정 약국,37.5809912,127.0877125,서울특별시 중랑구 면목동 604-4번지 ,동물약국업
310,태릉프라자약국,37.5982954,127.076905,서울특별시 중랑구 중화동 315-10번지 ,동물약국업
311,다정옵티마약국,37.6050157,127.0768321,서울특별시 중랑구 중화동 308-1번지 ,동물약국업
312,정다운 온누리약국,37.5803038,127.0891191,서울특별시 중랑구 면목동 612-63,동물약국업
313,365프라자약국,37.61623549999999,127.0792636,서울특별시 중랑구 묵동 162-2번지 ,동물약국업
314,늘푸른솔약국,37.5881175,127.0872083,서울특별시 중랑구 면목동 115-1번지 ,동물약국업
315,이안온누리약국,37.579669,127.087432,서울특별시 중랑구 면목동 634-8번지 성일빌딩 1층 ,동물약국업
316,방약국,37.5758888,127.0859883,서울특별시 중랑구 면목동 367-6번지 ,동물약국업
317,봉화신세계약국,37.6118464,127.0949754,서울특별시 중랑구 신내동 646번지 금강리빙스텔 1301호,동물약국업
318,하나로약국,37.59315670000001,127.0741342,서울특별시 중랑구 상봉동 136-1번지 ,동물약국업
319,에이스약국,37.5945608,127.0721262,서울특별시 중랑구 중화동 324-148번지 양우빌딩 ,동물약국업
320,수정온누리약국,37.6136975,127.0765419,서울특별시 중랑구 묵동 238-1번지 묵동제일정형외과 ,동물약국업
321,초록약국,37.5626758,127.0660999,서울특별시 동대문구 장안동 432-4 형인타워 103호,동물약국업
322,제일한사랑약국,37.6006341,127.1086115,서울특별시 중랑구 망우동 128-32번지 미래학원 ,동물약국업
323,수약국,37.6066393,127.0955549,서울특별시 중랑구 신내동 667번지 금강프라자 ,동물약국업
324,대일약국,37.5986192,127.0876071,서울특별시 중랑구 상봉동 190-68번지 ,동물약국업
325,이화바이오약국,37.5560805,126.9234453,서울특별시 마포구 동교동 165-8 LG팰리스빌딩,동물약국업
326,편안한약국,37.5914817,127.0168621,서울특별시 성북구 동선동1가 4-13번지 ,동물약국업
327,공원내 아이사랑약국,37.6064198,127.0300189,서울특별시 성북구 하월곡동 88-957번지 성북힐스테이트 ,동물약국업
328,프라임온누리약국,37.6228267,127.048397,서울특별시 성북구 장위동 316-3번지 센트럴타운 ,동물약국업
329,부민약국,37.6037955,127.0424366,서울특별시 성북구 하월곡동 18-8번지 ,동물약국업
330,더사랑약국,37.5942459,127.0166253,서울특별시 성북구 동선동4가 53번지 ,동물약국업
331,조아약국,37.6026385,127.0417572,서울특별시 성북구 하월곡동 37-6번지 ,동물약국업
332,이화약국,37.6046976,127.0230474,서울특별시 성북구 길음동 1283-4번지 길음뉴타운래미안길음3차아파트 상가 ,동물약국업
333,수보온누리약국,37.6087671,127.0080315,서울특별시 성북구 정릉동 393-8번지 ,동물약국업
334,미소담약국,37.6087512,127.0096762,서울특별시 성북구 정릉동 400-2번지 ,동물약국업
335,소망약국,37.6021387,127.0189722,서울특별시 성북구 정릉동 16-174번지 ,동물약국업
336,한미약국,37.5989002,127.0342472,서울특별시 성북구 종암동 88-3번지 ,동물약국업
337,스타온누리약국,37.5889475,127.0078733,서울특별시 성북구 동소문동2가 20번지 로석빌딩 ,동물약국업
338,이화프라자약국,37.6088141,127.0100922,서울특별시 성북구 정릉동 401-46번지 청수프라자 B-105 ,동물약국업
339,정릉열린약국,37.6083759,127.0101614,서울특별시 성북구 정릉동 403-9번지 ,동물약국업
340,지민약국,37.5899371,127.0149983,서울특별시 성북구 삼선동4가 333-2번지 ,동물약국업
341,보림약국,37.5893454,127.0077186,서울특별시 성북구 동소문동1가 32-2번지 ,동물약국업
342,세원약국,37.5937325,127.0188153,서울특별시 성북구 동선동1가 119-9번지 ,동물약국업
343,정릉약국,37.6084987,127.0097622,서울특별시 성북구 정릉동 400-25번지 ,동물약국업
344,성북녹십자약국,37.5897133,127.0096862,서울특별시 성북구 동소문동3가 11번지 ,동물약국업
345,참약사약국,37.6011247,127.0338991,서울특별시 성북구 종암동 3-686번지 1층 ,동물약국업
346,종암동물약국,37.5986032,127.0340755,서울특별시 성북구 종암동 70-1번지 용진빌딩 1층 ,동물약국업
347,봄동물약국,37.59013789999999,127.0147703,서울특별시 성북구 삼선동4가 336번지 논현빌딩 2층 ,동물약국업
348,미소드림약국,37.5886993,127.0073271,서울특별시 성북구 동소문동2가 11번지 카프리빌딩 1층 ,동물약국업
349,목동메디약국,37.5321365,126.8631724,서울특별시 강서구 화곡동 781-13,동물약국업
350,서울성북 동물약국,37.5983468,127.0214341,서울특별시 성북구 돈암동 48-4번지 ,동물약국업
351,정릉 서현 동물약국,37.6026847,127.0173501,서울특별시 성북구 정릉동 14-24,동물약국업
352,그약국,37.6084565,127.0100969,서울특별시 성북구 정릉동 403-8번지 ,동물약국업
353,청솔약국,37.6224066,127.0510463,서울특별시 성북구 장위동 307-47번지 ,동물약국업
354,해피동물약국(청십자약국),37.5839502,127.0198223,서울특별시 성북구 보문동5가 3-1번지 ,동물약국업
355,명소약국,37.6070225,127.0610963,서울특별시 성북구 석관동 332-604번지 ,동물약국업
356,행복한약국,37.5910742,127.0185682,서울특별시 성북구 동선동1가 79번지 ,동물약국업
357,온누리진호약국,37.6075616,127.0605583,서울특별시 성북구 석관동 306-7번지 ,동물약국업
358,멜론약국,37.609229,127.0094988,서울특별시 성북구 정릉동 397-13번지 ,동물약국업
359,백세약국,37.6023989,127.0131228,서울특별시 성북구 정릉동 107-1번지 ,동물약국업
360,보문약국,37.5859548,127.0187159,서울특별시 성북구 보문동2가 104번지 ,동물약국업
361,길음시장약국,37.6035622,127.0198289,서울특별시 성북구 길음동 1286번지 길음뉴타운 ,동물약국업
362,송약국,37.5046936,126.9457328,서울특별시 동작구 상도동 32-10 더라함,동물약국업
363,백화점약국,37.6091318,127.0584897,서울특별시 성북구 석관동 252-5번지 ,동물약국업
364,삼층약국,37.602671,127.0236243,서울특별시 성북구 길음동 1276번지 삼부아파트 ,동물약국업
365,365약국,37.6085892,127.0294443,서울특별시 성북구 길음동 21-79번지 ,동물약국업
366,장위동물약국,37.617679,127.0511766,서울특별시 성북구 장위동 203-4번지 ,동물약국업
367,새민우약국,37.5995925,127.0183793,서울특별시 성북구 정릉동 1017번지 정릉쌍용아파트 203동 301호 ,동물약국업
368,-,37.667609,127.0419653,,동물약국업
369,정해약국,37.64905,127.0141274,서울특별시 강북구 수유동 279-37번지 ,동물약국업
370,숭인약국,37.6346285,127.0239971,서울특별시 강북구 미아동 61-85번지 1층 ,동물약국업
371,라라온누리약국,37.6349103,127.0229092,서울특별시 강북구 수유동 47-2번지 1층 ,동물약국업
372,새암온누리약국,37.6356724,127.0238758,서울특별시 강북구 번동 449-1번지 1층 101호,동물약국업
373,서울수유동물약국,37.633718,127.0227718,서울특별시 강북구 수유동 95-7번지 ,동물약국업
374,뉴타운동물약국,37.618672,127.019107,서울특별시 강북구 미아동 811-9번지 위브테라스파크상가 201호,동물약국업
375,옵티마네오프라자약국,37.6388324,127.0268794,서울특별시 강북구 번동 418-3번지 효성인텔리안네오프라자 1층 102호,동물약국업
376,수유대학약국,37.6419871,127.0164201,서울특별시 강북구 수유동 343-10번지 ,동물약국업
377,시원약국,37.637423,127.0261484,서울특별시 강북구 번동 446-1번지 ,동물약국업
378,건강비타민약국,37.62495790000001,127.0187199,서울특별시 강북구 미아동 775-3번지 ,동물약국업
379,종로태평양약국,37.6135023,127.0342405,서울특별시 강북구 미아동 53-1번지 ,동물약국업
380,한사랑온누리약국,37.6322927,127.013805,서울특별시 강북구 수유동 468-78번지 ,동물약국업
381,요나약국,37.6193356,127.0206844,서울특별시 강북구 미아동 688-5번지 ,동물약국업
382,메디팜미소약국,37.6120024,127.0307131,서울특별시 강북구 미아동 35-4번지 트레지오표핑몰 1층 ,동물약국업
383,새빛약국,37.554732,127.154625,서울특별시 강동구 명일동 46-2 고덕역 효성해링턴 타워 더퍼스트 121호,동물약국업
384,청구약국,37.6261161,127.0180103,서울특별시 강북구 미아동 791-940번지 ,동물약국업
385,다나을약국,37.6378325,127.0249907,서울특별시 강북구 수유동 229-5번지 정우빌딩 6층 ,동물약국업
386,세화약국,37.6337218,127.0228244,서울특별시 강북구 수유동 95-7번지 이테크밸리 101호,동물약국업
387,가족사랑약국,37.6246572,127.0320574,서울특별시 강북구 미아동 258-134번지 ,동물약국업
388,대창동물약국,37.6119461,127.0354377,서울특별시 강북구 미아동 1318번지 ,동물약국업
389,번동종로약국,37.6279004,127.0399432,서울특별시 강북구 번동 305-6번지 ,동물약국업
390,에버그린약국,37.6378951,127.0303005,서울특별시 강북구 번동 460-17번지 ,동물약국업
391,지영약국,37.6412127,127.016581,서울특별시 강북구 수유동 360-20번지 ,동물약국업
392,미아팜약국,37.6346285,127.0239971,서울특별시 강북구 미아동 62-30번지 1층 ,동물약국업
393,수유프라자약국,37.6340352,127.0182154,서울특별시 강북구 수유동 472-8번지 1층 ,동물약국업
394,미양온누리약국,37.62010430000001,127.0182139,서울특별시 강북구 미아동 838-19번지 ,동물약국업
395,재원약국,37.6151723,127.0356169,서울특별시 강북구 미아동 1356번지 상가동 120호,동물약국업
396,화원약국,37.6450138,127.0154612,서울특별시 강북구 수유동 319-5번지 1층 ,동물약국업
397,엔젤팜약국,37.6156962,127.0193252,서울특별시 강북구 미아동 1267-56번지 대선빌딩 1층 ,동물약국업
398,푸른온누리약국,37.524716,127.049166,서울특별시 강남구 청담동 124-4 102호,동물약국업
399,강북동물약국,37.6343554,127.0335325,서울특별시 강북구 번동 229-8번지 대명빌딩 1층 ,동물약국업
400,삼화온누리약국,37.6346285,127.0239971,서울특별시 강북구 미아동 121-19번지 1층 ,동물약국업
401,수유대한약국,37.6351934,127.0223831,서울특별시 강북구 수유동 45-21번지 ,동물약국업
402,은행나무약국,37.6183622,127.0210925,서울특별시 강북구 미아동 670-28번지 ,동물약국업
403,안국약국,37.6413468,127.0252553,서울특별시 강북구 수유동 178-25번지 ,동물약국업
404,메디팜한마음약국,37.628666,127.0396808,서울특별시 강북구 번동 308-1번지 ,동물약국업
405,솔샘우리약국,37.6346285,127.0239971,서울특별시 강북구 미아동 839-224번지 1층 ,동물약국업
406,수종로약국,37.6346285,127.0239971,서울특별시 강북구 미아동 62-9번지 1층 ,동물약국업
407,매일약국,37.6418002,127.0290963,서울특별시 강북구 수유동 168-5번지 1층 ,동물약국업
408,조아약국,37.61479740000001,127.0293444,서울특별시 강북구 미아동 61-51번지 ,동물약국업
409,혜민약국,37.5432267,127.1449175,서울특별시 강동구 길동 331-2번지 ,동물약국업
410,고려약국,37.6335818,127.0173297,서울특별시 강북구 수유동 472-30번지 ,동물약국업
411,늘푸른약국,37.6125471,127.033347,서울특별시 강북구 미아동 52-56번지 ,동물약국업
412,수유온누리약국,37.6367563,127.0248519,서울특별시 강북구 번동 446-12번지 ,동물약국업
413,엄마약국,37.6156615,127.0305429,서울특별시 강북구 미아동 70-13번지 ,동물약국업
414,대한수유약국,37.6351934,127.0223831,서울특별시 강북구 수유동 45-21번지 ,동물약국업
415,7번약국,37.6382148,127.0254741,서울특별시 강북구 수유동 191-17번지 ,동물약국업
416,이화약국,37.6343554,127.0335325,서울특별시 강북구 번동 229-8번지 대명빌딩 ,동물약국업
417,솔밭약국,37.6546551,127.0126979,서울특별시 강북구 우이동 100-5번지 화성빌딩 ,동물약국업
418,필약국,37.6376936,127.0226576,서울특별시 강북구 번동 310-18번지 한성빌딩 ,동물약국업
419,튼튼약국,37.6621194,127.0333937,서울특별시 도봉구 방학동 670-2번지 ,동물약국업
420,뉴메디슨약국,37.643632,127.0307472,서울특별시 도봉구 쌍문동 256번지 에벤에셀 101동 207호,동물약국업
421,대영약국,37.6554878,127.0369135,서울특별시 도봉구 쌍문동 668-5번지 ,동물약국업
422,후문한일약국,37.6457729,127.030316,서울특별시 도봉구 쌍문동 388-33번지 ,동물약국업
423,이화태평양약국,37.6391474,127.0382089,서울특별시 도봉구 창동 581-76번지 ,동물약국업
424,-,37.66862870000001,127.0470496,서울특별시 도봉구 방학동 720번지 ,동물약국업
425,팜코리아약국,37.6698686,127.0432761,서울특별시 도봉구 도봉동 620-19번지 ,동물약국업
426,창동남대문약국,37.6380868,127.0373172,서울특별시 도봉구 창동 578-5번지 ,동물약국업
427,진성온누리약국,37.6652699,127.0425179,서울특별시 도봉구 방학동 703-61번지 ,동물약국업
428,청솔동아약국,37.6574138,127.0485434,서울특별시 도봉구 창동 808번지 동아청솔아파트 상가동 107호,동물약국업
429,광장온누리약국,37.6526367,127.0512933,서울특별시 도봉구 창동 16번지 제일빌딩 101호~ 104호,동물약국업
430,웰빙약국,37.6582748,127.0410177,서울특별시 도봉구 창동 731-1번지 ,동물약국업
431,레몬약국,37.6600376,127.0278648,서울특별시 도봉구 방학동 484-15번지 ,동물약국업
432,방학태평양약국,37.6648122,127.0363238,서울특별시 도봉구 방학동 696번지 ,동물약국업
433,대한약국,37.655378,127.0133819,서울특별시 도봉구 쌍문동 503-1번지 ,동물약국업
434,참좋은약국,37.64959109999999,127.0357658,서울특별시 도봉구 창동 661-38번지 ,동물약국업
435,착한약국,37.6402463,127.0393776,서울특별시 도봉구 창동 601-32번지 ,동물약국업
436,메디팜건강약국,37.6491007,127.0346356,서울특별시 도봉구 쌍문동 88-105번지 ,동물약국업
437,하나로약국,37.6548847,127.0514389,서울특별시 도봉구 창동 1-15번지 ,동물약국업
438,희망약국,37.6555565,127.0414833,서울특별시 도봉구 창동 296-1번지 104호,동물약국업
439,가야온누리약국,37.6519148,127.0457356,서울특별시 도봉구 창동 331-1번지 ,동물약국업
440,태양약국,37.6486098,127.0343291,서울특별시 도봉구 쌍문동 88-144번지 ,동물약국업
441,금빛약국,37.6389175,127.0386367,서울특별시 도봉구 창동 569-85번지 ,동물약국업
442,나진약국,37.6613533,127.0273354,서울특별시 도봉구 방학동 271-2번지 ,동물약국업
443,건강제일녹십자약국,37.6573579,127.0281843,서울특별시 도봉구 쌍문동 723번지 신원2차 103104호 ,동물약국업
444,메디팜큰사랑약국,37.648748,127.0351005,서울특별시 도봉구 창동 659-3번지 대명빌딩 1층 ,동물약국업
445,종로세명약국,37.6625218,127.032467,서울특별시 도봉구 방학동 668-5번지 ,동물약국업
446,아주약국,37.5408236,127.1461614,서울특별시 강동구 길동 343-5번지 ,동물약국업
447,정다운약국,37.5068349,126.947475,서울특별시 동작구 노량진동 325 상도신동아리버파크아파트,동물약국업
448,태양당약국,37.6686519,127.0320859,서울특별시 도봉구 방학동 605-29번지 ,동물약국업
449,뉴지명약국,37.63871100000001,127.0384977,서울특별시 도봉구 창동 557-9번지 ,동물약국업
450,라파온누리약국,37.634,127.0416651,서울특별시 도봉구 창동 484-33번지 ,동물약국업
451,백세약국,37.6660674,127.0367746,서울특별시 도봉구 방학동 660번지 ,동물약국업
452,신프라자,37.6401154,127.0391323,서울특별시 도봉구 창동 581-71번지 ,동물약국업
453,종로프라자약국,37.6520293,127.0467461,서울특별시 도봉구 창동 75-1번지 ,동물약국업
454,종로프라자약국,37.6520293,127.0467461,서울특별시 도봉구 창동 75-1번지 ,동물약국업
455,은약국,37.6479302,127.0339708,서울특별시 도봉구 쌍문동 88-116번지 ,동물약국업
456,은약국,37.6479302,127.0339708,서울특별시 도봉구 쌍문동 88-116번지 ,동물약국업
457,힘찬약국,37.6547598,127.0132586,서울특별시 도봉구 쌍문동 503-12번지 노스브릭 ,동물약국업
458,미소약국,37.6648017,127.0437103,서울특별시 도봉구 방학동 707-7번지 홈플러스데스코㈜방학점 ,동물약국업
459,미소약국,37.6648017,127.0437103,서울특별시 도봉구 방학동 707-7번지 홈플러스데스코㈜방학점 ,동물약국업
460,행복을주는약국,37.6225799,127.074346,서울특별시 노원구 공릉동 567-4   번지 ,동물약국업
461,우리들약국,37.6308761,127.0610421,서울특별시 노원구 월계동 321-2   번지 희성프라자 110호 ,동물약국업
462,한빛약국,37.6325561,127.0608762,서울특별시 노원구 월계동 320-9번지 사슴아파트2단지상가 111호,동물약국업
463,우리약국,37.6510283,127.0772272,서울특별시 노원구 중계동 366-6   번지 그랜드상가 105호 ,동물약국업
464,다보약국,37.6164172,127.0624043,서울특별시 노원구 월계동 485-15  번지 ,동물약국업
465,당고개약국,37.6708273,127.0799769,서울특별시 노원구 상계동 111-475 번지 ,동물약국업
466,하님약국,37.6611031,127.0708473,서울특별시 노원구 상계동 169-461번지 ,동물약국업
467,아름다운온누리약국,37.6508762,127.0618329,서울특별시 노원구 상계동 749-10번지 ,동물약국업
468,새소망약국,37.6541877,127.0669727,서울특별시 노원구 상계동 720-7번지 ,동물약국업
469,다정약국,37.645585,127.064569,서울특별시 노원구 중계동 369번지 주공2단지 상가 105호 ,동물약국업
470,친절한오렌지약국,37.5480276,127.155187,,동물약국업
471,중계상록수약국,37.6508113,127.0759834,서울특별시 노원구 중계동 359-14번지 원광빌딩 102호,동물약국업
472,연수온누리약국,37.6284481,127.0706445,서울특별시 노원구 공릉동 323-2번지 공삼빌딩 102호,동물약국업
473,푸른약국,37.6508596,127.0770963,서울특별시 노원구 중계동 366-6번지 중계그랜드프라자 312호,동물약국업
474,석계태평양약국,37.6146462,127.0634799,서울특별시 노원구 월계동 493-1번지 1층호,동물약국업
475,밝은약국,37.6198888,127.0744983,서울특별시 노원구 공릉동 597-17번지 ,동물약국업
476,건강한약국,37.616906,127.0629135,서울특별시 노원구 월계동 435-9번지 ,동물약국업
477,올리브약국,37.6393876,127.0642707,서울특별시 노원구 중계동 506번지 ,동물약국업
478,공릉다정약국,37.6215937,127.0746278,서울특별시 노원구 공릉동 577-7번지 ,동물약국업
479,동양온누리약국,37.6574697,127.0640141,서울특별시 노원구 상계동 1305번지 동양메이저상가 1층 112호 ,동물약국업
480,샘물약국,37.6253856,127.0857632,서울특별시 노원구 공릉동 230-15번지 ,동물약국업
481,바른손약국,37.6353336,127.0693753,서울특별시 노원구 하계동 280번지 미성아파트상가 107호,동물약국업
482,인덕약국,37.6308761,127.0610421,서울특별시 노원구 월계동 321-2번지 희성프라자 ,동물약국업
483,일출약국,37.5478828,126.922737,서울특별시 마포구 상수동 310-1,동물약국업
484,365행복약국,37.636639,127.0684032,서울특별시 노원구 하계동 284번지 세이브존 ,동물약국업
485,중계상록수약국,37.6508113,127.0759834,서울특별시 노원구 중계동 359-14번지 원광빌딩 1층 102호 ,동물약국업
486,참약국,37.6352779,127.0643203,서울특별시 노원구 하계동 271-3번지 극동건영벽산아파트 상가동 206-1호,동물약국업
487,해든약국,37.5102825,127.1169986,서울특별시 송파구 방이동 122-7 은석빌딩,동물약국업
488,다온약국,37.6550811,127.0630143,서울특별시 노원구 상계동 717번지 삼성빌딩 ,동물약국업
489,연세참사랑약국,37.623446,127.0600155,서울특별시 노원구 공릉동 617-7번지 대화빌딩 101호,동물약국업
490,노원약국,37.6551822,127.0635263,서울특별시 노원구 상계동 717-1번지 노원빌딩 ,동물약국업
491,청년약국,37.6281957,127.0768748,서울특별시 노원구 공릉동 745번지 동신아파트 ,동물약국업
492,메디팜샛별약국,37.6665158,127.0569129,서울특별시 노원구 상계동 651-4번지 동남빌딩 ,동물약국업
493,은빛약국,37.680133,127.053126,서울특별시 노원구 상계동 1256번지 은빛2단지아파트 ,동물약국업
494,봄날약국,37.618141,127.068792,서울특별시 노원구 월계동 18번지 그랑빌아파트 ,동물약국업
495,태능약국,37.6190302,127.0781527,서울특별시 노원구 공릉동 661-14번지 서울동아의원 ,동물약국업
496,동일약국,37.6484591,127.0619869,서울특별시 노원구 상계동 763-7번지 동일빌딩 305호,동물약국업
497,중앙약국,37.6598281,127.0698228,서울특별시 노원구 상계동 389-641번지 ,동물약국업
498,EWHA우리약국,37.6233244,127.0740331,서울특별시 노원구 공릉동 517-31번지 ,동물약국업
499,미션약국,37.6653262,127.0572306,서울특별시 노원구 상계동 651-6번지 ,동물약국업
500,노원월계동물약국,37.631655,127.0516345,서울특별시 노원구 월계동 781번지 ,동물약국업
501,용화당약국,37.6428883,127.0737358,서울특별시 노원구 하계동 중계주공9단지상가 106호 ,동물약국업
502,부용온누리약국,37.6521367,127.0723076,,동물약국업
503,소화약국,37.6702425,127.080772,서울특별시 노원구 상계동 65-5번지 ,동물약국업
504,길 약국,37.6602512,127.071368,서울특별시 노원구 상계동 상계6구역 39블럭 5롯트 ,동물약국업
505,노원 종로약국,37.6281956,127.0719864,서울특별시 노원구 공릉동 362-26  번지 (1층) ,동물약국업
506,건강약국,37.6189554,127.0786421,서울특별시 노원구 공릉동 653-3번지 ,동물약국업
507,새고운약국,37.6196709,127.074629,서울특별시 노원구 공릉동 615-21번지 ,동물약국업
508,수락 100세약국,37.6548036,127.0570076,서울특별시 노원구 상계동 1132-1   번지 수락웨딩홀1층 ,동물약국업
509,온누리원영옥약국,37.6237273,127.0793388,서울특별시 노원구 공릉동 345-7   번지 ,동물약국업
510,백경약국,37.6534006,127.0598701,서울특별시 노원구 상계동 733-2   번지 대일빌딩 1층 ,동물약국업
511,열린온누리약국,37.6252771,127.079689,서울특별시 노원구 공릉동 413-3번지 1층 ,동물약국업
512,이화약국,37.65974730000001,127.0731798,서울특별시 노원구 중계동 591번지 대호프라자 319호 ,동물약국업
513,소망약국,37.6503706,127.0763141,서울특별시 노원구 중계동 360-7번지 ,동물약국업
514,새하늘약국,37.64669749999999,127.0657247,서울특별시 노원구 중계동 515-2번지 ,동물약국업
515,한티하나약국,37.4958363,127.0506044,서울특별시 강남구 역삼동 766-15,동물약국업
516,중앙약국,37.6174205,127.0743329,서울특별시 노원구 공릉동 683-16  번지 ,동물약국업
517,세계로약국,37.657886,127.067903,서울특별시 노원구 상계동 386-1   번지 ,동물약국업
518,온누리 성심약국,37.6185577,127.0628764,서울특별시 노원구 월계동 929번지 현대(아)상가 122호 ,동물약국업
519,백세약국,37.6195762,127.0753064,서울특별시 노원구 공릉동 617-2번지 ,동물약국업
520,지니약국,37.5148076,127.1042593,서울특별시 송파구 신천동 7-4 잠실역8호선,동물약국업
521,화랑온누리약국,37.6233344,127.0795612,서울특별시 노원구 공릉동 340-18번지 ,동물약국업
522,서교약국,37.555615,126.9108031,서울특별시 마포구 서교동 475-36,동물약국업
523,the사랑약국,37.6566375,127.0774989,서울특별시 노원구 중계동 358번지 중계의원 ,동물약국업
524,상계우리들약국,37.66167069999999,127.0706215,서울특별시 노원구 상계동 169-330번지 ,동물약국업
525,무지개삼성약국,37.4898794,127.0814616,서울특별시 강남구 일원동 684-5 대훈빌딩,동물약국업
526,동산약국,37.6431659,127.0662365,서울특별시 노원구 중계동 512번지 무지개아파트단지내상가 1091호,동물약국업
527,소담약국,37.65701790000001,127.0617489,서울특별시 노원구 상계동 603-2번지 ,동물약국업
528,정다운온누리약국,37.6199691,126.9161868,서울특별시 은평구 갈현동 451-1번지 ,동물약국업
529,믿음메디칼약국,37.5909663,126.9171103,서울특별시 은평구 응암동 577-40번지 ,동물약국업
530,행복약국,37.5982976,126.9138288,서울특별시 은평구 신사동 22-3번지 ,동물약국업
531,은평자연약국,37.6130966,126.9143849,서울특별시 은평구 갈현동 469-1번지 A동 106호,동물약국업
532,연세희망약국,37.6145004,126.9175201,서울특별시 은평구 갈현동 462-54번지 1층 ,동물약국업
533,디엠씨4번출구약국,37.57813,126.90202,서울특별시 은평구 증산동 223-25번지 6호선 디지털미디어시티역 003호,동물약국업
534,민들레약국,37.5880184,126.9163525,서울특별시 은평구 응암동 598-26번지 ,동물약국업
535,태평양 리드팜 약국,37.5929774,126.9175941,서울특별시 은평구 응암동 578-16번지 ,동물약국업
536,세계로약국,37.611782,126.9314614,서울특별시 은평구 불광동 281-12번지 ,동물약국업
537,은평온누리약국,37.6011777,126.9268794,서울특별시 은평구 응암동 96-1번지 ,동물약국업
538,신세계약국,37.6083714,126.9266718,서울특별시 은평구 녹번동 131-49번지 ,동물약국업
539,정다운온누리약국,37.6199691,126.9161868,서울특별시 은평구 갈현동 451-1번지 ,동물약국업
540,우리사랑약국,37.5997797,126.9200854,서울특별시 은평구 응암동 110-9번지 메트로럭스주상복합APT 103호,동물약국업
541,연신종로약국,37.6203449,126.924958,서울특별시 은평구 불광동 353-66번지 ,동물약국업
542,초록약국,37.5842726,126.9045107,서울특별시 은평구 증산동 223-47번지 ,동물약국업
543,남대문약국,37.6231885,126.9174678,서울특별시 은평구 갈현동 425-2번지 ,동물약국업
544,새봄약국,37.5967123,126.9091965,서울특별시 은평구 신사동 19-153번지 ,동물약국업
545,호호약국,37.6107977,126.9174752,서울특별시 은평구 역촌동 1-1번지 ,동물약국업
546,은평응암동물원약국,37.6004562,126.9210757,서울특별시 은평구 응암동 89-19번지 ,동물약국업
547,왕약국,37.6007721,126.9229069,서울특별시 은평구 응암동 87-10번지 ,동물약국업
548,한겨례약국,37.6182912,126.9197079,서울특별시 은평구 갈현동 456-36번지 ,동물약국업
549,연신내메디칼약국,37.6190212,126.9225779,서울특별시 은평구 불광동 308-10번지 타워크리닉 104호 ,동물약국업
550,백련산 허준약국,37.5893216,126.9172632,서울특별시 은평구 응암동 601-72번지 ,동물약국업
551,녹번온누리약국,37.6024544,126.9354249,서울특별시 은평구 녹번동 38-29번지 유림빌딩 101호,동물약국업
552,온누리우리약국,37.6245093,126.9162761,서울특별시 은평구 갈현동 422-24번지 ,동물약국업
553,민들레약국,37.5880184,126.9163525,서울특별시 은평구 응암동 598-26번지 ,동물약국업
554,응암동물약국,37.5868083,126.920376,서울특별시 은평구 응암동 747-30번지 ,동물약국업
555,신사프라자약국,37.5992466,126.9103243,서울특별시 은평구 신사동 8-22번지 1층 ,동물약국업
556,큰솔약국,37.6000838,126.9164154,서울특별시 은평구 역촌동 44-29번지 청암빌딩 ,동물약국업
557,녹번건강약국,37.6030903,126.9373989,서울특별시 은평구 녹번동 21-219번지 B101-호,동물약국업
558,아름다운달과별약국,37.6190571,126.9201953,서울특별시 은평구 갈현동 396-12번지 연신내진원와이타운 103호 ,동물약국업
559,삼기약국,37.6462981,127.0817618,서울특별시 노원구 중계동 58-64 득림빌딩 1층,동물약국업
560,은평이화약국,37.593271,126.9204378,서울특별시 은평구 응암동 402-6번지 ,동물약국업
561,다온약국,37.598472,126.915592,서울특별시 은평구 응암동 88-8번지 응암아네스트 1층 101호 ,동물약국업
562,서부새생명약국,37.6060449,126.9182723,서울특별시 은평구 역촌동 19-53번지 ,동물약국업
563,밝은미소약국,37.5992291,126.91,서울특별시 은평구 신사동 16-22번지 1층 103호,동물약국업
564,유진약국,37.612751,126.9152122,서울특별시 은평구 갈현동 469-4번지 유풍빌딩 ,동물약국업
565,경하프라자약국,37.6119564,126.91561,서울특별시 은평구 구산동 196-3번지 ,동물약국업
566,오온누리약국,37.6055353,126.9221587,서울특별시 은평구 역촌동 17-18번지 ,동물약국업
567,사랑온누리약국,37.6101535,126.9558929,서울특별시 은평구 녹번동 278-1번지 201동 103호,동물약국업
568,365미소약국,37.6375566,126.9122242,서울특별시 은평구 진관동 64번지 은평뉴타운 힐데스하임 111호,동물약국업
569,천사약국,37.619634,126.921408,서울특별시 은평구 불광동 311-13번지 메트로타워 ,동물약국업
570,이층약국,37.6001129,126.9155858,서울특별시 은평구 역촌동 85-12번지 센타폴리스 상가동 205호,동물약국업
571,불광온누리약국,37.6108916,126.9299497,서울특별시 은평구 불광동 281-108번지 ,동물약국업
572,조은백화점약국,37.5899586,126.9168724,서울특별시 은평구 응암동 590-4번지 ,동물약국업
573,이정약국,37.6213708,126.9135158,서울특별시 은평구 갈현동 255번지 ,동물약국업
574,뉴타운메디컬약국,37.64223339999999,126.9231143,서울특별시 은평구 진관동 20번지 상림마을 상가821동 115호 ,동물약국업
575,세종약국,37.6106089,126.9286818,서울특별시 은평구 대조동 12-29번지 ,동물약국업
576,새서울약국,37.6109828,126.9181125,서울특별시 은평구 대조동 226-3번지 ,동물약국업
577,희래약국,37.6146841,126.910949,서울특별시 은평구 갈현동 529-35번지 ,동물약국업
578,우리들약국,37.6022175,126.9155396,서울특별시 은평구 역촌동 83-1번지 ,동물약국업
579,은평동물약국,37.6019636,126.9295781,서울특별시 은평구 녹번동 79-32번지 ,동물약국업
580,365구생약국,37.61121199999999,126.9287196,서울특별시 은평구 대조동 6-9번지 ,동물약국업
581,구세약국,37.5881694,126.9165032,서울특별시 은평구 응암동 598-1번지 ,동물약국업
582,예진약국,37.6052511,126.9103362,서울특별시 은평구 역촌동 54-8번지 그린빌딩 1층 ,동물약국업
583,온누리연세약국,37.6150089,126.9176532,서울특별시 은평구 갈현동 462-49번지 ,동물약국업
584,연신우리약국,37.6180763,126.9216265,서울특별시 은평구 대조동 185-6번지 ,동물약국업
585,열린프라자약국,37.6123061,126.9286427,서울특별시 은평구 불광동 267-1번지 경일빌딩 ,동물약국업
586,진약국,37.566979,126.9647208,서울특별시 서대문구 연희동 187-57번지 서대문교회 ,동물약국업
587,홍인약국,37.5854915,126.9510174,서울특별시 서대문구 홍제동 460번지 ,동물약국업
588,용한약국,37.576252,126.912952,서울특별시 서대문구 북가좌동 449번지 삼호아파트 상가 111호,동물약국업
589,연희위드팜약국,37.5632642,126.9436651,서울특별시 서대문구 대신동 50-6번지 ,동물약국업
590,이화약국,37.5866658,126.9461821,서울특별시 서대문구 홍제동 158-50,동물약국업
591,모래내백화점약국,37.5697786,126.9144593,서울특별시 서대문구 남가좌동 295-9번지 ,동물약국업
592,아현파란문약국,37.5584231,126.9546193,서울특별시 서대문구 북아현동 1015번지 e편한세상신촌 4단지 ,동물약국업
593,바른약국,37.61861080000001,126.922168,서울특별시 은평구 불광동 308-1 범서빌딩 2층,동물약국업
594,미소약국,37.5856488,126.9478257,서울특별시 서대문구 홍제동 139-5번지 ,동물약국업
595,세란약국,37.5591405,126.9366765,서울특별시 서대문구 창천동 52-1번지 ,동물약국업
596,일신당약국,37.5585055,126.9280304,서울특별시 서대문구 창천동 508-2번지 ,동물약국업
597,에버그린약국,37.5573651,126.9425611,서울특별시 서대문구 대현동 104-5번지 신촌푸르지오시티 ,동물약국업
598,푸른온누리약국,37.5926641,126.9477145,서울특별시 서대문구 홍제동 273-42 승희빌딩,동물약국업
599,나라약국,37.572301,126.9182776,서울특별시 서대문구 남가좌동 385번지 DMC파크뷰자이 ,동물약국업
600,새우리온누리약국,37.5885673,126.9440073,서울특별시 서대문구 홍제동 330-69번지 ,동물약국업
601,푸름약국,37.568416,126.9324095,서울특별시 서대문구 연희동 135-1번지 ,동물약국업
602,명음약국,37.5584231,126.9546193,서울특별시 서대문구 북아현동 1015번지 e편한세상신촌 4단지 ,동물약국업
603,대학약국,37.559022,126.9366306,서울특별시 서대문구 창천동 52-3번지 ,동물약국업
604,북가좌수약국,37.5784246,126.9105196,서울특별시 서대문구 북가좌동 306-18번지 경원빌딩 ,동물약국업
605,보건약국,37.5877171,126.9450497,서울특별시 서대문구 홍제동 172-30번지 ,동물약국업
606,기린약국,37.59023140000001,126.9428809,서울특별시 서대문구 홍제동 299-12번지 ,동물약국업
607,필온누리약국,37.5557016,126.9364107,서울특별시 서대문구 창천동 30-9번지 ,동물약국업
608,세이지약국,37.5642551,126.9503079,,동물약국업
609,알파약국,37.58879719999999,126.9444275,,동물약국업
610,햇살약국,37.5743004,126.9121504,서울특별시 서대문구 북가좌동 144번지 DMC 래미안e편한세상 101동 104호,동물약국업
611,가좌진약국,37.5687713,126.9163224,서울특별시 서대문구 남가좌동 102-24번지 ,동물약국업
612,수인약국,37.5714248,127.0702659,서울특별시 동대문구 장안동 371-1 장안삼성쉐르빌 305호,동물약국업
613,새롬약국,37.5747709,126.9267377,서울특별시 서대문구 연희동 608번지 ,동물약국업
614,북가좌동물약국,37.5749524,126.9156442,,동물약국업
615,명문약국,37.5785766,126.9366673,서울특별시 서대문구 연희동 165-14번지 ,동물약국업
616,홍제태양약국,37.5889293,126.9442774,서울특별시 서대문구 홍제동 253-4번지 ,동물약국업
617,대학온누리약국,37.5993605,126.9486213,서울특별시 서대문구 홍은동 9-86번지 ,동물약국업
618,혜성약국,37.58238920000001,126.919448,서울특별시 서대문구 북가좌동 3-36번지 ,동물약국업
619,광실약국(마포 동물약국),37.540034,126.9503703,,동물약국업
620,옵티마상원약국,37.5555962,126.9101345,서울특별시 마포구 망원동 378-2번지 ,동물약국업
621,약초원약국,37.5551042,126.9101338,서울특별시 마포구 망원동 378-9번지 ,동물약국업
622,합정동산약국,37.5499443,126.9137027,서울특별시 마포구 서교동 490번지 메세나폴리스 ,동물약국업
623,참약국,37.5545666,126.9296725,서울특별시 마포구 서교동 327-15번지 ,동물약국업
624,태령약국,37.5063336,126.9107957,서울특별시 영등포구 신길동 234-6,동물약국업
625,마포보건약국,37.5653747,126.9020996,서울특별시 마포구 성산동 591-1번지 이안상암 ,동물약국업
626,원이약국,37.55097689999999,126.9257006,서울특별시 마포구 상수동 72-1번지 홍익대학교 ,동물약국업
627,연트럴파크 동물약국,37.5645062,126.9203641,서울특별시 마포구 연남동 573번지 코오롱하늘채아파트 ,동물약국업
628,사랑이가득한약국,37.5697336,126.9045131,서울특별시 마포구 성산동 152-7번지 ,동물약국업
629,대교약국,37.5397641,126.9473823,서울특별시 마포구 도화동 250-1번지 에벤에셀빌딩 1층 3호 ,동물약국업
630,건강약국,37.5600542,126.9032887,서울특별시 마포구 망원동 475-1번지 ,동물약국업
631,메디팜건우약국,37.5524567,126.9558661,서울특별시 마포구 아현동 613-9번지 ,동물약국업
632,이당약국,37.5520772,126.9216705,서울특별시 마포구 서교동 364-23번지 ,동물약국업
633,청심약국,37.5557391,126.8997031,서울특별시 마포구 합정동 439-6번지 101호,동물약국업
634,비타민약국,37.5478001,126.9414967,서울특별시 마포구 대흥동 272-2번지 ,동물약국업
635,메디팜현대약국,37.5559079,126.9338103,서울특별시 마포구 노고산동 49-30번지 ,동물약국업
636,마음약국,37.4760399,126.9776742,서울특별시 관악구 남현동 1058-6,동물약국업
637,희약국,37.5527098,126.9239498,서울특별시 마포구 서교동 358-28번지 ,동물약국업
638,다나약국,37.5556917,126.9460627,서울특별시 마포구 대흥동 2-39번지 ,동물약국업
639,3층약국,37.5700608,126.9036989,서울특별시 마포구 중동 64-25번지 현대상가305호 ,동물약국업
640,종오약국,37.5509574,126.9620051,서울특별시 마포구 공덕동 1-70번지 ,동물약국업
641,파마트엘지약국,37.5560805,126.9234453,서울특별시 마포구 동교동 165-8번지 LG팰리스빌딩 116호 ,동물약국업
642,참마음온누리약국,37.5494092,126.9202595,서울특별시 마포구 서교동 392-20번지 체리스빌딩101호 ,동물약국업
643,대흥365약국,37.5475514,126.9421984,서울특별시 마포구 대흥동 265-1번지 ,동물약국업
644,아름다운약국,37.55143229999999,126.962003,서울특별시 마포구 아현동 397-5번지 보령빌딩 ,동물약국업
645,팰리스약국,37.5473978,126.9530836,서울특별시 마포구 공덕동 462번지 마포공덕파크팰리스 Ⅱ ,동물약국업
646,2층종로약국,37.619634,126.921408,서울특별시 은평구 불광동 311-13 메트로타워 2층 2101~2103호,동물약국업
647,비타민약국,37.5478001,126.9414967,서울특별시 마포구 대흥동 272-2번지 ,동물약국업
648,태평양약국,37.5527992,126.9239678,서울특별시 마포구 서교동 358-27번지 ,동물약국업
649,태평양약국,37.5527992,126.9239678,서울특별시 마포구 서교동 358-27번지 ,동물약국업
650,한마음약국,37.5541171,126.9569379,서울특별시 마포구 아현동 801번지 공덕자이아파트 상가 ,동물약국업
651,인선약국,37.5465646,126.9538613,서울특별시 마포구 공덕동 249-12 영명빌딩,동물약국업
652,메디컬 성모약국,37.5554034,126.9103354,서울특별시 마포구 망원동 378-3번지 ,동물약국업
653,소담약국,37.5761416,126.8987132,서울특별시 마포구 상암동 1623번지 한샘상암 ,동물약국업
654,최국희약국,37.5479249,126.920559,서울특별시 마포구 상수동 317-12번지 ,동물약국업
655,평화약국,37.5504587,126.9157099,서울특별시 마포구 서교동 394-44번지 서교제일빌딩 ,동물약국업
656,2층하늘약국,37.5700608,126.9036989,서울특별시 마포구 중동 64-25번지 현대상가 ,동물약국업
657,포도약국,37.5399819,126.9470011,서울특별시 마포구 도화동 37번지 진도빌딩 ,동물약국업
658,소나무약국,37.5801248,126.8889591,서울특별시 마포구 상암동 1601번지 케이지아이티센터 ,동물약국업
659,합정파란문약국,37.54991930000001,126.9122262,서울특별시 마포구 합정동 472번지 마포 한강 푸르지오 ,동물약국업
660,신명약국,37.5563294,126.9442987,서울특별시 마포구 대흥동 12-27번지 이대역푸르지오시티 ,동물약국업
661,연남약국,37.5594579,126.9244719,서울특별시 마포구 동교동 153-1번지 ,동물약국업
662,미약국,37.5564278,126.9449511,서울특별시 마포구 대흥동 12-23번지 ,동물약국업
663,월드약국,37.580384,126.886493,서울특별시 마포구 상암동 1740번지 월드컵파크 프라자 2092호,동물약국업
664,메디팜상암약국,37.5801191,126.8831954,서울특별시 마포구 상암동 336-2번지 월드프라자 103호,동물약국업
665,망원동 약국,37.5573708,126.9045391,서울특별시 마포구 망원동 423-5번지 1층 ,동물약국업
666,즐거운 약국,37.5423427,126.9445568,서울특별시 마포구 염리동 174-14번지 마포 네이버타운 106호,동물약국업
667,라이프약국,37.5565649,126.9466842,서울특별시 마포구 염리동 8-31번지 대연빌딩 1층 ,동물약국업
668,애오개약국,37.5519822,126.9565201,서울특별시 마포구 아현동 737번지 마포에스케이허브블루 103호,동물약국업
669,참조은약국,37.5426955,126.9517408,서울특별시 마포구 도화동 25-13번지 효성해링턴 스퀘어 1층 ,동물약국업
670,이층약국,37.5473978,126.9530281,서울특별시 마포구 공덕동 462번지 마포공덕파크팰리스 Ⅱ 210호,동물약국업
671,이화메세나약국,37.5499443,126.9137027,서울특별시 마포구 서교동 490번지 메세나폴리스 B105호,동물약국업
672,하늘약국,37.5484849,126.9136218,서울특별시 마포구 합정동 373-17번지 203호,동물약국업
673,아 현 종 로 약 국,37.5568567,126.9555617,서울특별시 마포구 아현동 329-9번지 1층 ,동물약국업
674,한우리 약국,37.5574725,126.9050107,서울특별시 마포구 망원동 423-23번지 1층 ,동물약국업
675,독수리약국,37.4950603,127.1222519,서울특별시 송파구 가락동 78 아이티벤처타워,동물약국업
676,목동센트럴약국,37.5181171,126.8424589,서울특별시 양천구 신월동 575-1번지 ,동물약국업
677,진약국,37.53478,126.8347801,서울특별시 양천구 신월동 104-12번지 ,동물약국업
678,팜스토리약국,37.53,126.8730556,서울특별시 양천구 목동 919-7번지 홈플러스목동점 지하2층 ,동물약국업
679,더선약국,37.5466178,126.8748256,서울특별시 양천구 목동 514-18번지 어바니엘 ,동물약국업
680,옵티마자연약국,37.5235593,126.8757535,서울특별시 양천구 목동 404-156번지 대경프라자 ,동물약국업
681,우성메디칼약국,37.52262290000001,126.8335585,서울특별시 양천구 신월동 928-1번지 1층 101호,동물약국업
682,목동정문약국,37.5373376,126.8848476,서울특별시 양천구 목동 909-5번지 1층 105호 ,동물약국업
683,유명약국,37.5177016,126.8419947,서울특별시 양천구 신월동 550-3번지 1층 104호 ,동물약국업
684,한솔약국,37.5152752,126.8623016,서울특별시 양천구 신정동 323-16번지 대영프라자 109호 ,동물약국업
685,건강한우리약국,37.5186074,126.8374321,서울특별시 양천구 신월동 992-3번지 효성빌딩 1층 102호 ,동물약국업
686,신월시장약국,37.5317197,126.8366618,서울특별시 양천구 신월동 115-11번지 ,동물약국업
687,보룡동물약국,37.5487588,126.8640211,서울특별시 양천구 목동 613-5번지 ,동물약국업
688,목동세명약국,37.5483491,126.8665826,서울특별시 양천구 목동 610-14번지 ,동물약국업
689,우주약국,37.521472,126.8678893,서울특별시 양천구 신정동 314번지 목동8단지상가 113호 ,동물약국업
690,은혜약국,37.5255435,126.8588557,서울특별시 양천구 신정동 908-15번지 1층 ,동물약국업
691,수정약국,37.5171775,126.8526498,서울특별시 양천구 신정동 1031-1번지 ,동물약국업
692,백십자약국,37.5185063,126.8429144,서울특별시 양천구 신월동 575-30번지 ,동물약국업
693,새서울온누리약국,37.5492426,126.867394,서울특별시 양천구 목동 603-5번지 ,동물약국업
694,온누리조은약국,37.5323697,126.8334013,,동물약국업
695,더블유열린약국,37.518635,126.8739405,,동물약국업
696,메디팜금빛약국,37.5355057,126.8788531,,동물약국업
697,목동세계로약국,37.52270499999999,126.8766195,,동물약국업
698,동인프라자약국,37.5347632,126.8279826,,동물약국업
699,신월우리약국,37.524083,126.8415646,,동물약국업
700,대우실로암약국,37.5416341,126.8310446,서울특별시 양천구 신월동 18-4번지 ,동물약국업
701,양천동물약국,37.5323697,126.8334013,서울특별시 양천구 신월동 110-1번지 은성상가 ,동물약국업
702,김약국,37.5221403,126.8333183,서울특별시 양천구 신월동 931-1번지 ,동물약국업
703,가람약국,37.5490542,126.8678586,서울특별시 양천구 목동 602-1 1층 5호,동물약국업
704,목동즐거운약국,37.5273464,126.864459,서울특별시 양천구 목동 810-1번지 타운빌딩 105호,동물약국업
705,엄마손약국,37.519078,126.836814,서울특별시 양천구 신월동 991-1번지 ,동물약국업
706,다민약국,37.5127167,126.8322679,,동물약국업
707,신월메디칼약국,37.5375777,126.8274995,서울특별시 양천구 신월동 52-10번지 ,동물약국업
708,송약국,37.5250789,126.8736276,서울특별시 양천구 목동 406-21번지 ,동물약국업
709,가까운온누리약국,37.5173721,126.8652319,서울특별시 양천구 신정동 321-6번지 센트럴프라자 ,동물약국업
710,백세약국,37.5314986,126.8316067,서울특별시 양천구 신월동 131-2번지 그라비스 ,동물약국업
711,자이약국,37.5561937,126.9456931,서울특별시 마포구 대흥동 806 신촌그랑자이 상가,동물약국업
712,새누리약국,37.532863,126.86414,서울특별시 양천구 목동 792-4 목동태영프라자 102호,동물약국업
713,창대온누리약국,37.5485227,126.8651393,서울특별시 양천구 목동 611-4,동물약국업
714,테마프라자약국,37.5157441,126.8611159,서울특별시 양천구 신정동 323-7번지 테마프라자 101호,동물약국업
715,팜빌편안약국,37.5396154,126.8690254,서울특별시 양천구 목동 749-6번지 1층 ,동물약국업
716,양천뿌리약국,37.5222137,126.8338093,서울특별시 양천구 신월동 961-5번지 남영상가 1층 ,동물약국업
717,맑은약국,37.5190854,126.847706,서울특별시 양천구 신월동 1063번지 신정뉴타운롯데캐슬 상가동 108호,동물약국업
718,삼주약국,37.5222793,126.8747591,서울특별시 양천구 신정동 118-20번지 ,동물약국업
719,메디칼으뜸약국,37.5133702,126.829922,서울특별시 양천구 신정동 1320-4번지 이펜하우스타워 104호,동물약국업
720,나눔약국,37.537578,126.8722063,서울특별시 양천구 목동 753-7번지 ,동물약국업
721,천지인약국,37.5215126,126.8525663,서울특별시 양천구 신정동 972-4번지 ,동물약국업
722,마트온누리약국,37.5258712,126.8708145,서울특별시 양천구 목동 962번지 목동트라팰리스 웨스턴에비뉴 지하101호,동물약국업
723,강서자이온누리약국,37.5648322,126.8342406,서울특별시 강서구 가양동 1498번지 109-2호,동물약국업
724,고운마음약국,37.558653,126.8532512,서울특별시 강서구 등촌동 ,동물약국업
725,송약국,37.5540319,126.8717993,서울특별시 강서구 염창동 ,동물약국업
726,하늘팜약국,37.5648322,126.8342406,서울특별시 강서구 가양동 ,동물약국업
727,21C 세계로약국,37.5419798,126.8407336,서울특별시 강서구 화곡동 1064-4번지 21C 세계로약국 ,동물약국업
728,강서약국,37.5370133,126.8632205,서울특별시 강서구 등촌동 565-6번지 범쇠빌딩 ,동물약국업
729,마곡새봄약국,37.5619185,126.826919,서울특별시 강서구 마곡동 776-6번지 새싹타워 ,동물약국업
730,서울온누리약국,37.6007049,126.934459,서울특별시 은평구 응암동 1-12 B2층 205206호,동물약국업
731,세란온누리약국,37.5480895,126.8360068,서울특별시 강서구 내발산동 723-9번지 세란빌딩 103호,동물약국업
732,새서울약국,37.5633624,126.8514187,서울특별시 강서구 가양동 1479-10번지 ,동물약국업
733,햇빛약국,37.5353432,126.8631622,서울특별시 강서구 화곡동 772-85번지 ,동물약국업
734,한빛약국,37.5616626,126.8449988,서울특별시 강서구 등촌동 695-1번지 ,동물약국업
735,김포약국,37.5666379,126.8128361,,동물약국업
736,건강한 온누리약국,37.5355928,126.8408322,서울특별시 강서구 화곡동 369-8번지 ,동물약국업
737,다마트약국,37.5764563,126.813873,서울특별시 강서구 방화동 ,동물약국업
738,메디팜조은약국,37.5329798,126.8575624,,동물약국업
739,365그린약국,37.612034,126.9320298,서울특별시 강서구 화곡동 343-52번지 도양라비앙타워 ,동물약국업
740,화곡부성약국,37.5318068,126.8576719,서울특별시 강서구 화곡동 836-5번지 화곡동상가 ,동물약국업
741,늘푸른약국,37.5425021,126.8425923,서울특별시 강서구 화곡동 109-58번지 박상춘안과의원 ,동물약국업
742,기쁨약국,37.5334537,126.863347,서울특별시 강서구 화곡동 775-8번지 ,동물약국업
743,마곡하늘약국,37.5673603,126.8275954,서울특별시 강서구 마곡동 760번지 마곡나루역보타닉푸르지오시티 ,동물약국업
744,하나로약국,37.5512014,126.8719248,서울특별시 강서구 염창동 248-7번지 염창하이츠빌딩 ,동물약국업
745,강서홈약국,37.558418,126.854838,서울특별시 강서구 등촌동 639-11번지 홈플러스강서점앤본사사옥 ,동물약국업
746,맘온누리약국,37.5764888,126.8307466,서울특별시 강서구 마곡동 798-3번지 ,동물약국업
747,강서천사약국,37.5580807,126.8374484,서울특별시 강서구 내발산동 644-1번지 ,동물약국업
748,빠른대학약국,37.5764888,126.8307466,서울특별시 강서구 마곡동 801-7번지 ,동물약국업
749,행복나무약국,37.5433093,126.838273,서울특별시 강서구 화곡동 1032-18번지 ,동물약국업
750,하나로약국,37.5512014,126.8719248,서울특별시 강서구 염창동 248-7번지 염창하이츠빌딩 ,동물약국업
751,엔젤약국,37.5542778,126.8595563,서울특별시 강서구 등촌동 73-1번지 금부빌딩 ,동물약국업
752,반포다정약국,37.5044317,127.0008024,서울특별시 서초구 반포동 18-3 래미안퍼스티지 중심상가,동물약국업
753,유니약국,37.5683444,126.8271884,서울특별시 강서구 마곡동 757번지 두산더랜드파크 ,동물약국업
754,조은약국,37.5574369,126.8267598,서울특별시 강서구 마곡동 751번지 마곡엠밸리15단지 ,동물약국업
755,가장큰이대약국,37.5764888,126.8307466,서울특별시 강서구 마곡동 801-2번지 ,동물약국업
756,발산에이스약국,37.5576613,126.8384045,서울특별시 강서구 내발산동 653번지 솔레드림 ,동물약국업
757,강서동물약국,37.5591742,126.8288407,서울특별시 강서구 마곡동 800번지 나인스퀘어 ,동물약국업
758,메디팜인정약국,37.5754755,126.8116158,서울특별시 강서구 방화동 569-12번지 ,동물약국업
759,이화정문약국,37.5764888,126.8307466,서울특별시 강서구 마곡동 801-7번지 ,동물약국업
760,명진팜약국,37.5764888,126.8307466,서울특별시 강서구 마곡동 759-3번지 보타닉파크타워Ⅰ ,동물약국업
761,이수약국,37.5330367,126.8481152,서울특별시 강서구 화곡동 341-16번지 화창빌딩 ,동물약국업
762,미래약국,37.5700875,126.8418716,서울특별시 강서구 방화동 563-14번지 효성빌딩 101호,동물약국업
763,라온365온누리약국,37.5412582,126.8400723,서울특별시 강서구 화곡동 1075-1번지 ,동물약국업
764,프라자약국,37.5495419,126.835914,서울특별시 강서구 내발산동 719-6번지 송화쇼핑센터 ,동물약국업
765,이수연약국,37.5764888,126.8307466,서울특별시 강서구 마곡동 798-5번지 에이스타워2 120호,동물약국업
766,솔약국,37.5569905,126.8613116,서울특별시 강서구 등촌동 631번지 등촌동두산위브센티움 131호,동물약국업
767,마곡하나약국,37.5764888,126.8307466,서울특별시 강서구 마곡동 794-1번지 우성에스비타워 106호,동물약국업
768,새미래약국,37.5429673,126.8429879,서울특별시 강서구 화곡동 109-16번지 ,동물약국업
769,자연주의약국,37.5419444,126.8426043,서울특별시 강서구 화곡동 107-13번지 101호,동물약국업
770,강서종로약국,37.5486456,126.8360242,서울특별시 강서구 내발산동 723-4번지 ,동물약국업
771,마곡소망약국,37.5673603,126.8275954,서울특별시 강서구 마곡동 760번지 마곡나루역보타닉푸르지오시티 233호,동물약국업
772,화곡메디칼약국,37.53811839999999,126.8471024,서울특별시 강서구 화곡동 ,동물약국업
773,공항약국,37.558949,126.8103748,서울특별시 강서구 공항동 ,동물약국업
774,신세계약국,37.53811839999999,126.8471024,서울특별시 강서구 화곡동 ,동물약국업
775,암사현대약국,37.5504772,127.1273914,서울특별시 강동구 암사동 502-18번지 ,동물약국업
776,메디팜정다운약국,37.5764888,126.8307466,서울특별시 강서구 마곡동 739-2번지 우성르보아투 ,동물약국업
777,한강메디칼약국,37.5648322,126.8342406,서울특별시 강서구 가양동 ,동물약국업
778,화곡태평양약국,37.53811839999999,126.8471024,서울특별시 강서구 화곡동 ,동물약국업
779,정다운약국,37.54840859999999,126.8502744,서울특별시 강서구 화곡동 969-12번지 ,동물약국업
780,365열린약국,37.5051543,127.0259388,서울특별시 구로구 개봉동 203-7번지 KS프리미어빌딩 105호,동물약국업
781,수약국,37.5072785,126.8539118,서울특별시 구로구 고척동 224-1번지 ,동물약국업
782,항동푸른약국,37.4810322,126.8243892,서울특별시 구로구 항동 128-2번지 가온 프라자 105호,동물약국업
783,구일중앙약국,37.4950273,126.872004,서울특별시 구로구 구로동 642-108번지 해원리버파크 305호,동물약국업
784,현대파크빌약국,37.5003438,126.8899252,서울특별시 구로구 구로동 108번지 현대파크빌 ,동물약국업
785,성인약국,37.486498,126.8561607,서울특별시 구로구 개봉동 403-95번지 ,동물약국업
786,한마을약국,37.4964024,126.8630383,서울특별시 구로구 개봉동 476번지 한마을(아)상가 1-110 ,동물약국업
787,건강온누리약국,37.502829,126.8446493,서울특별시 구로구 개봉동 33-31번지 ,동물약국업
788,차기정약국,37.4862233,126.8520761,서울특별시 구로구 개봉동 356-9번지 ,동물약국업
789,온누리사랑의약국,37.4876999,126.8837485,서울특별시 구로구 구로동 717-34번지 ,동물약국업
790,구로동물약국,37.4970431,126.8557126,서울특별시 구로구 개봉동 161-18번지 ,동물약국업
791,W스토아청와약국,37.4845387,126.8880108,서울특별시 구로구 가리봉동 89-163번지 ,동물약국업
792,메디칼바른약국,37.501439,126.8869018,서울특별시 구로구 구로동 553-7번지 ,동물약국업
793,부강약국,37.5073273,126.8628735,서울특별시 구로구 고척동 41-2번지 ,동물약국업
794,은성약국,37.5112311,126.8844715,서울특별시 구로구 신도림동 309-6번지 성광빌딩 ,동물약국업
795,다드림약국,37.4935025,126.8845917,서울특별시 구로구 구로동 426-52번지 ,동물약국업
796,정수메디칼약국,37.4957085,126.888758,서울특별시 구로구 구로동 100-8번지 신안타워 ,동물약국업
797,구로프라자온누리약국,37.4883355,126.856464,서울특별시 구로구 개봉동 403-160번지 로얄타워 1층 ,동물약국업
798,부부약국,37.4921804,126.8436236,,동물약국업
799,아침햇살약국,37.4831825,126.9012294,,동물약국업
800,태영프라자약국,37.5063889,126.8833333,서울특별시 구로구 신도림동 437-1번지 태영프라자 108호 ,동물약국업
801,온누리백제약국,37.5052678,126.8570212,서울특별시 구로구 고척동 169-8번지 ,동물약국업
802,구로종로약국,37.4957517,126.8425667,서울특별시 구로구 오류동 41-1번지 ,동물약국업
803,열린약국,37.5026074,126.8498258,서울특별시 구로구 고척동 253-194번지 ,동물약국업
804,서울동물약국,37.5041667,126.8634677,서울특별시 구로구 고척동 46-39번지 ,동물약국업
805,태양약국,37.4955825,126.8423024,서울특별시 구로구 오류동 10-1번지 ,동물약국업
806,보건당약국,37.4898771,126.8903719,서울특별시 구로구 구로동 313-111번지 ,동물약국업
807,대우약국,37.49717160000001,126.8360388,서울특별시 구로구 오류동 353-1번지 골드프라자 ,동물약국업
808,해솔온누리약국,37.4854424,126.8981953,서울특별시 구로구 구로동 685-448 신영상가 102호,동물약국업
809,연세온누리약국,37.5055476,126.8772689,서울특별시 구로구 신도림동 400-3번지 엘림빌딩 ,동물약국업
810,에이스약국,37.4844847,126.8945479,서울특별시 구로구 구로동 212-1번지 에이스트윈타워1차 ,동물약국업
811,팜프라자약국,37.4847961,126.8966297,서울특별시 구로구 구로동 188-25번지 지밸리비즈플라자 ,동물약국업
812,코끼리약국,37.4803813,126.8415075,서울특별시 구로구 천왕동 277-12번지 천왕에이스프라자 103호,동물약국업
813,남구로약국,37.4845083,126.8860234,서울특별시 구로구 가리봉동 25-49번지 ,동물약국업
814,맑은수 약국,37.48981029999999,126.8558851,서울특별시 구로구 개봉동 403-117번지 ,동물약국업
815,드림플러스약국,37.4697672,126.8855646,서울특별시 금천구 가산동 60-44번지 이앤씨드림타워7차 201-1호,동물약국업
816,라임약국,37.480349,126.886814,서울특별시 금천구 가산동 60-4번지 코오롱테크노밸리 109호,동물약국업
817,대제일약국,37.4722711,126.9023749,서울특별시 금천구 독산동 165-11번지 ,동물약국업
818,문성당약국,37.4658576,126.9045261,서울특별시 금천구 독산동 1039-20번지 ,동물약국업
819,늘사랑 온누리 약국,37.4480497,126.9183272,서울특별시 금천구 시흥동 1013번지 벽산5단지아파트 ,동물약국업
820,태평양 약국,37.4512301,126.9088217,서울특별시 금천구 시흥동 828-40번지 ,동물약국업
821,우리캐슬약국,37.4611632,126.8971642,서울특별시 금천구 독산동 1155번지 금천롯데캐슬골드파크3차 ,동물약국업
822,삼화약국,37.4500511,126.9040017,서울특별시 금천구 시흥동 905-8번지 ,동물약국업
823,수도약국,37.4721284,126.8902839,서울특별시 금천구 독산동 335-1번지 ,동물약국업
824,이화약국,37.4722845,126.9026596,서울특별시 금천구 독산동 178-2번지 ,동물약국업
825,녹수프라자약국,37.4657159,126.9017801,서울특별시 금천구 독산동 1037-17번지 ,동물약국업
826,가산약국,37.4760881,126.8931252,서울특별시 금천구 가산동 151-30번지 ,동물약국업
827,이든약국,37.4802636,126.8771754,,동물약국업
828,메디팜대안약국,37.4647885,126.8979842,서울특별시 금천구 독산동 1031-27번지 ,동물약국업
829,대우당약국,37.4506592,126.9061356,서울특별시 금천구 시흥동 921-1번지 ,동물약국업
830,현대약국,37.469824,126.89589,,동물약국업
831,비타민약국,37.4623571,126.9088206,서울특별시 금천구 시흥동 794-8번지 ,동물약국업
832,봄빛약국,37.4806318,126.8805702,서울특별시 금천구 가산동 371-41번지 가산 에스케이 브이원 센터 ,동물약국업
833,상계온누리약국,37.6673854,127.0802622,서울특별시 노원구 상계동 1285 동아불암아파트 104 105 106호,동물약국업
834,신보생약국,37.4750233,126.9009644,서울특별시 금천구 독산동 970-31번지 ,동물약국업
835,튼튼온누리약국,37.4611632,126.8971642,서울특별시 금천구 독산동 1155번지 금천롯데캐슬골드파크3차 ,동물약국업
836,가디온누리약국,37.4806318,126.8805702,서울특별시 금천구 가산동 371-41번지 가산 에스케이 브이원 센터 ,동물약국업
837,중앙메디칼약국,37.4817399,126.8817895,서울특별시 금천구 가산동 459-11번지 제이플라츠 ,동물약국업
838,중앙사약국,37.450992,126.9008414,서울특별시 금천구 시흥동 890-4번지 대의빌딩 ,동물약국업
839,평안온누리약국,37.5400657,126.8921204,서울특별시 영등포구 양평동5가 76번지 한신아파트상가 109동 7호 ,동물약국업
840,수온누리약국,37.5195897,126.8890304,서울특별시 영등포구 문래동6가 5번지 105호,동물약국업
841,대명약국,37.5142196,126.9069031,서울특별시 영등포구 영등포동 618-79번지 ,동물약국업
842,햇님온누리약국,37.5210236,126.9240116,서울특별시 영등포구 여의도동 37번지 아일렉스상가 304호,동물약국업
843,열린약국,37.5344263,126.9013113,서울특별시 영등포구 당산동6가 331-1번지 다옥빌딩 2층 ,동물약국업
844,유림약국,37.5363815,126.8964449,서울특별시 영등포구 양평동4가 66-3번지 1층 ,동물약국업
845,세계약국,37.49097860000001,126.9075325,서울특별시 영등포구 대림동 962-4번지 ,동물약국업
846,래미안온누리약국,37.5324821,126.9041444,서울특별시 영등포구 당산동5가 42번지 삼성래미안상가 102-23호,동물약국업
847,헤르바당산역약국,37.533782,126.9020409,서울특별시 영등포구 당산동6가 227-1번지 당산역 ,동물약국업
848,바른약국,37.5264464,126.8913573,서울특별시 영등포구 양평동3가 45번지 롯데마트 양평점 ,동물약국업
849,삼남매약국,37.5210196,126.934298,서울특별시 영등포구 여의도동 41-2번지 ,동물약국업
850,나래약국,37.49615319999999,126.9024511,서울특별시 영등포구 대림동 756-5번지 동성빌딩 ,동물약국업
851,휴베이스 미소약국,37.5261207,126.8860996,서울특별시 영등포구 양평동3가 23-4번지 ,동물약국업
852,해경아는약국,37.5213676,126.9302272,서울특별시 영등포구 여의도동 43-1번지 유성빌딩 ,동물약국업
853,서울성모약국,37.4967641,126.898757,서울특별시 영등포구 대림동 710-12번지 대림빌딩 ,동물약국업
854,마음약국,37.5192955,126.8890619,서울특별시 영등포구 문래동6가 5-2번지 문래 아카데미 ,동물약국업
855,범일약국,37.5209251,126.9051525,서울특별시 영등포구 영등포동5가 27-5번지 ,동물약국업
856,천지당약국,37.4907935,126.9074899,서울특별시 영등포구 대림동 962-5번지 ,동물약국업
857,세성심약국,37.4923424,126.9086649,서울특별시 영등포구 대림동 952-13번지 ,동물약국업
858,동신당약국,37.5235669,126.8982673,서울특별시 영등포구 당산동1가 284-1번지 ,동물약국업
859,유명약국,37.5117464,126.9167957,서울특별시 영등포구 신길동 115-1번지 미주 메디컬 빌딩 ,동물약국업
860,중앙메디칼약국,37.5039231,126.9208774,서울특별시 영등포구 신길동 736번지 ,동물약국업
861,나무약국,37.4941256,126.8993681,서울특별시 영등포구 대림동 709-2번지 대림빌딩 ,동물약국업
862,정성온누리약국,37.4957407,126.9087161,서울특별시 영등포구 신길동 4677번지 ,동물약국업
863,오늘약국,37.4888643,126.9058332,서울특별시 영등포구 대림동 990-1번지 대림메디컬빌딩 ,동물약국업
864,문래스타약국,37.5179309,126.8873039,서울특별시 영등포구 문래동6가 19번지 ,동물약국업
865,다인약국,37.5200945,126.8897017,서울특별시 영등포구 문래동3가 82-29번지 우리벤처타운2 ,동물약국업
866,우리집약국,37.49097860000001,126.9075325,서울특별시 영등포구 대림동 962-4번지 ,동물약국업
867,365열린약국,37.5267921,126.9047058,서울특별시 영등포구 영등포동8가 35-1번지 리마크빌 영등포 ,동물약국업
868,영등포메디칼약국,37.5182784,126.906276,서울특별시 영등포구 영등포동3가 8-1번지 성남빌딩 ,동물약국업
869,약산약국,37.5112753,126.91446,서울특별시 영등포구 신길동 160-38번지 ,동물약국업
870,아람약국,37.4971296,126.9162989,서울특별시 영등포구 신길동 4326번지 ,동물약국업
871,100세약국,37.5332091,126.9037114,서울특별시 영등포구 당산동6가 217-4번지 수정빌딩 ,동물약국업
872,우리조운약국,37.4968933,126.9035775,서울특별시 영등포구 대림동 751-5번지 ,동물약국업
873,마포온누리약국,37.54084280000001,126.9458903,서울특별시 마포구 도화동 544 고려빌딩,동물약국업
874,맑은수약국,37.4970977,126.9131445,서울특별시 영등포구 신길동 4491번지 돈보스코청소년센터 ,동물약국업
875,별담은온누리약국,37.5233486,126.9077563,서울특별시 영등포구 영등포동7가 145-8번지 아크로타워 스퀘어 13동 308호,동물약국업
876,영등포시장약국,37.5217256,126.9052935,서울특별시 영등포구 영등포동5가 37-2번지 ,동물약국업
877,여의도점부츠약국,37.525219,126.926025,서울특별시 영등포구 여의도동 23번지 서울 국제금융 센터 지하2층 207호,동물약국업
878,건강온누리약국,37.5000697,126.9189494,서울특별시 영등포구 신길동 508번지 시원빌딩 105호,동물약국업
879,영등포진약국,37.5219953,126.904733,서울특별시 영등포구 영등포동6가 9번지 1층 ,동물약국업
880,미성온누리약국,37.5104292,126.9045338,서울특별시 영등포구 영등포동 647-1번지 영등포푸르지오상가 102호,동물약국업
881,럭키약국,37.5213559,126.9249795,서울특별시 영등포구 여의도동 20번지 지하1층 ,동물약국업
882,신풍약국,37.49584309999999,126.9086773,서울특별시 영등포구 신길동 4676번지 ,동물약국업
883,경도약국,37.5193175,126.9314199,서울특별시 영등포구 여의도동 44-14번지 경도빌딩 118호 ,동물약국업
884,미래약국,37.5195675,126.9300311,서울특별시 영등포구 여의도동 44-32번지 에리트빌딩 306호 ,동물약국업
885,온누리대광약국,37.4925953,126.8971845,서울특별시 영등포구 대림동 1056-1번지 ,동물약국업
886,보건약국,37.5300273,126.9201688,서울특별시 영등포구 여의도동 41-1번지 대교B상가 114호,동물약국업
887,영등포제일약국,37.5209075,126.9046086,서울특별시 영등포구 영등포동6가 3-1번지 ,동물약국업
888,여의도동물약국,37.5224767,126.9245731,서울특별시 영등포구 여의도동 26-4번지 ,동물약국업
889,금강온누리약국,37.517288,126.9063572,서울특별시 영등포구 영등포동3가 9-46번지 외 1필지 ,동물약국업
890,조은약국,37.5207142,126.8963363,서울특별시 영등포구 당산동1가 16-1번지 진로아파트 상가 105호 ,동물약국업
891,성우약국,37.522154,126.919786,서울특별시 영등포구 여의도동 28-1번지 전국경제인연합회회관 ,동물약국업
892,공원온누리약국,37.5140868,126.9117452,서울특별시 영등포구 영등포동 580-8번지 ,동물약국업
893,장수약국,37.4998635,126.9110152,서울특별시 영등포구 신길동 3844번지 ,동물약국업
894,대흥약국,37.5067403,126.9094654,서울특별시 영등포구 신길동 257-43번지 ,동물약국업
895,영등포21세기약국,37.5280903,126.8977562,서울특별시 영등포구 당산동4가 94-1번지 삼성ABC프라자1층 102호 ,동물약국업
896,이도온누리약국,37.5267688,126.8952391,서울특별시 영등포구 당산동3가 395-4번지 1층 ,동물약국업
897,설약국,37.5132357,126.9396243,서울특별시 동작구 노량진동 44-11번지 ,동물약국업
898,참사랑약국,37.4876225,126.9071323,서울특별시 동작구 신대방동 719번지 동작상떼빌아파트 ,동물약국업
899,메디팜엔비약국,37.5134039,126.9427066,서울특별시 동작구 노량진동 70-15번지 ,동물약국업
900,보라매온누리약국,37.4977527,126.9277064,서울특별시 동작구 신대방동 345-3번지 ,동물약국업
901,팜프라자약국,37.4768285,126.9770755,서울특별시 동작구 사당동 1046-8번지 ,동물약국업
902,상아온누리약국,37.4976242,126.9439424,서울특별시 동작구 상도동 210-35번지 ,동물약국업
903,사당프라자 약국,37.4832665,126.9732338,서울특별시 동작구 사당동 265-59번지 ,동물약국업
904,온누리세종약국,37.47769479999999,126.9780598,서울특별시 동작구 사당동 1037-17번지 ,동물약국업
905,신중앙약국,37.5078385,126.9608187,서울특별시 동작구 흑석동 183-42번지 1층 2층 ,동물약국업
906,강약국,37.5071231,126.9622493,서울특별시 동작구 흑석동 97-2번지 ,동물약국업
907,건강온누리 약국,37.5049188,126.9411015,서울특별시 동작구 상도동 170-2번지 ,동물약국업
908,성대약국,37.4999898,126.9325522,서울특별시 동작구 상도동 248-4번지 ,동물약국업
909,세계로약국,37.5049279,126.9415119,서울특별시 동작구 상도동 170-10번지 ,동물약국업
910,옵티마 다정약국,37.4884033,126.9781039,서울특별시 동작구 사당동 120-1번지 ,동물약국업
911,맑은샘약국,37.5073178,126.9401356,서울특별시 동작구 노량진동 311-46번지 ,동물약국업
912,고은온누리약국,37.5041889,126.9223665,서울특별시 동작구 대방동 385-13번지 2층 ,동물약국업
913,신세계약국,37.4851008,126.9804872,서울특별시 동작구 사당동 144-11번지 ,동물약국업
914,푸른약국,37.5000992,126.9308044,서울특별시 동작구 상도동 328-7번지 ,동물약국업
915,유원약국,37.4952735,126.954798,서울특별시 동작구 상도동 501-10번지 ,동물약국업
916,숭실길약국,37.494993,126.9564009,서울특별시 동작구 상도동 502-1번지 ,동물약국업
917,새천년약국,37.4999212,126.9283641,서울특별시 동작구 대방동 393-65번지 ,동물약국업
918,단골약국,37.4949352,126.9271145,서울특별시 동작구 신대방동 344-258번지 ,동물약국업
919,우리들온누리약국,37.4848855,126.9698976,,동물약국업
920,유림온누리약국,37.4843751,126.9723299,서울특별시 동작구 사당동 252-17번지 ,동물약국업
921,새보라매약국,37.4923207,126.9252545,서울특별시 동작구 신대방동 706번지 보라매우성상가 101호,동물약국업
922,파랑새약국,37.4999085,126.9295462,서울특별시 동작구 대방동 335-17번지 지하1층 ,동물약국업
923,조이온누리약국,37.48744,126.9818474,서울특별시 동작구 사당동 135-3번지 지하1층 ,동물약국업
924,해뜨는약국,37.5045356,126.9494402,서울특별시 동작구 상도1동 621번지 ,동물약국업
925,바른약국,37.5033904,126.9360607,서울특별시 동작구 상도동 187-1번지 ,동물약국업
926,사랑약국,37.4853912,126.9811402,서울특별시 동작구 사당동 147-76번지 ,동물약국업
927,찬솔약국,37.5111691,126.9446011,서울특별시 동작구 노량진동 123-11번지 ,동물약국업
928,평화약국,37.4911392,126.9810633,서울특별시 동작구 사당동 1046-13번지 ,동물약국업
929,유니팜약국,37.5237401,127.0409074,서울특별시 강남구 청담동 87-8번지 ,동물약국업
930,팜메이트난곡종합약국,37.4729215,126.9185772,서울특별시 관악구 신림동 725-37번지 ,동물약국업
931,온누리대산약국,37.4828907,126.9019821,서울특별시 관악구 신림동 1655-16번지 ,동물약국업
932,그랜드약국,37.4747407,126.966713,서울특별시 관악구 봉천동 1637-28번지 ,동물약국업
933,늘픔약국,37.484794,126.9323096,서울특별시 관악구 신림동 1422-4번지 1층 ,동물약국업
934,모두온누리약국,37.4797634,126.9575037,서울특별시 관악구 봉천동 1673-16번지 1층 ,동물약국업
935,광장약국,37.47841220000001,126.9627916,서울특별시 관악구 봉천동 1000번지 현대상가 105호,동물약국업
936,중앙제일약국,37.5221439,126.8745405,서울특별시 양천구 신정동 117-1,동물약국업
937,한소망약국,37.475022,126.9368712,서울특별시 관악구 신림동 107-123번지 1층 ,동물약국업
938,태평양약국,37.484189,126.9273666,서울특별시 관악구 신림동 1433-102번지 ,동물약국업
939,봄내약국,37.4858519,126.9276244,서울특별시 관악구 신림동 1432-136번지 ,동물약국업
940,신림당약국,37.4816177,126.9283961,서울특별시 관악구 신림동 1587-35번지 ,동물약국업
941,뉴성모제일약국,37.5137903,126.9266705,서울특별시 영등포구 신길동 1432 봉덕빌딩,동물약국업
942,가까운약국,37.48610350000001,126.9472808,서울특별시 관악구 봉천동 463-4번지 112호,동물약국업
943,신림대명동물약국,37.4728855,126.9338558,서울특별시 관악구 신림동 112-42번지 ,동물약국업
944,세이브약국,37.4742767,126.9179969,서울특별시 관악구 신림동 607-73번지 ,동물약국업
945,신성심약국,37.4833393,126.9539014,서울특별시 관악구 봉천동 859-8번지 ,동물약국업
946,가은약국,37.481578,126.9537258,서울특별시 관악구 봉천동 858-3번지 ,동물약국업
947,봉천프라자약국,37.4819264,126.9427614,서울특별시 관악구 봉천동 927-21번지 ,동물약국업
948,굿모닝약국,37.4790725,126.932032,서울특별시 관악구 신림동 1641-90번지 대원빌딩 ,동물약국업
949,관악종로약국,37.48107710000001,126.9538346,서울특별시 관악구 봉천동 852-4번지 ,동물약국업
950,사랑약국,37.4761164,126.9803741,서울특별시 관악구 남현동 1060-3번지 ,동물약국업
951,호호약국,37.4842235,126.9276952,서울특별시 관악구 신림동 1433-88번지 ,동물약국업
952,21세기 약국,37.48729,126.9291179,서울특별시 관악구 신림동 1425-23번지 ,동물약국업
953,종로수약국,37.4898962,126.9279646,서울특별시 관악구 봉천동 971-1번지 ,동물약국업
954,맘이편한약국,37.4861448,126.9291184,서울특별시 관악구 신림동 1432-70번지 ,동물약국업
955,서울온누리약국,37.4738598,126.9181205,서울특별시 관악구 신림동 614-8번지 ,동물약국업
956,동보당약국,37.4853541,126.956353,서울특별시 관악구 봉천동 36-21번지 ,동물약국업
957,휴베이스 다정약국,37.4762755,126.9647868,서울특별시 관악구 봉천동 1657-5번지 106호,동물약국업
958,리드팜 힘찬약국,37.4869607,126.9474747,서울특별시 관악구 봉천동 495-1번지 한독빌딩 ,동물약국업
959,새태평양온누리약국,37.4753949,126.9654829,서울특별시 관악구 봉천동 1634-9번지 ,동물약국업
960,관악이화약국,37.487688,126.9324762,서울특별시 관악구 봉천동 968-36번지 ,동물약국업
961,다나온누리약국,37.4855722,126.9565602,서울특별시 관악구 봉천동 36-1번지 1층 ,동물약국업
962,행복이가득한약국,37.48143049999999,126.9110725,서울특별시 관악구 신림동 543-22번지 ,동물약국업
963,이화온누리약국,37.4601377,126.9192994,서울특별시 관악구 신림동 1735-3번지 ,동물약국업
964,하나로온누리약국,37.4860089,126.9394191,서울특별시 관악구 봉천동 941-21번지 ,동물약국업
965,행복한약국,37.48309320000001,126.9252769,서울특별시 관악구 신림동 1585-4번지 ,동물약국업
966,평화약국,37.4813753,126.9483523,서울특별시 관악구 봉천동 883-15번지 ,동물약국업
967,엘림약국,37.482939,126.930123,서울특별시 관악구 신림동 1641-12번지 ,동물약국업
968,우경약국,37.465107,126.9312871,서울특별시 관악구 신림동 304-85번지 ,동물약국업
969,서울약국,37.4875916,126.929385,서울특별시 관악구 신림동 620-3번지 0통,동물약국업
970,신지약국,37.4704763,126.9375788,서울특별시 관악구 신림동 1516-3번지 ,동물약국업
971,밝은미소약국,37.4861552,126.9470582,서울특별시 관악구 봉천동 463-4번지 메카플러스 1층 107호,동물약국업
972,유명약국,37.4730041,126.9191424,서울특별시 관악구 신림동 617-5번지 1층 ,동물약국업
973,서강약국,37.479489,126.9282546,서울특별시 관악구 신림동 1635-82번지 1층 ,동물약국업
974,순환약국,37.471129,126.9335599,서울특별시 관악구 신림동 1544번지 태양빌딩 1층 ,동물약국업
975,이루는약국,37.4849021,126.9562801,서울특별시 관악구 봉천동 36-14번지 2층 ,동물약국업
976,미소온누리약국,37.4803223,126.9145088,서울특별시 관악구 신림동 1475-6번지 1층 ,동물약국업
977,관악온누리약국,37.4814362,126.9538883,서울특별시 관악구 봉천동 852-2번지 ,동물약국업
978,사랑찬약국,37.5745068,127.0387406,서울특별시 관악구 남현동 612-51번지 홈플러스스페셜 남현점 ,동물약국업
979,사당365약국,37.4759071,126.9811384,서울특별시 관악구 남현동 1060-11번지 1층 ,동물약국업
980,광제사약국,37.5649321,127.080887,서울특별시 광진구 중곡동 230-14,동물약국업
981,원당프라자약국,37.4753367,126.9657279,서울특별시 관악구 봉천동 1637-1번지 ,동물약국업
982,신림수약국,37.4857383,126.9298376,서울특별시 관악구 신림동 1424-22번지 연빌딩 ,동물약국업
983,대학당약국,37.47154039999999,126.9326765,서울특별시 관악구 신림동 808-494번지 ,동물약국업
984,광선약국,37.4862512,126.9412192,서울특별시 관악구 봉천동 937-15번지 은호빌딩 ,동물약국업
985,메디팜 상암 약국,37.5801191,126.8831954,서울특별시 마포구 상암동 1684 월드프라자,동물약국업
986,정온누리약국,37.4811125,126.9513217,서울특별시 관악구 봉천동 869-1번지 윤건빌딩 ,동물약국업
987,서원약국,37.504448,127.014759,서울특별시 서초구 반포동 30번지 지하철 9호선 사평역 ,동물약국업
988,평강약국,37.4795012,127.0390174,서울특별시 서초구 양재동 20-8번지 ,동물약국업
989,메디케어 약국,37.5054705,127.0014431,서울특별시 서초구 잠원동 75-10번지 405호,동물약국업
990,빛샘온누리약국,37.4951089,127.0176214,서울특별시 서초구 서초동 1689-1번지 ,동물약국업
991,서초백화점약국,37.4849058,127.0147439,서울특별시 서초구 서초동 1602-1번지 ,동물약국업
992,서초당약국,37.4855177,127.0191067,서울특별시 서초구 서초동 1575-9번지 삼화빌딩 101호,동물약국업
993,기린약국,37.5071093,127.0098804,서울특별시 서초구 반포동 20-45번지 반포자이프라자 ,동물약국업
994,굿약국,37.4999834,127.0259797,서울특별시 서초구 서초동 1306-4번지 강남 지웰타워2 ,동물약국업
995,잠원스타약국,37.5127866,127.0104965,서울특별시 서초구 잠원동 61-9번지 잠원동 스타빌딩 111호,동물약국업
996,반포동물약국,37.5054942,127.006719,서울특별시 서초구 반포동 19-4번지 강남고속버스터미널 본관동 쇼케이스1호,동물약국업
997,신세기약국,37.5057649,127.0023022,서울특별시 서초구 잠원동 69-22번지 반포쇼핑타운 8동 ,동물약국업
998,바른온누리약국,37.4837775,126.9964108,서울특별시 서초구 방배동 907-5번지 ,동물약국업
999,오약국,37.4990686,126.9985755,서울특별시 서초구 반포동 92-15번지 ,동물약국업
1000,모아약국,37.4659052,127.0229716,서울특별시 서초구 우면동 679번지 (주)삼성전자 서울R&D캠퍼스 ,동물약국업
1001,구슬약국,37.4818513,127.0107187,서울특별시 서초구 서초동 1575-3번지 영한빌딩 ,동물약국업
1002,에이트약국,37.5002621,127.0258969,서울특별시 서초구 서초동 1306-2번지 한승빌딩 ,동물약국업
1003,온새미온누리약국,37.4929886,126.9899254,서울특별시 서초구 방배동 795-22번지 창생빌딩 101호,동물약국업
1004,방배세명약국,37.4856837,126.9873598,서울특별시 서초구 방배동 3160번지 (재)원불교 유문빌딩 101호,동물약국업
1005,하이팜 약국,37.4921947,127.0290425,서울특별시 서초구 서초동 1337-14번지 이즈타워 103호,동물약국업
1006,강남메디칼약국,37.4891462,126.9930529,서울특별시 서초구 방배동 851-6번지 태창빌딩 ,동물약국업
1007,사랑의약국,37.5057649,127.0023022,서울특별시 서초구 잠원동 75-13번지 반포쇼핑타운 2동 ,동물약국업
1008,교대사랑약국,37.495454,127.018698,서울특별시 서초구 서초동 1689-6번지 102호,동물약국업
1009,연세온누리약국,37.5060582,127.0033885,서울특별시 서초구 잠원동 75-19번지 반포쇼핑 3동 11호,동물약국업
1010,장수알파약국,37.4854248,127.0162624,서울특별시 서초구 서초동 1603-20번지 ,동물약국업
1011,에이스온누리약구,37.4810686,126.9982866,서울특별시 서초구 방배동 984-1번지 ,동물약국업
1012,다사랑약국,37.4966085,127.0269023,서울특별시 서초구 서초동 1320-10번지 삼성전자 지하2층 ,동물약국업
1013,고명약국,37.4703597,127.0252371,서울특별시 서초구 우면동 64-2번지 선일상가 101호,동물약국업
1014,홈케어방배약국,37.4854193,126.9850352,서울특별시 서초구 방배동 951-1번지 ,동물약국업
1015,자이프라자약국,37.5071093,127.0098804,서울특별시 서초구 반포동 20-45번지 자이프라자 상가 ,동물약국업
1016,서초제일약국,37.4887948,127.0050524,서울특별시 서초구 방배동 924-13번지 청림빌딩 1층 ,동물약국업
1017,세계로 약국,37.4797819,126.9821548,서울특별시 서초구 방배동 442-2번지 ,동물약국업
1018,한 약국,37.5104972,127.0211196,서울특별시 서초구 반포동 706-10번지 ,동물약국업
1019,에이티약국,37.466168,127.0402043,서울특별시 서초구 양재동 232번지 at센터 ,동물약국업
1020,한결약국,37.4708168,127.025368,서울특별시 서초구 우면동 66-2번지 세신우면상가 ,동물약국업
1021,더블유스토어 하이약국,37.4883829,127.0140865,서울특별시 서초구 서초동 1578-5번지 ,동물약국업
1022,늘픔약국,37.4566225,127.0597471,서울특별시 서초구 내곡동 342-1번지 108호,동물약국업
1023,우리재약국,37.5668543,127.0532151,서울특별시 동대문구 답십리동 494-1 한일노벨리아 101호,동물약국업
1024,아주약국,37.5011293,126.9871614,서울특별시 서초구 반포동 1053번지 반포상가 H동 33호,동물약국업
1025,금화온누리약국,37.5044951,127.0007548,서울특별시 서초구 반포동 18-3번지 래미안퍼스티지 중심상가 125호,동물약국업
1026,스마트온누리약국,37.4942496,127.0282277,서울특별시 서초구 서초동 1330-20번지 강남애니타워 101호,동물약국업
1027,뿌리본약국,37.4843603,127.0341755,서울특별시 서초구 서초동 1366-9번지 양재역 25호,동물약국업
1028,그린약국,37.4878195,127.0268806,서울특별시 서초구 서초동 1342번지 ,동물약국업
1029,자연약국,37.4851816,127.0186503,서울특별시 서초구 서초동 1443-31번지 ,동물약국업
1030,나성온누리약국,37.4890172,127.026147,서울특별시 서초구 서초동 1335번지 무지개종합상가 ,동물약국업
1031,하나로약국,37.4636076,127.0429229,서울특별시 서초구 양재동 230-1번지 ,동물약국업
1032,진흥온누리약국,37.4972188,127.0226783,서울특별시 서초구 서초동 1315번지 ,동물약국업
1033,한신메디칼약국,37.5121715,127.0079619,서울특별시 서초구 잠원동 65-32번지 65-34 지층 ,동물약국업
1034,메디칼허브약국,37.5166201,127.0188711,서울특별시 서초구 잠원동 12-21번지 ,동물약국업
1035,동해물약국,37.4874779,126.982592,서울특별시 서초구 방배동 1546번지 ,동물약국업
1036,봄약국,37.4558,127.062339,,동물약국업
1037,방배이수동물약국,37.4856837,126.9873598,서울특별시 서초구 방배동 3160번지 (재)원불교 유문빌딩 1층 ,동물약국업
1038,임마누엘온누리약국,37.4948372,126.9894708,서울특별시 서초구 방배동 773-4번지 ,동물약국업
1039,태평양약국,37.4651959,127.0164423,서울특별시 서초구 우면동 757번지 서초타워 103호,동물약국업
1040,우리들약국,37.5021266,127.0120514,서울특별시 서초구 반포동 32-2 동화반포프라자빌딩 105호,동물약국업
1041,에덴셀스마트약국,37.46257629999999,127.0364668,서울특별시 서초구 양재동 215번지 하이브랜드패션관 2198호,동물약국업
1042,서초늘푸른약국,37.5147075,127.0122041,서울특별시 서초구 잠원동 57번지 대림상가 117호,동물약국업
1043,하나약국,37.4943904,127.0132487,서울특별시 서초구 서초동 1714-19번지 한성빌딩 101호,동물약국업
1044,서리풀약국,37.486462,127.0209676,서울특별시 서초구 서초동 1604-18번지 자연빌딩 102호,동물약국업
1045,서초메이플약국,37.4749917,127.0484375,서울특별시 서초구 서초동 1341-7번지 조이빌딩 1층 ,동물약국업
1046,하이약국,37.45963,127.0246229,서울특별시 서초구 우면동 787번지 서초리슈빌S글로벌 102호,동물약국업
1047,미소약국,37.4873605,127.0284809,서울특별시 서초구 서초동 1344-12번지 ,동물약국업
1048,양재신세계약국,37.4639964,127.0347756,서울특별시 서초구 양재동 210-5번지 ,동물약국업
1049,세븐약국,37.5233425,127.0385227,서울특별시 서초구 서초동 1553-3번지 스타갤러리브릿지 703호,동물약국업
1050,365온누리약국,37.4917881,126.9906269,서울특별시 서초구 방배동 812-10번지 1층 ,동물약국업
1051,봄약국,37.455484,127.0609785,서울특별시 서초구 내곡동 143번지 서초 포레스타2단지 상가 203호,동물약국업
1052,수현온누리약국,37.4939332,127.0154957,서울특별시 서초구 서초동 1673-10번지 소망빌딩 ,동물약국업
1053,종로시장약국,37.5712442,127.003622,서울특별시 종로구 종로5가 43-1,동물약국업
1054,서광약국,37.4830558,127.0075091,서울특별시 서초구 서초동 1486-1번지 ,동물약국업
1055,주앙약국,37.4755186,127.0002755,서울특별시 서초구 방배동 1028-1번지 경남상가 ,동물약국업
1056,에이타워약국,37.4986077,127.0285162,서울특별시 강남구 역삼동 822-1번지 ,동물약국업
1057,진약국,37.521378,127.0316861,서울특별시 강남구 신사동 629-38번지 ,동물약국업
1058,역삼우주약국,37.502142,127.040164,서울특별시 강남구 역삼동 719-24번지 역삼역센트럴푸르지오 1동 B106호,동물약국업
1059,신논현비비약국,37.5049014,127.0247767,서울특별시 강남구 논현동 200-7번지 urbanhive ,동물약국업
1060,강남미약국,37.4964782,127.0286919,서울특별시 강남구 역삼동 825-8번지 ,동물약국업
1061,강남새천년온누리약국,37.5000187,127.0636592,서울특별시 강남구 대치동 986-9번지 ,동물약국업
1062,강남역스타약국,37.4976251,127.0292526,서울특별시 강남구 역삼동 825-20번지 강남역 센트럴 푸르지오 시티 ,동물약국업
1063,강남온누리약국,37.5011164,127.0508192,서울특별시 강남구 대치동 907,동물약국업
1064,선릉수정약국,37.5051335,127.0489383,서울특별시 강남구 삼성동 141-19번지 오성빌딩 ,동물약국업
1065,밝은마음약국,37.5239853,127.0278825,서울특별시 강남구 신사동 583-3번지 제이비 미소빌딩 110호,동물약국업
1066,웰그린약국,37.4972603,127.0521007,서울특별시 강남구 역삼동 765-7번지 103호,동물약국업
1067,르씨엘약국,37.5148014,127.03259,서울특별시 강남구 논현동 88-7번지 101호,동물약국업
1068,신현대약국,37.5302482,127.0351314,서울특별시 강남구 압구정동 426번지 현대아파트 ,동물약국업
1069,타워약국,37.5168188,127.0201196,서울특별시 강남구 신사동 501-2번지 ,동물약국업
1070,청담밝은약국,37.5115149,127.0436591,서울특별시 강남구 삼성동 35-8번지 한일빌딩 ,동물약국업
1071,연세팜약국,37.5098801,127.0233061,서울특별시 강남구 논현동 144-20번지 101호,동물약국업
1072,여리약국,37.4942764,127.0330313,서울특별시 강남구 역삼동 830-70번지 1층 103호,동물약국업
1073,에메랄드 약국,37.5169542,127.022059,서울특별시 강남구 논현동 4번지 에메랄드타워 1층 ,동물약국업
1074,소호약국,37.5245371,127.0288351,서울특별시 강남구 신사동 603-2번지 1층 ,동물약국업
1075,바른약국,37.5189909,127.0256365,서울특별시 강남구 신사동 561-31번지 신웅타워 1층 ,동물약국업
1076,청담명약국,37.51912,127.0504497,서울특별시 강남구 청담동 76-5번지 5층 ,동물약국업
1077,건강한세상행복한약국,37.5058792,127.0242552,서울특별시 강남구 논현동 199번지 대남빌딩 1층 ,동물약국업
1078,강남신사동물약국,37.5274305,127.0397695,서울특별시 강남구 신사동 664-1번지 103호,동물약국업
1079,우인온누리약국,37.4902978,127.08129,서울특별시 강남구 일원동 684-2번지 ,동물약국업
1080,천사약국,37.4856021,127.0835726,서울특별시 강남구 일원동 715-1번지 신영플라자 108호 ,동물약국업
1081,압구정화이트약국,37.5258525,127.029481,서울특별시 강남구 신사동 609-1번지 미승빌딩 1층 102호 ,동물약국업
1082,강남퍼스트약국,37.516014,127.0203002,서울특별시 강남구 논현동 1-1번지 강남퍼스트약국 ,동물약국업
1083,신분당약국,37.49701719999999,127.0281681,서울특별시 강남구 역삼동 858번지 ,동물약국업
1084,노바동물약국,37.5074696,127.0272194,서울특별시 강남구 논현동 180-18번지 103호,동물약국업
1085,압구정온누리약국,37.5170416,127.0178559,,동물약국업
1086,이층엔약국,37.474172,127.0950243,서울특별시 강남구 자곡동 596번지 ,동물약국업
1087,수서역정민아약국,37.486738,127.1031323,서울특별시 강남구 수서동 725-101번지 수서타워 1층 ,동물약국업
1088,제일그랜드약국,37.5050679,127.024656,서울특별시 강남구 논현동 200번지 ,동물약국업
1089,구인당약국,37.4933509,127.067324,서울특별시 강남구 대치동 511번지 미도상가 110호 ,동물약국업
1090,수진약국,37.4924651,127.0688181,서울특별시 강남구 대치동 511번지 한보미도종합상가 119호 ,동물약국업
1091,압구정영약국,37.5247792,127.0278228,서울특별시 강남구 신사동 582-3번지 1층 ,동물약국업
1092,강남백세약국,37.4980721,127.0595341,서울특별시 강남구 대치동 1021-2번지 ,동물약국업
1093,목화약국,37.4915182,127.0876554,서울특별시 강남구 일원동 644-3번지 1층 ,동물약국업
1094,청담케이팜약국,37.523306,127.0383845,서울특별시 강남구 신사동 666-16번지 1층 ,동물약국업
1095,갤러리약국,37.510041,127.027186,서울특별시 강남구 논현동 158번지 106호,동물약국업
1096,렉슬약국,37.4953504,127.0527143,서울특별시 강남구 도곡동 527-3번지 도곡렉슬상가 B103호 ,동물약국업
1097,신사프라자약국,37.51682539999999,127.0204826,서울특별시 강남구 신사동 513-1번지 ,동물약국업
1098,해오름약국,37.512773,127.0506648,서울특별시 강남구 삼성동 49-7번지 49-7번지 1층 ,동물약국업
1099,녹십자옵티마약국,37.4746471,127.0504881,서울특별시 강남구 개포동 1184번지 (포이동184) ,동물약국업
1100,정성온누리약국,37.489797,127.0335379,서울특별시 강남구 도곡동 942-2번지 1층 ,동물약국업
1101,강남행복동물약국,37.4917395,127.0396045,서울특별시 강남구 도곡동 544번지 신호필딩 107호 ,동물약국업
1102,청담수약국,37.5183881,127.0466174,서울특별시 강남구 청담동 45-4번지 ,동물약국업
1103,나리약국,37.4979285,127.058811,서울특별시 강남구 대치동 1022-2번지 ,동물약국업
1104,옵티마양성심약국,37.5249272,127.0245649,서울특별시 강남구 신사동 574번지 ,동물약국업
1105,희병약국,37.5097596,127.0399303,서울특별시 강남구 논현동 277번지 ,동물약국업
1106,세곡리엔약국,37.465021,127.109295,서울특별시 강남구 세곡동 세곡택지개발지구 근생2블록 2-1 2로트 1층 108호 ,동물약국업
1107,봄약국,37.5322509,127.0283956,서울특별시 강남구 압구정동 454번지 신사시장 A동 109호 ,동물약국업
1108,대치필리아약국,37.497729,127.054481,서울특별시 강남구 대치동 935-36번지 ,동물약국업
1109,울트라온누리약국,37.5110616,127.0456032,,동물약국업
1110,대치동동물약국,37.50392980000001,127.0559229,서울특별시 강남구 대치동 901-67번지 1층 ,동물약국업
1111,건영약국,37.5238585,127.039623,서울특별시 강남구 청담동 86번지 지하1층 ,동물약국업
1112,연우약국,37.4934512,127.0456769,서울특별시 강남구 도곡동 540번지 삼호상가 102104105호 ,동물약국업
1113,조은온누리약국,37.4926193,127.0755689,서울특별시 강남구 개포동 12-4번지 석탑프라자 3층 304호,동물약국업
1114,내자약국,37.5762279,126.97072,서울특별시 종로구 내자동 26 한빛빌딩,동물약국업
1115,테헤란건강약국,37.503538,127.0510801,서울특별시 강남구 대치동 889-72번지 선릉 MT 빌딩 102호,동물약국업
1116,역삼동물약국,37.4944237,127.0395918,서울특별시 강남구 역삼동 797-16번지 ,동물약국업
1117,독수리약국,37.4856021,127.0835726,서울특별시 강남구 일원동 715-1번지 신영프라자 106호,동물약국업
1118,생생온누리약국,37.5240588,127.0287209,서울특별시 강남구 신사동 599번지 압구정빌딩 1층 ,동물약국업
1119,삼성제일약국,37.4913019,127.0877336,서울특별시 강남구 일원동 644-4번지 ,동물약국업
1120,큰길약국,37.4958237,127.0292104,서울특별시 강남구 역삼동 826-23번지 지하1층 ,동물약국업
1121,선릉코코약국,37.5046556,127.0479988,서울특별시 강남구 역삼동 705-18번지 ,동물약국업
1122,별하약국,37.5052783,127.0264493,서울특별시 강남구 논현동 202-19번지 이건빌딩 ,동물약국업
1123,청담온누리약국,37.51989409999999,127.0555635,서울특별시 강남구 청담동 72-1번지 ,동물약국업
1124,신사웰약국,37.5149825,127.0203393,서울특별시 강남구 논현동 17-5 극동빌딩,동물약국업
1125,청담와이약국,37.5252633,127.0471584,서울특별시 강남구 청담동 118-17번지 네이처 포엠 B104호,동물약국업
1126,강남보선약국,37.508861,127.063149,서울특별시 강남구 대치동 990번지 삼성상가 107호,동물약국업
1127,청담별빛약국,37.5189031,127.0493597,서울특별시 강남구 청담동 47-5번지 정한빌딩 103호,동물약국업
1128,올리브약국,37.5165849,127.0412433,서울특별시 강남구 논현동 241-7번지 상경빌딩 ,동물약국업
1129,일번지약국,37.4971279,127.030383,서울특별시 강남구 역삼동 824-11번지 한라클래식오피스텔 ,동물약국업
1130,맑은하늘약국,37.4889348,127.0679352,서울특별시 강남구 개포동 655-4번지 개포동 메디시스빌딩 ,동물약국업
1131,솔빛동양약국,37.4873002,127.051556,서울특별시 강남구 도곡동 467-19번지 현대비전21 110호,동물약국업
1132,수라인 한약국,37.5166391,127.0641514,서울특별시 강남구 삼성동 103-22번지 래미안 삼성1차 APT상가 101-2호,동물약국업
1133,개나리봄약국,37.4991554,127.0483257,서울특별시 강남구 역삼동 755번지 한솔필리아 ,동물약국업
1134,도곡우리약국,37.4953504,127.0527143,서울특별시 강남구 도곡동 527-3번지 도곡렉슬상가 2층 214-1호,동물약국업
1135,도곡명약국,37.4918784,127.0431042,서울특별시 강남구 도곡동 543-7번지 도곡1차 I PARK ,동물약국업
1136,펜타약국,37.5044448,127.0515902,서울특별시 강남구 대치동 890-49번지 선릉역대우아이빌 ,동물약국업
1137,비타약국,37.5061599,127.0340747,서울특별시 강남구 역삼동 606-28번지 ,동물약국업
1138,압구정온누리약국,37.4994804,127.0272748,서울특별시 강남구 신사동 580번지 아세아빌딩 ,동물약국업
1139,강남허브약국,37.5033975,127.0490938,서울특별시 강남구 논현동 241-3번지 에스케이 허브블루 109호,동물약국업
1140,신현대약국,37.5322899,127.0284378,서울특별시 강남구 압구정동 426번지 현대아파트 상가2동 109호,동물약국업
1141,경희서울한약국,37.5228188,127.0262438,서울특별시 강남구 신사동 566-8번지 주은빌딩 101호,동물약국업
1142,베어약국,37.5143876,127.0654559,서울특별시 강남구 삼성동 163-3번지 대웅제약빌딩 ,동물약국업
1143,우리대치약국,37.4933099,127.0619031,서울특별시 강남구 대치동 507번지 윈플러스상가 1층 102호,동물약국업
1144,코스모스약국,37.5179287,127.0193336,서울특별시 강남구 신사동 502번지 ,동물약국업
1145,역삼약국,37.4938919,127.033717,서울특별시 강남구 역삼동 834번지 ,동물약국업
1146,국송약국,37.4907129,127.1000709,서울특별시 강남구 수서동 707-1번지 주공아파트 a 1단지 상가 101호 ,동물약국업
1147,청담비비약국,37.5222104,127.0487464,서울특별시 강남구 청담동 62-24번지 1층 ,동물약국업
1148,선능약국,37.5093208,127.043687,서울특별시 강남구 역삼동 682-17번지 1층 ,동물약국업
1149,장약국,37.51445880000001,127.0332712,서울특별시 강남구 논현동 209번지 삼환아르누보 B109호 ,동물약국업
1150,종원약국,37.50691940000001,127.0262753,서울특별시 강남구 논현동 185번지 ,동물약국업
1151,코코약국,37.4842912,127.0456951,서울특별시 강남구 도곡동 422번지 ,동물약국업
1152,동인프라자약국,37.4879855,127.1017774,서울특별시 강남구 수서동 713번지 현대벤쳐빌 117번지 3호 ,동물약국업
1153,청실약국,37.49311,127.059064,서울특별시 강남구 대치동 626번지 청실상가 113호 ,동물약국업
1154,삼성건강약국,37.5147358,127.0432262,서울특별시 강남구 삼성동 1-3번지 1층 ,동물약국업
1155,역삼동물약국,37.5091845,127.0437936,서울특별시 강남구 역삼동 682-16번지 ,동물약국업
1156,메디팜압구정약국,37.5227209,127.0290916,서울특별시 강남구 신사동 597-4번지 ,동물약국업
1157,중앙약국,37.5247964,127.0392874,서울특별시 강남구 신사동 665-6번지 104호,동물약국업
1158,강남동물약국,37.4947947,127.0402155,서울특별시 강남구 역삼동 776-20번지 준용빌딩 1층 ,동물약국업
1159,해맑은약국,37.4860446,127.0376863,서울특별시 강남구 도곡동 924-5번지 ,동물약국업
1160,압구정스타약국,37.5248302,127.0253728,,동물약국업
1161,테헤란 한서약국,37.5010322,127.0388501,서울특별시 강남구 역삼동 718-1번지 ,동물약국업
1162,더조은약국,37.474172,127.0950243,서울특별시 강남구 자곡동 619번지 B202호 ,동물약국업
1163,수서역약국,37.4873499,127.1018416,서울특별시 강남구 수서동 728번지 수서역 ,동물약국업
1164,더블유수약국,37.528674,127.0360132,서울특별시 강남구 신사동 639-1번지 영진빌딩 ,동물약국업
1165,윈플러스약국,37.49329530000001,127.0618801,서울특별시 강남구 대치동 507번지 윈플러스상가 ,동물약국업
1166,센느약국,37.50234990000001,127.0289721,서울특별시 강남구 역삼동 621-10번지 ,동물약국업
1167,햇빛약국,37.4668211,127.0982957,서울특별시 강남구 자곡동 638번지 세곡드림프라자 ,동물약국업
1168,논현천사약국,37.50761200000001,127.0340254,서울특별시 강남구 논현동 234-28번지 태성빌딩 1층 ,동물약국업
1169,유한약국,37.5089303,127.0266801,서울특별시 강남구 논현동 159-23번지 ,동물약국업
1170,압구정약국,37.5274583,127.0403043,서울특별시 강남구 신사동 664-6번지 ,동물약국업
1171,더블유스토어하이약국,37.495486,127.0293716,서울특별시 강남구 역삼동 826-21번지 1층일부 ,동물약국업
1172,테헤란건강약국,37.5035313,127.0510544,서울특별시 강남구 대치동 889-72번지 102호,동물약국업
1173,청담이화약국,37.5160699,127.0433812,서울특별시 강남구 삼성동 7-3번지 래미안삼성2차아파트 ,동물약국업
1174,건강 온누리 약국,37.5036249,127.0359045,서울특별시 강남구 역삼동 667-16번지 ,동물약국업
1175,도곡메디칼약국,37.4934512,127.0456769,서울특별시 강남구 도곡동 540번지 삼호상가 지하 103호 ,동물약국업
1176,강남프라자약국,37.5165506,127.0384633,서울특별시 강남구 논현동 117-2번지 ,동물약국업
1177,삼성해든약국,37.50866389999999,127.0559972,서울특별시 강남구 삼성동 156-5번지 1층 ,동물약국업
1178,우리온누리약국,37.4930749,127.0584151,서울특별시 강남구 대치동 629-1번지 대치 메디칼센터 1층 1호 ,동물약국업
1179,미플러스약국,37.4781024,127.0461876,서울특별시 강남구 논현동 174-4번지 보람빌딩 지하1층 일부 ,동물약국업
1180,대치참약국,37.4938605,127.0602089,서울특별시 강남구 대치동 622번지 대치 클래시아 205호,동물약국업
1181,센느약국,37.4976251,127.0292526,서울특별시 강남구 역삼동 825-19번지 강남역센트럴푸르지오시티 122호,동물약국업
1182,맑은하늘약국,37.4807801,127.0530065,서울특별시 강남구 개포동 655-4번지 101호,동물약국업
1183,마리약국,37.5216791,127.0278619,서울특별시 강남구 신사동 586번지 1층(신사동 명광빌딩) ,동물약국업
1184,365정화약국,37.6561445,127.061489,서울특별시 노원구 상계동 693-4 동익빌딩 1층 7 8호,동물약국업
1185,늘푸른약국,37.542815,126.9522783,서울특별시 마포구 신공덕동 171 마포케이씨씨웰츠타워,동물약국업
1186,소망약국,37.5637514,127.0202285,서울특별시 중구 신당동 145-3,동물약국업
1187,두루미약국,37.554732,127.154625,서울특별시 강동구 명일동 46-2 고덕역 효성해링턴 타워 더퍼스트,동물약국업
1188,행복약국,37.5321001,126.83156,서울특별시 양천구 신월동 136-8 우영아파트,동물약국업
1189,화인굿모닝약국,37.5861499,126.9464328,서울특별시 서대문구 홍제동 158-33 연세24시사우나,동물약국업
1190,세명당약국,37.4536849,126.9012711,서울특별시 금천구 시흥동 883-18,동물약국업
1191,시티약국,37.5119327,127.1087639,서울특별시 송파구 잠실동 184-1번지 메디씨티 빌딩 ,동물약국업
1192,타워약국,37.5060163,127.0825999,서울특별시 송파구 잠실동 181번지 동신빌딩 105호,동물약국업
1193,송파24약국,37.4811895,127.1237787,서울특별시 송파구 문정동 618번지 파크하비오 202동 161호,동물약국업
1194,월드타워약국,37.5131273,127.1019609,서울특별시 송파구 신천동 29번지 롯데월드타워앤드롯데월드몰 지하1층 ,동물약국업
1195,훼미리 약국,37.4915118,127.1164066,서울특별시 송파구 문정동 150-26번지 훼미리 샤르망 ,동물약국업
1196,방이메디칼약국,37.5125845,127.1195177,서울특별시 송파구 방이동 159-6번지 ,동물약국업
1197,정약국,37.4772984,127.1275686,서울특별시 송파구 장지동 841-4번지 대진플라자2 ,동물약국업
1198,영보약국,37.5037805,127.0889944,서울특별시 송파구 삼전동 28-22번지 두레빌딩 ,동물약국업
1199,우리헬리오약국,37.4976866,127.1066825,서울특별시 송파구 가락동 479번지 헬리오시티 ,동물약국업
1200,시티온누리약국,37.5006861,127.1116886,서울특별시 송파구 송파동 97-39번지 ,동물약국업
1201,모던온누리약국,37.4976866,127.1066825,서울특별시 송파구 가락동 479번지 헬리오시티 ,동물약국업
1202,헬리오이화약국,37.4976866,127.1066825,서울특별시 송파구 가락동 479번지 헬리오시티 ,동물약국업
1203,다정약국,37.5044979,127.1049376,서울특별시 송파구 석촌동 173-8번지 자재백화점 ,동물약국업
1204,다정약국,37.5044979,127.1049376,서울특별시 송파구 석촌동 173-8번지 자재백화점 ,동물약국업
1205,누리약국,37.52050370000001,127.1066833,서울특별시 송파구 신천동 17번지 파크리오 ,동물약국업
1206,세계로 약국,37.498618,127.1471273,서울특별시 송파구 마천동 111-6번지 ,동물약국업
1207,밝은중앙약국,37.5267298,127.1156044,서울특별시 송파구 풍납동 392-13번지 ,동물약국업
1208,개롱약국,37.4979627,127.1341507,서울특별시 송파구 가락동 166-2번지 에스케이허브파크 ,동물약국업
1209,평화약국,37.4919364,127.1127869,서울특별시 송파구 가락동 600번지 가락동 농수산물도매시장 ,동물약국업
1210,제일약국,37.5114778,127.1126195,서울특별시 송파구 방이동 108-11번지 다우빌딩 ,동물약국업
1211,도담약국,37.4961608,127.131049,서울특별시 송파구 가락동 164-19번지 ,동물약국업
1212,환승센터약국,37.5121522,127.1011112,서울특별시 송파구 신천동 28번지 잠실광역환승센터 ,동물약국업
1213,송파제일약국,37.4950463,127.1315121,서울특별시 송파구 가락동 164-24번지 동희빌딩 ,동물약국업
1214,문정우리들 약국,37.4859826,127.1197497,서울특별시 송파구 문정동 643-1번지 엠스테이트 ,동물약국업
1215,메디팜푸른약국,37.49563,127.128207,서울특별시 송파구 가락동 140번지 가락쌍용아파트 ,동물약국업
1216,지용약국,37.5110147,127.1160588,서울특별시 송파구 방이동 142-4번지 성우빌딩 ,동물약국업
1217,365바른약국,37.5007142,127.1066973,서울특별시 송파구 석촌동 273-5번지 ,동물약국업
1218,가까운 새서울약국,37.5307865,127.1122754,서울특별시 송파구 풍납동 271-15번지 ,동물약국업
1219,봄날약국,37.5550952,127.1685346,서울특별시 강동구 상일동 121번지 고덕아르테온아파트(상가2동) 206호,동물약국업
1220,가까운사랑약국,37.5461514,127.1434817,서울특별시 강동구 명일동 346-1번지 삼익빌딩 1층 ,동물약국업
1221,가까운사랑약국,37.5461514,127.1434817,서울특별시 강동구 명일동 346-1번지 삼익빌딩 ,동물약국업
1222,행복한온누리약국,37.555051,127.15411,서울특별시 강동구 명일동 47-12번지 고덕복합빌딩 203호,동물약국업
1223,강동 솔약국,37.5375091,127.1395243,서울특별시 강동구 길동 389-7번지 희헌타워 102호호,동물약국업
1224,경희수약국,37.5522962,127.1557421,서울특별시 강동구 명일동 48-7번지 서희스타힐스 103호,동물약국업
1225,아이파크 약국,37.5589118,127.155157,서울특별시 강동구 고덕동 499번지 고덕아이파크 ,동물약국업
1226,박선영약국,37.5243205,127.1339,서울특별시 강동구 명일동 46번지 이화빌딩 254호,동물약국업
1227,현대제이드약국,37.5261025,127.1242882,서울특별시 강동구 성내동 460-1번지 ,동물약국업
1228,굿모닝약국,37.5300141,127.1313839,,동물약국업
1229,동물약국,37.5248013,127.1345566,서울특별시 강동구 성내동 439-15번지 둔촌메디컬센터 104호 ,동물약국업
1230,다정약국,37.5291279,127.1362456,서울특별시 강동구 성내동 415-8번지 ,동물약국업
1231,편안한약국,37.538274,127.14567,서울특별시 강동구 천호동 447-17번지 강동 헤르셔 20호,동물약국업
1232,강동새경희 약국,37.5527391,127.1554326,서울특별시 강동구 명일동 48-4번지 ,동물약국업
1233,늘온누리약국,37.5626796,127.1742333,서울특별시 강동구 강일동 732번지 리엔타운 101호,동물약국업
1234,대학약국,37.5530029,127.1559027,서울특별시 강동구 명일동 47-19번지 ,동물약국업
1235,라온약국,37.53715469999999,127.1346741,서울특별시 강동구 천호동 155-5번지 강동역두산위브센티움 ,동물약국업
1236,강동동물약국,37.5530029,127.1559027,서울특별시 강동구 명일동 47-19번지 ,동물약국업
1237,우리약국,37.5424849,127.1314275,서울특별시 강동구 천호동 393-43번지 신성빌딩 ,동물약국업
1238,동남 온누리약국,37.5303701,127.1211653,서울특별시 강동구 성내동 553-20번지 ,동물약국업
1239,양지약국,37.5281455,127.1461158,서울특별시 강동구 둔촌동 99-7번지 양지약국 ,동물약국업
1240,강동호원얀국,37.5276451,127.1271239,서울특별시 강동구 성내동 548-5번지 채원자연통합병원빌딩 ,동물약국업
1241,굿모닝약국,37.5300142,127.1313723,서울특별시 강동구 성내동 420-41번지 강동메디컬센터 ,동물약국업
1242,건강플러스약국,37.5655856,127.1738007,서울특별시 강동구 강일동 675-1번지 강일타워 ,동물약국업
1243,리엔약국,37.5523456,127.175784,서울특별시 강동구 상일동 490번지 고덕리엔파크3단지아파트 상가2동 203호,동물약국업
1244,파란약국,37.5248013,127.1345566,서울특별시 강동구 성내동 439-15번지 둔촌메디컬센터 106호 ,동물약국업
1245,동아약국,37.5392918,127.1232819,서울특별시 강동구 천호동 456번지 ,동물약국업
1246,강동태평양약국,37.5263296,127.1351805,서울특별시 강동구 성내동 429번지 ,동물약국업
1247,천사약국,37.5463793,127.1338919,서울특별시 강동구 천호동 293-10번지 ,동물약국업
1248,강동한우리약국,37.5503621,127.1279032,,동물약국업
1249,주양약국,37.5490222,127.1554214,,동물약국업
1250,태극약국,37.5606771,127.1624739,서울특별시 강동구 고덕동 255번지 ,동물약국업
1251,승민약국,37.5333449,127.140079,서울특별시 강동구 둔촌동 425-1번지 ,동물약국업
1252,고려약국,37.5348591,127.1367973,서울특별시 강동구 길동 457-2번지 ,동물약국업
1253,베스트약국,37.5248013,127.1345566,서울특별시 강동구 성내동 439-15번지 ,동물약국업
1254,나눔약국,37.550832,127.1433623,,동물약국업
1255,미리암약국,37.5598849,127.1533531,서울특별시 강동구 고덕동 641-7번지 ,동물약국업
1256,온누리삼선약국,37.5598096,127.1541678,서울특별시 강동구 고덕동 643-5번지 ,동물약국업
1257,시민당약국,37.5392074,127.1461206,서울특별시 강동구 길동 ,동물약국업
1258,길동보룡약국,37.5376246,127.1402323,서울특별시 강동구 길동 390-1번지 1층 ,동물약국업
1259,강동동물약국,37.5422503,127.1308866,서울특별시 강동구 천호동 397-3번지 ,동물약국업
1260,오월애약국,37.535489,127.134836,서울특별시 강동구 길동 445-1번지 ,동물약국업
1261,열린동물약국,37.5470845,127.134092,,동물약국업
1262,강동정문약국,37.5354581,127.1373993,,동물약국업
1263,드림팜약국,37.5654212,127.1742096,,동물약국업
1264,산들약국,37.5563679,127.1419695,서울특별시 강동구 암사동 414-2번지 ,동물약국업
1265,암사역동물약국,37.549608,127.1282854,,동물약국업
1266,우주약국,37.5456582,127.1422439,서울특별시 강동구 천호동 42번지 ,동물약국업
1267,스마일약국,37.55718,127.1689667,서울특별시 강동구 고덕동 210-5번지 ,동물약국업
1268,수빈온누리약국,37.5315417,127.1246229,서울특별시 강동구 성내동 295번지 청구성안마을(아)상가 ,동물약국업
1269,메디칼약국,37.5504364,127.127118,서울특별시 강동구 암사동 502-22번지 ,동물약국업
1270,더바른 동물약국,37.5420483,127.1306276,서울특별시 강동구 천호동 397-25번지 ,동물약국업
1271,햇살약국,37.5519709,127.1544861,서울특별시 강동구 명일동 48-13번지 103호,동물약국업
1272,휴베이스 캐슬약국,37.5552152,127.1403292,서울특별시 강동구 암사동 414-18번지 강동롯데캐슬퍼스트아파트 상가 125호,동물약국업
1273,늘푸른약국,37.5289508,127.1353052,서울특별시 강동구 성내동 416-8번지 ,동물약국업
1274,허브온누리약국,37.5351713,127.1325631,서울특별시 강동구 성내동 194번지 ,동물약국업
1275,뉴욕온누리약국,37.5474096,127.1436984,서울특별시 강동구 명일동 345-6번지 ,동물약국업
1276,스타온누리약국,37.5632814,127.1570594,서울특별시 강동구 고덕동 688번지 래미안힐스테이트고덕 405406407호 ,동물약국업
1277,아이파크약국,37.5589118,127.155157,,동물약국업
1278,라라약국,37.5278613,127.127819,서울특별시 강동구 성내동 542-3번지 ,동물약국업
1279,강남참약국,37.5507078,127.1714072,서울특별시 강동구 상일동 207-1번지 ,동물약국업
1280,선약국,37.55777399999999,127.1639117,서울특별시 강동구 고덕동 212번지 고덕그라시움아파트(상가4동) ,동물약국업
1281,새건영약국,37.4821714,127.1263389,서울특별시 송파구 문정동 71-2 광덕빌딩,동물약국업
1282,노벨온누리약국,37.5991964,126.9153636,서울특별시 은평구 역촌동 85-41 리더스파크 105호,동물약국업
1283,곰돌이스타약국,37.4934306,126.9907258,서울특별시 서초구 방배동 796-27 넥센강남타워,동물약국업
1284,신촌대로 약국,37.556187,126.9392967,서울특별시 서대문구 창천동 20-41 아남오피스텔,동물약국업
1285,대건약국,37.5364749,126.8960215,서울특별시 영등포구 양평동4가 68-1번지 대명빌딩,동물약국업
1286,동호약국,37.50854350000001,127.0665736,서울특별시 강남구 대치동 997-11번지 동남빌딩,동물약국업
1287,나음온누리약국,37.5367433,127.1231193,서울특별시 강동구 성내동 78-11번지 예투빌딩,동물약국업
1288,우성약국,37.6641633,127.0664026,서울특별시 노원구 상계동 456-16번지 우성약국,동물약국업
1289,송천약국,37.6183501,127.0249598,서울특별시 강북구 미아동 707-4번지,동물약국업
1290,정원약국,37.6166193,127.0498172,서울특별시 성북구 장위동 237-82번지,동물약국업
1291,서울혜화약국,37.5820927,127.0015924,서울특별시 종로구 명륜4가 92번지,동물약국업
1292,한티약국,37.4953504,127.0527143,서울특별시 강남구 도곡동 527-3번지 도곡렉슬상가,동물약국업
1293,타워약국,37.5461391,127.0486088,서울특별시 성동구 성수동1가 656-591 서울숲A타워,동물약국업
1294,하이온누리약국,37.5571834,127.0280014,서울특별시 성동구 행당동 347 행당동 대림아파트,동물약국업
1295,장수약국,37.5987268,127.0614049,서울특별시 동대문구 이문동 291-29 아정오피스텔,동물약국업
1296,바른약국,37.5696589,127.0576058,서울특별시 동대문구 답십리동 1012 121호,동물약국업
1297,왕약국,37.4693429,126.9386891,서울특별시 관악구 신림동 241-112,동물약국업
1298,한중약국,37.4594495,126.9052277,서울특별시 금천구 시흥동 803-3,동물약국업
1299,경희정문약국,37.593487,127.0528517,서울특별시 동대문구 회기동 36-7,동물약국업
1300,다올약국,37.59309349999999,127.0179325,서울특별시 성북구 동선동1가 110,동물약국업
1301,케이약국,37.5170609,127.0234592,서울특별시 강남구 논현동 4-20 1층,동물약국업
1302,임약국,37.4825442,126.930171,서울특별시 관악구 신림동 86-3 청암두산위브센티움,동물약국업
1303,나은약국,37.5182784,126.906276,서울특별시 영등포구 영등포동3가 8-1 성남빌딩 B동 104호,동물약국업
1304,진약국,37.562356,127.0355794,서울특별시 성동구 행당동 286-5 한동타워,동물약국업
1305,초록문약국,37.5764888,126.8307466,서울특별시 강서구 마곡동 798-2 류마타워 104호,동물약국업
1306,매일약국,37.4736468,126.9669089,서울특별시 관악구 봉천동 1642-18,동물약국업
1307,메디칼약국,37.54831650000001,127.0693222,서울특별시 광진구 군자동 356-10번지 광진 메디컬센터,동물약국업
1308,별약국,37.6871437,127.0454771,서울특별시 도봉구 도봉동 559-31번지,동물약국업
1309,건대온누리약국,37.540372,127.069276,서울특별시 광진구 화양동 6-3 7호선 건대입구역,동물약국업
1310,튼튼하나약국,37.5727245,127.0690643,서울특별시 동대문구 장안동 294-12,동물약국업
1311,건민약국,37.6248627,127.0717643,서울특별시 노원구 공릉동 400-5 건민약국,동물약국업
1312,한강약국,37.6093871,127.0298281,서울특별시 성북구 길음동 864-18 대양직업전문학교현대스위스저축은행빌딩,동물약국업
1313,송파드림온누리약국,37.49986000000001,127.1031235,서울특별시 송파구 석촌동 251-15,동물약국업
1314,새빛약국,37.6538133,127.0602162,서울특별시 노원구 상계동 731-5 국민은행노원지점,동물약국업
1315,진영약국,37.5403028,127.0886554,서울특별시 광진구 구의동 221-3,동물약국업
1316,조은약국,37.4893411,126.951836,서울특별시 관악구 봉천동 1712-1 관악드림타운아파트,동물약국업
1317,더나은약국,37.5560906,127.081051,서울특별시 광진구 능동 222-2,동물약국업
1318,망원시장약국,37.5553377,126.9070282,서울특별시 마포구 망원동 412-11,동물약국업
1319,튼튼약국,37.5720388,127.1746928,서울특별시 강동구 강일동 76-7 MK프라자 109호,동물약국업
1320,유한약국,37.5114269,127.0822572,서울특별시 송파구 잠실동 181-6 1층 3호 유한약국,동물약국업
1321,발산그랜드약국,37.5594039,126.8389535,서울특별시 강서구 등촌동 674 세민빌딩 1층,동물약국업
1322,행복약국,37.5803766,126.9254028,서울특별시 서대문구 홍은동 409-34,동물약국업
1323,유킹스파머시메디바움약국,37.482719,127.0033651,서울특별시 서초구 서초동 1490-33 상기빌딩,동물약국업
1324,새싹약국,37.474212,126.9337264,서울특별시 관악구 신림동 404-1 영창빌딩,동물약국업
1325,동문약국,37.6357088,127.0700952,서울특별시 노원구 하계동 191,동물약국업
1326,정성약국,37.6511746,127.0764616,서울특별시 노원구 중계동 359-11 성모빌딩 302-1호,동물약국업
1327,에벤에셀온누리약국,37.4504089,126.9098128,서울특별시 금천구 시흥동 912-20 에벤에셀프라자,동물약국업
1328,신사수약국,37.5247342,127.0274998,서울특별시 강남구 신사동 576-7,동물약국업
1329,민트약국,37.5144981,127.0203864,서울특별시 강남구 논현동 18 미혜빌딩,동물약국업
1330,호수약국,37.5060257,127.0989599,서울특별시 송파구 석촌동 24-11,동물약국업
1331,구로참조은약국,37.4857395,126.8858763,서울특별시 구로구 구로동 806-78 시몬빌딩1층,동물약국업
1332,참말로친절한약국,37.651956,127.0615338,서울특별시 노원구 상계동 728-7,동물약국업
1333,2층은약국,37.5098338,126.9639423,서울특별시 동작구 흑석동 1-3 원불교100년기념관,동물약국업
1334,꽃길약국,37.5886127,127.0877757,서울특별시 중랑구 면목동 102-19,동물약국업
1335,관악그랜드약국,37.4715409,126.9334272,서울특별시 관악구 신림동 1513-1,동물약국업
1336,창신사랑온누리약국,37.5768766,127.0152236,서울특별시 종로구 창신동 23-74,동물약국업
1337,광화문약국,37.5736116,126.9742022,서울특별시 종로구 도렴동 60 도렴빌딩,동물약국업
1338,다보약국,37.4881301,127.0087548,서울특별시 서초구 서초동 1538-1,동물약국업
1339,그린약국,37.4797739,126.9557287,서울특별시 관악구 봉천동 927-1 명당빌딩,동물약국업
1340,늘한마음약국,37.65452560000001,127.0629865,서울특별시 노원구 상계동 724-3 고려빌딩 109호,동물약국업
1341,희정약국,37.6861603,127.0479871,서울특별시 도봉구 도봉동 30-1 도봉한신아파트,동물약국업
1342,을지수온누리약국,37.5645675,126.989099,서울특별시 중구 저동2가 70-1,동물약국업
1343,새봄약국,37.5657321,127.0273477,서울특별시 성동구 하왕십리동 1070 센트라스,동물약국업
1344,제인약국,37.5886642,126.9447635,서울특별시 서대문구 홍제동 253-12 제1호,동물약국업
1345,도심공항약국,37.5096517,127.0593385,서울특별시 강남구 삼성동 159-6 한국도심공항터미널 2층 D-1호,동물약국업
1346,시그니처약국,37.5137082,127.1041973,서울특별시 송파구 신천동 29 롯데월드타워앤드롯데월드몰,동물약국업
1347,김약국,37.5132073,126.9417246,서울특별시 동작구 노량진동 114-5 한주실업,동물약국업
1348,장수천 약국,37.5226505,126.9102022,서울특별시 영등포구 영등포동2가 94-259,동물약국업
1349,파마트열린약국,37.6581169,127.0325037,서울특별시 도봉구 쌍문동 210,동물약국업
1350,신사온누리약국,37.5153751,127.0201613,서울특별시 강남구 논현동 17 동신빌딩 1층,동물약국업
1351,왕성약국,37.51108000000001,127.0226118,서울특별시 강남구 논현동 121 1층,동물약국업
1352,부광약국,37.6452764,127.0474327,서울특별시 도봉구 창동 38-1 주공아파트,동물약국업
1353,타임약국,37.5033975,127.0490938,서울특별시 강남구 역삼동 708-26 에스케이허브오피스텔 1층,동물약국업
1354,화양백화점약국,37.5483939,127.0689754,서울특별시 광진구 군자동 356-6,동물약국업
1355,자연애약국,37.5122834,127.0517546,서울특별시 강남구 삼성동 117 쌍용 플래티넘 105호,동물약국업
1356,밸런스약국,37.5619185,126.826919,서울특별시 강서구 마곡동 797 107호,동물약국업
1357,트리플약국,37.516159,127.020635,서울특별시 강남구 논현동 1-3 1층,동물약국업
1358,이태원수약국,37.5338365,126.9939277,서울특별시 용산구 이태원동 130-1,동물약국업
1359,라온약국,37.5070431,126.8902185,서울특별시 구로구 구로동 3-25 신도림테크노마트 사무동 1001호,동물약국업
1360,늘좋은약국,37.5553989,127.0787823,서울특별시 광진구 능동 279-8,동물약국업
1361,스타약국,37.5999545,126.9322622,서울특별시 은평구 응암동 36 녹번역e편한세상캐슬아파트 A동 118호,동물약국업
1362,에스약국,37.4881301,127.0087548,서울특별시 서초구 서초동 1538-1,동물약국업
1363,밝은온누리약국,37.58706189999999,127.080209,서울특별시 중랑구 면목동 146-73 덕천빌딩,동물약국업
1364,대우약국,37.4803813,126.8415075,서울특별시 구로구 천왕동 279-3 골드프라자 1층 104호,동물약국업
1365,은혜온누리약국,37.4907121,127.0559918,서울특별시 강남구 대치동 500 그랑프리엔 117호,동물약국업
1366,한길약국,37.55481570000001,127.0708497,서울특별시 성동구 송정동 87-15 건국빌딩,동물약국업
1367,라온약국,37.5111158,127.098167,서울특별시 송파구 잠실동 40-1 롯데월드,동물약국업
1368,메디팜숲약국,37.4796854,127.0387994,서울특별시 서초구 양재동 20-19 고원빌딩,동물약국업
1369,인헌연세약국,37.4750811,126.9667851,서울특별시 관악구 봉천동 1656-28,동물약국업
1370,이층엔약국,37.474172,127.0950243,서울특별시 강남구 자곡동 596 강남 더샵 라르고 2층 210호,동물약국업
1371,그린팜약국,37.5408461,127.1239283,서울특별시 강동구 천호동 432-2 대일빌딩,동물약국업
1372,수성약국,37.53531419999999,126.8994749,서울특별시 영등포구 당산동6가 339-4,동물약국업
1373,올리브약국,37.5500497,126.8641791,서울특별시 양천구 목동 606-14 동향빌딩 1층,동물약국업
1374,해솔약국,37.4974023,126.8630938,서울특별시 구로구 고척동 73-3 일이삼전자타운 2동 120호,동물약국업
1375,방배대한약국,37.4869655,126.9827324,서울특별시 서초구 방배동 1549 방배동예다인프라자빌딩,동물약국업
1376,약손메디칼약국,37.4958226,127.0527142,서울특별시 강남구 도곡동 538-1 진달래상가 1층,동물약국업
1377,행복나무약국,37.5400041,127.1279684,서울특별시 강동구 천호동 408-12,동물약국업
1378,다올약국,37.5950553,127.0985873,서울특별시 중랑구 망우동 460-27,동물약국업
1379,스타약국,37.4764496,126.9643028,서울특별시 관악구 봉천동 1658-16,동물약국업
1380,아이약국,37.5196816,127.0501417,서울특별시 강남구 청담동 76-1 지하1층,동물약국업
1381,온유약국,37.5247576,126.9168678,서울특별시 영등포구 여의도동 18 한국방송공사,동물약국업
1382,참조아약국,37.6153431,127.0766463,서울특별시 중랑구 묵동 169-12 로프트원 태릉입구역,동물약국업
1383,새우리약국,37.5294537,126.8483999,서울특별시 구로구 개봉동 403-206 강서프라자 2층,동물약국업
1384,참온누리약국,37.4803813,126.8415075,서울특별시 구로구 천왕동 282-2 랑데르 b108호,동물약국업
1385,정광약국,37.4941792,126.8583787,서울특별시 구로구 개봉동 203-6,동물약국업
1386,기쁜약국,37.5029895,127.1278734,서울특별시 송파구 오금동 618-1 퍼스트 스퀘어,동물약국업
1387,새솔약국,37.6373881,127.0254629,서울특별시 강북구 번동 446-24 홍승빌딩,동물약국업
1388,백온누리약국,37.5686408,127.0829741,서울특별시 광진구 중곡동 198-4,동물약국업
1389,강동성실약국,37.52124999999999,126.8865159,서울특별시 강동구 길동 416-15 강동투웨니퍼스트 101호,동물약국업
1390,서울남부백화점약국,37.5330576,126.8589924,서울특별시 강서구 화곡동 830-1,동물약국업
1391,이레약국,37.6114005,126.929435,서울특별시 은평구 불광동 274-11,동물약국업
1392,종로광명약국,37.5507552,127.1717462,서울특별시 강동구 상일동 223,동물약국업
1393,동행약국,37.4611632,126.8971642,서울특별시 금천구 독산동 1155 금천롯데캐슬골드파크3차,동물약국업
1394,복지약국,37.5705001,127.048076,서울특별시 동대문구 답십리동 465-24,동물약국업
1395,가정온누리약국,37.6098916,127.0329352,서울특별시 성북구 하월곡동 81-470 신일의원,동물약국업
1396,부부정약국,37.5350961,126.8999555,서울특별시 영등포구 당산동6가 338-1 한경빌딩,동물약국업
1397,큰길약국,37.4958237,127.0292104,서울특별시 강남구 역삼동 826-23 지하1층,동물약국업
1398,삼양약국,37.6248116,127.0210646,서울특별시 강북구 미아동 773-10,동물약국업
1399,이로운 약국,37.4953323,127.0303725,서울특별시 강남구 역삼동 826-37 쌍용플래티넘밸류 b140호,동물약국업
1400,그랜드온누리약국,37.56259240000001,127.0657389,서울특별시 동대문구 장안동 433-6 혜성클리닉,동물약국업
1401,역삼우주약국,37.502142,127.040164,서울특별시 강남구 역삼동 719-24 역삼역센트럴푸르지오 B106호,동물약국업
1402,해동온누리약국,37.558749,127.0874835,서울특별시 광진구 중곡동 124-8 해동상가,동물약국업
1403,혜민약국,37.6222725,127.0269499,서울특별시 강북구 미아동 317-12,동물약국업
1404,라미약국,37.5102945,127.0799681,서울특별시 송파구 잠실동 194 잠실아이파크,동물약국업
1405,샛별약국,37.4853898,127.0371599,서울특별시 강남구 도곡동 959-22 1층,동물약국업
1406,이층약국,37.5981125,126.9456866,서울특별시 서대문구 홍은동 19-19 북한산 두산 위브,동물약국업
1407,옵티마기쁨약국,37.55150769999999,127.1277099,서울특별시 강동구 암사동 503-23 태성프라자 102호,동물약국업
1408,센터피스정약국,37.6103982,127.0275509,서울특별시 성북구 길음동 498-1 래미안길음센터피스,동물약국업
1409,월곡플러스약국,37.6018094,127.0403791,서울특별시 성북구 하월곡동 46-73 코업스타클래스,동물약국업
1410,강남봄약국,37.4932619,127.0322652,서울특별시 강남구 역삼동 833 1층,동물약국업
1411,참소망약국,37.51593200000001,127.1320277,서울특별시 송파구 방이동 89-11 올림픽프라자,동물약국업
1412,홀리데이약국,37.6009582,127.0331516,서울특별시 성북구 종암동 3-1343,동물약국업
1413,새종로약국,37.4775008,126.9156531,서울특별시 관악구 신림동 1680-24,동물약국업
1414,마곡메디칼약국,37.5671466,126.8187166,서울특별시 강서구 마곡동 739-3 에스비타운,동물약국업
1415,큰덕약국,37.5519393,126.8354331,서울특별시 강서구 내발산동 700-24,동물약국업
1416,모범약국,37.5772302,126.9232234,서울특별시 서대문구 남가좌동 345-3,동물약국업
1417,쌍문상록수약국,37.6584113,127.0325759,서울특별시 도봉구 쌍문동 215-1,동물약국업
1418,압구정프라자약국,37.5252994,127.028074,서울특별시 강남구 신사동 582-10 계룡빌딩 1층,동물약국업
1419,굿모닝약국,37.4906855,126.8557282,서울특별시 구로구 개봉동 403-103 1층,동물약국업
1420,행운약국,37.5230285,127.0285876,서울특별시 강남구 신사동 598-6 삼신빌딩 1층 102호,동물약국업
1421,쉐르빌약국,37.5331542,126.9005585,서울특별시 영등포구 당산동5가 9-2 당산 삼성쉐르빌,동물약국업
1422,달약국,37.5602518,126.8332592,서울특별시 강서구 마곡동 797-7 퀸즈파크텐,동물약국업
1423,파크온누리약국,37.551265,127.0892451,서울특별시 광진구 구의동 76-1,동물약국업
1424,초원약국,37.5762827,126.9722852,서울특별시 종로구 내자동 67-1,동물약국업
1425,밝은온누리약국,37.558653,126.8532512,서울특별시 강서구 등촌동 719 경남파크빌 1동 102호,동물약국업
1426,설약국,37.559825,126.834668,서울특별시 강서구 마곡동 796-6 지투프라자,동물약국업
1427,약사랑약국,37.5047396,127.0485904,서울특별시 강남구 역삼동 705-30 1층,동물약국업
1428,참약국,37.5140399,126.9060058,서울특별시 영등포구 영등포동 618-264 금영빌딩,동물약국업
1429,우리사랑약국,37.5997797,126.9200854,서울특별시 은평구 응암동 110-9 메트로럭스주상복합APT 103호,동물약국업
1430,모아약국,37.6033721,127.0416697,서울특별시 성북구 하월곡동 27-24,동물약국업
1431,강북우리약국,37.6423671,127.0228999,서울특별시 강북구 수유동 188-2,동물약국업
1432,제이약국,37.5834599,127.0831625,서울특별시 중랑구 면목동 156-5 메디포레,동물약국업
1433,늘픔약국,37.45669,127.059976,서울특별시 서초구 내곡동 342-1 내곡플라자,동물약국업
1434,종로엔약국,37.570436,126.9846886,서울특별시 종로구 종로2가 8-4,동물약국업
1435,인화약국,37.5108466,126.9450577,서울특별시 동작구 노량진동 330 삼익주상복합아파트 102호,동물약국업
1436,해피약국,37.4953547,127.0286197,서울특별시 서초구 서초동 1328-7 대우도씨에빛,동물약국업
1437,봉약국,37.5599737,126.8291801,서울특별시 강서구 마곡동 773-3 힐스테이트에코동익 123호,동물약국업
1438,성모자이약국,37.6347055,126.9177194,서울특별시 은평구 진관동 62 은평스카이뷰자이 129호,동물약국업
1439,오성약국,37.6053732,127.0957775,서울특별시 중랑구 신내동 563-3 원빌딩,동물약국업
1440,늘온누리약국,37.5626796,127.1742333,서울특별시 강동구 강일동 732 리엔타운 101호,동물약국업
1441,새한약국,37.6150853,127.0295465,서울특별시 강북구 미아동 62-28 새한메디컬빌딩 102호,동물약국업
1442,마들소아약국,37.6660832,127.0592794,서울특별시 노원구 상계동 649 12단지 종합상가 201호,동물약국업
1443,서울S약국,37.50832219999999,127.1162077,서울특별시 송파구 방이동 124-11 대연빌딩,동물약국업
1444,한울약국,37.598081,127.0905951,서울특별시 중랑구 상봉동 500 상봉 프레미어스 엠코,동물약국업
1445,1층엔약국,37.5177866,127.0194286,서울특별시 강남구 신사동 502-6 ICT TOWER 1층,동물약국업
1446,이펜약국,37.5133702,126.829922,서울특별시 양천구 신정동 1320-4 이펜하우스타워 105호,동물약국업
1447,밝은현대약국,37.6398578,127.029236,서울특별시 강북구 번동 462-23,동물약국업
1448,봄봄약국,37.5055173,127.0271316,서울특별시 강남구 논현동 158-33 논현동에스씨주택 1층,동물약국업
1449,메디컬2층약국,37.4734919,127.0499929,서울특별시 강남구 개포동 1239-17 문화빌딩 2층,동물약국업
1450,해봄약국,37.5663957,126.965443,서울특별시 서대문구 충정로2가 2-2 충정빌딩,동물약국업
1451,동호일층약국,37.6129198,127.0767919,서울특별시 중랑구 묵동 238-8 하태윤산부인과,동물약국업
1452,중앙프라자약국,37.59224590000001,127.015688,서울특별시 성북구 동소문동5가 65,동물약국업
1453,안녕약국,37.5815202,126.8891184,서울특별시 마포구 상암동 1596 상암DMC푸르지오시티 S-City,동물약국업
1454,다해약국,37.4515194,126.9079518,서울특별시 금천구 시흥동 836-35,동물약국업
1455,강남웰약국,37.5012103,127.0266055,서울특별시 강남구 역삼동 815 점프밀라노 1층,동물약국업
1456,밝은약국,37.6107325,126.9288012,서울특별시 은평구 대조동 12-12,동물약국업
1457,상아약국,37.642443,127.0236296,서울특별시 강북구 미아동 322-1 광명빌딩,동물약국업
1458,레몬약국,37.5927053,126.9416772,서울특별시 서대문구 홍은동 464 북한산 더샵,동물약국업
1459,서울숲팜프라자약국,37.5418544,127.044989,서울특별시 성동구 성수동1가 656-335,동물약국업
1460,봄빛약국,37.5293439,126.9198374,서울특별시 영등포구 여의도동 14-27 대산빌딩 101호,동물약국업
1461,종로프라자약국,37.5294444,126.9655556,서울특별시 용산구 한강로3가 40-999 이마트용산점 지하2층,동물약국업
1462,굿모닝 약국,37.5022336,127.1375191,서울특별시 송파구 가락동 174-14 유니팜코리아,동물약국업
1463,강빛약국,37.5526158,127.1559614,서울특별시 강동구 강일동 76-11 성산타워,동물약국업
1464,연신내영재약국,37.6190212,126.9225779,서울특별시 은평구 불광동 308-10 타워크리닉 105호,동물약국업
1465,리즈약국,37.4869397,127.0111616,서울특별시 서초구 서초동 1582-3 서초센트럴IPARK,동물약국업
1466,메디홈약국,37.486793,126.889897,서울특별시 동작구 상도동 365-2 동서남북빌딩,동물약국업
1467,벚꽃약국,37.5249367,126.9252845,서울특별시 영등포구 여의도동 23 서울 국제금융 센터,동물약국업
1468,해솔약국,37.4974023,126.8630938,서울특별시 구로구 고척동 73-3 일이삼전자타운 2동 120호,동물약국업
1469,온누리엄마손약국,37.50392799999999,127.1078478,서울특별시 송파구 석촌동 290-8,동물약국업
1470,종로약국,37.5814507,127.0887598,서울특별시 중랑구 면목동 634-2 삼성종합프라자,동물약국업
1471,생각하는약국,37.4537632,127.0599639,서울특별시 서초구 내곡동 391 내곡 SH 플라자,동물약국업
1472,1층엔약국,37.5174494,127.0196713,서울특별시 강남구 신사동 502-6 ICT TOWER,동물약국업
1473,늘푸른약국,37.6021132,127.0789892,서울특별시 중랑구 중화동 305-38,동물약국업
1474,엘약국,37.6035543,126.9352994,서울특별시 은평구 녹번동 19-121 은평 미드스퀘어 109호,동물약국업
1475,메디팜건강약국,37.582862,126.8945103,서울특별시 은평구 수색동 366-3,동물약국업
1476,힐스테이트솔약국,37.5467999,126.8401539,서울특별시 강서구 화곡동 1165-1 강서힐스테이트 상가동 1동 151호,동물약국업
1477,파인약국,37.5568117,126.9318236,서울특별시 서대문구 창천동 72-81,동물약국업
1478,참좋은약국,37.5000968,126.8841195,서울특별시 구로구 구로동 501 신구로자이나인스에비뉴,동물약국업
1479,정릉아름드리약국,37.6073292,127.0100914,서울특별시 성북구 정릉동 408-3,동물약국업
1480,강동포도약국,37.5367598,127.1347602,서울특별시 강동구 천호동 157-3,동물약국업
1481,삼성온누리약국,37.5080019,127.0627646,서울특별시 강남구 대치동 946-1 글라스타워빌딩,동물약국업
1482,코끼리약국,37.5093557,127.0858987,서울특별시 송파구 잠실동 208-7,동물약국업
1483,공덕오거리약국,37.5376491,126.9501677,서울특별시 마포구 도화동 568,동물약국업
1484,한국약국,37.5185268,126.9806796,서울특별시 용산구 이촌동 301-160 현대아파트 21동 112-1호,동물약국업
1485,정다운약국,37.5731101,127.0150966,서울특별시 종로구 창신동 290,동물약국업
1486,메디칼하나약국,37.5556478,127.0114037,서울특별시 중구 신당동 369-22 덕영빌딩,동물약국업
1487,서초민트약국,37.4918109,127.0270392,서울특별시 서초구 서초동 1336-1 리더스원 상가,동물약국업
1488,신반포온누리약국,37.5044317,127.0008024,서울특별시 서초구 반포동 18-3 래미안퍼스티지 중심상가,동물약국업
1489,밝은미소약국,37.4853062,126.9699845,서울특별시 동작구 사당동 252-17 서림빌딩 108호,동물약국업
1490,담주미즈약국,37.5377196,127.127556,서울특별시 강동구 천호동 453-12,동물약국업
1491,아카데미약국,37.4912431,126.9240825,서울특별시 동작구 신대방동 395-69 보라매아카데미타워 515호,동물약국업
1492,미소진약국,37.5120464,127.0841726,서울특별시 송파구 잠실동 19-9 잠실파인애플상가,동물약국업
1493,바다약국,37.5800144,127.0440931,서울특별시 동대문구 청량리동 758,동물약국업
1494,더튼튼약국,37.6518028,127.046587,서울특별시 도봉구 창동 75-13,동물약국업
1495,자연약국,37.5534645,126.9532309,서울특별시 마포구 아현동 777 마포 래미안 푸르지오,동물약국업
1496,새봄약국,37.58004529999999,127.0436862,서울특별시 동대문구 청량리동 761 105호,동물약국업
1497,포레약국,37.5172519,127.0233424,서울특별시 강남구 논현동 5-1,동물약국업
1498,경희제일약국,37.5932278,127.0522073,서울특별시 동대문구 회기동 108-6,동물약국업
1499,메디칼약국,37.4843507,126.9953868,서울특별시 서초구 방배동 925-10 방배병원,동물약국업
1500,아너힐즈약국,37.4844006,127.0682439,서울특별시 강남구 개포동 1281 디에이치아너힐즈 상가동 113호,동물약국업
1501,건강과행복이열리는약국,37.6492209,127.0769575,서울특별시 노원구 중계동 364-19 삼부프라자 113 114호,동물약국업
1502,관악소망약국,37.4811843,126.9483482,서울특별시 관악구 봉천동 1600-1 C.S타워,동물약국업
1503,약나라약국,37.443308,126.9041373,서울특별시 금천구 시흥동 940-3,동물약국업
1504,시장약국,37.5440629,126.8438999,서울특별시 강서구 화곡동 110-65 삼영빌딩,동물약국업
1505,잠실착한약국,37.51460489999999,127.1042549,서울특별시 송파구 신천동 8 잠실역2호선,동물약국업
1506,프라자약국,37.4862663,126.9454472,서울특별시 관악구 봉천동 1708 두산아파트 에이상가,동물약국업
1507,인헌온누리약국,37.473855,126.9669241,서울특별시 관악구 봉천동 1642-16 영빌딩,동물약국업
1508,서초사랑약국,37.4918109,127.0270392,서울특별시 서초구 서초동 1336-1 리더스원 상가,동물약국업
1509,자이수약국,37.5065936,127.0139319,서울특별시 서초구 반포동 20-51 베리타스타운,동물약국업
1510,평화약국,37.5891163,127.0876439,서울특별시 중랑구 면목동 121-23,동물약국업
1511,다정온누리약국,37.5760603,126.9155865,서울특별시 서대문구 남가좌동 381 DMC센트레빌,동물약국업
1512,동대문동물약국,37.568063,127.0084776,서울특별시 중구 을지로6가 18-185 밀리오레상가건물,동물약국업
1513,열린약국,37.51212719999999,127.1121802,서울특별시 송파구 송파동 103-27 동우빌딩,동물약국업
1514,바른약국,37.557756,126.8606757,서울특별시 강서구 등촌동 630-12 강서메디칼센터,동물약국업
1515,구름약국,37.5254244,127.0273947,서울특별시 강남구 신사동 577-6,동물약국업
1516,두리약국,37.4960445,127.0401599,서울특별시 강남구 일원동 684 남경빌딩,동물약국업
1517,약산약국,37.5067946,127.1156245,서울특별시 송파구 송파동 143-6 오성빌딩,동물약국업
1518,삼성도담약국,37.5125731,127.0508008,서울특별시 강남구 삼성동 49-12,동물약국업
1519,금강약국,37.5302482,127.0351314,서울특별시 강남구 압구정동 426 현대아파트,동물약국업
1520,사랑플러스약국,37.4953504,127.0527143,서울특별시 강남구 도곡동 527-3 도곡렉슬상가,동물약국업
1521,천사약국,37.57740820000001,127.0366238,서울특별시 동대문구 용두동 52-8,동물약국업
1522,일층가락약국,37.4919364,127.1127869,서울특별시 송파구 가락동 600 가락동 농수산물도매시장,동물약국업
1523,한신약국,37.586803,127.0414462,서울특별시 동대문구 청량리동 520-47,동물약국업
1524,종로성지약국,37.570436,126.992148,서울특별시 종로구 묘동 20-5 3호선 종로3가역,동물약국업
1525,정한약국,37.5128454,126.9281307,서울특별시 동작구 대방동 339-15 1층,동물약국업
1526,청계동물약국,37.5687425,126.9787924,서울특별시 중구 무교동 77 한국정보화진흥원,동물약국업
1527,정문약국,37.6138518,127.0977488,서울특별시 중랑구 신내동 315-3,동물약국업
1528,애플약국,37.5410824,127.0636913,서울특별시 광진구 광장동 470-10 은석빌딩 1층,동물약국업
1529,백세당약국,37.5776948,126.9102269,서울특별시 서대문구 북가좌동 306-17 서부프라자빌딩,동물약국업
1530,조이약국,37.5614819,126.9962285,서울특별시 중구 충무로4가 116-10,동물약국업
1531,아파트엠약국,37.572755,127.056505,서울특별시 동대문구 용두동 779 신동아종합상가 111호,동물약국업
1532,내곡숲약국,37.447724,127.055933,서울특별시 서초구 내곡동 376 서울영동농협종합시설,동물약국업
1533,성환약국,37.6025176,126.9184016,서울특별시 은평구 역촌동 37-1,동물약국업
1534,교보약국,37.4812977,126.9534075,서울특별시 관악구 봉천동 858-7,동물약국업
1535,연세정약국,37.6117655,127.0582571,서울특별시 성북구 장위동 65-177 대영치과,동물약국업
1536,무궁화약국,37.63802769999999,127.0706807,서울특별시 노원구 하계동 283 한성여객(주) 1층,동물약국업
1537,신동아약국,37.626501,127.061849,서울특별시 노원구 월계동 333-1 월계이마트 2층,동물약국업
1538,명일마트종로약국,37.5546516,127.1557517,서울특별시 강동구 명일동 46-4 신세계이마트명일점,동물약국업
1539,한스약국,37.4860195,127.1159256,서울특별시 송파구 문정동 640-3 한스빌딩,동물약국업
1540,가락약국,37.49479609999999,127.1170136,서울특별시 송파구 가락동 96-12 신흥빌딩,동물약국업
1541,센트럴약국,37.4818265,126.9970214,서울특별시 서초구 방배동 909-6 방배센트럴빌딩,동물약국업
1542,이담약국,37.4987132,127.0520404,서울특별시 강남구 대치동 922,동물약국업
1543,강동태평양약국,37.5263296,127.1351805,서울특별시 강동구 성내동 429,동물약국업
1544,옆집약국,37.5727219,127.0235637,서울특별시 동대문구 신설동 114-25 106호,동물약국업
1545,이레약국,37.6114005,126.929435,서울특별시 은평구 불광동 274-11,동물약국업
1546,미라클약국,37.5024328,127.0466313,서울특별시 강남구 역삼동 709-5 테헤란아이파크,동물약국업
1547,다온약국,37.5296943,126.9244978,서울특별시 영등포구 여의도동 12-3,동물약국업
1548,왕온누리약국,37.5220495,126.9055286,서울특별시 영등포구 영등포동5가 38-1,동물약국업
1549,봄약국,37.5450985,126.9487739,서울특별시 마포구 공덕동 385-65 공덕SK리더스뷰,동물약국업
1550,정다운약국,37.63115310000001,127.0577021,서울특별시 노원구 월계동 951 월계센트럴아이파크아파트 상가동 204호,동물약국업
1551,황약국,37.4508532,126.9024524,서울특별시 금천구 시흥동 903-2 새마빌딩 1층,동물약국업
1552,도곡명약국,37.4918784,127.0431042,서울특별시 강남구 도곡동 543-7 도곡1차 I PARK,동물약국업
1553,늘푸른약국,37.4832381,126.9045624,서울특별시 관악구 신림동 1514 조홍빌딩,동물약국업
1554,신명성약국,37.4987062,126.9985599,서울특별시 서초구 반포동 92-12,동물약국업
1555,평화약국,37.6092807,126.9275852,서울특별시 은평구 대조동 14-64,동물약국업
1556,봄날약국,37.5785148,127.04339,서울특별시 동대문구 전농동 622-1 A호,동물약국업
1557,정화약국,37.5809284,127.0446905,서울특별시 동대문구 청량리동 742,동물약국업
1558,필약국,37.4843395,126.9290673,서울특별시 관악구 신림동 1433-44,동물약국업
1559,메트로약국,37.477699,127.126274,서울특별시 송파구 장지동 201-5 장지역,동물약국업
1560,8번가위드팜약국,37.5630902,126.9431675,서울특별시 서대문구 대신동 50-5 석란,동물약국업
1561,백화점약국,37.6405569,127.0295544,서울특별시 강북구 번동 464-14,동물약국업
1562,늘푸른약국,37.6066165,127.0610244,서울특별시 성북구 석관동 332-577 씨티홈,동물약국업
1563,백세365약국,37.558579,126.8259742,서울특별시 강서구 마곡동 798-11 문영 퀸즈파크13,동물약국업
1564,사당역약국,37.4768251,126.9815833,서울특별시 동작구 사당동 588-44 사당역(4호선),동물약국업
1565,경희정문약국,37.593487,127.0528517,서울특별시 동대문구 회기동 36-7,동물약국업
1566,우리 이 약국,37.5539523,126.9366684,서울특별시 마포구 노고산동 107-17 우정마샹스 오피스텔,동물약국업
1567,강서보건약국,37.5764888,126.8307466,서울특별시 강서구 마곡동 737,동물약국업
1568,햇님약국,37.5572565,127.0822093,서울특별시 광진구 중곡동 142-17,동물약국업
1569,수려한 약국,37.5647561,126.9118649,서울특별시 마포구 성산동 56-1 씨에스타워,동물약국업
1570,새부산약국,37.6152839,127.0520509,서울특별시 성북구 장위동 75-306,동물약국업
1571,구로2호선약국,37.4849804,126.90122,서울특별시 구로구 구로동 810-3 구로디지털단지역,동물약국업
1572,쉼표약국,37.51460489999999,127.1042549,서울특별시 송파구 신천동 8 잠실역2호선,동물약국업
1573,태평양온누리약국,37.5212075,126.8558538,서울특별시 양천구 신정동 1028-2,동물약국업
1574,고은약국,37.486825,127.1272628,서울특별시 송파구 문정동 19 문정푸르지오아파트,동물약국업
1575,백수약국,37.5712428,127.0037726,서울특별시 종로구 종로5가 42-1 신화빌딩,동물약국업
1576,서울약국,37.4881305,127.1318734,서울특별시 송파구 문정동 116-6 공원빌딩,동물약국업
1577,대동약국,37.5044216,127.1143023,서울특별시 송파구 송파동 122-2,동물약국업
1578,종근당약국,37.5707431,127.0032834,서울특별시 종로구 종로5가 193-20,동물약국업
1579,마프자서울약국,37.5542434,126.9469319,서울특별시 마포구 염리동 14-149,동물약국업
1580,1층메디컬약국,37.4530195,126.9016468,서울특별시 금천구 시흥동 889-8 비즈메드빌딩 102호,동물약국업
1581,오층조은약국,37.49563,127.128207,서울특별시 송파구 가락동 140 가락쌍용아파트,동물약국업
1582,쌍문마이팜약국,37.6615025,127.0413853,서울특별시 도봉구 쌍문동 707-4 한빛빌딩,동물약국업
1583,문정건강약국,37.4796661,127.1261724,서울특별시 송파구 문정동 74-7 선도빌딩,동물약국업
1584,송파그랜드약국,37.4849641,127.126013,서울특별시 송파구 문정동 64 동산빌딩,동물약국업
1585,프리마약국,37.5071827,127.0741841,서울특별시 송파구 잠실동 101-1 우성아파트 상가,동물약국업
1586,보령약국,37.5713013,127.0004652,서울특별시 종로구 종로5가 103,동물약국업
1587,미라클약국,37.5416489,126.9724985,서울특별시 용산구 갈월동 101-49 고려에이트리움 109호,동물약국업
1588,광주약국,37.5582439,126.9775741,서울특별시 중구 남창동 47-12 남일물산,동물약국업
1589,용산파크약국,37.5261308,126.9675217,서울특별시 용산구 한강로3가 63-70 용산센트럴파크 해링턴스퀘어 몰D 104동 2층 50호,동물약국업
1590,건대역2번출구약국,37.540372,127.069276,서울특별시 광진구 화양동 7-3 2호선 건대입구역,동물약국업
1591,수유파랑새약국,37.6452328,127.0153586,서울특별시 강북구 수유동 319-13,동물약국업
1592,삼평약국,37.5000699,126.9316704,서울특별시 동작구 상도동 324-1 성대시장 203호,동물약국업
1593,봄약국,37.4662108,126.8870784,서울특별시 금천구 가산동 691-3 더루벤스밸리 208-1호,동물약국업
1594,해맑은약국,37.5886842,126.9171321,서울특별시 은평구 응암동 601-66,동물약국업
1595,온누리새소망약국,37.5865949,126.9003323,서울특별시 은평구 수색동 415-1 대림한숲타운아파트,동물약국업
1596,엘크루약국,37.4758516,127.1393439,서울특별시 송파구 장지동 901 위례24단지,동물약국업
1597,삼전다정약국,37.5044638,127.0885687,서울특별시 송파구 삼전동 7-6 SM76(순명빌딩),동물약국업
1598,올바른약국,37.50362399999999,127.0895086,서울특별시 송파구 삼전동 48 경인빌딩,동물약국업
1599,나라약국,37.5446601,126.970033,서울특별시 용산구 청파동3가 21-9 102호,동물약국업
1600,늘조은온누리약국,37.5103522,127.1080974,서울특별시 송파구 가락동 189-13 용진빌딩,동물약국업
1601,압구정웰약국,37.5232185,127.0276994,서울특별시 강남구 신사동 584-1 유림아트홀,동물약국업
1602,마곡열린약국,37.5748627,126.8304596,서울특별시 강서구 마곡동 739-1 마곡더블유타워,동물약국업
1603,성수약국,37.5440067,127.0566082,서울특별시 성동구 성수동2가 315-1,동물약국업
1604,초롱약국,37.6520212,127.0460821,서울특별시 도봉구 창동 331-2 중앙빌딩,동물약국업
1605,엘크루약국,37.54017959999999,127.1244282,서울특별시 강동구 천호동 427-3 천호엘크루주상복합 112호,동물약국업
1606,가양종로약국,37.56255489999999,126.851679,서울특별시 강서구 등촌동 65-20,동물약국업
1607,성산연세약국,37.5705638,126.9037708,서울특별시 마포구 중동 64-23,동물약국업
1608,진약국,37.6015202,126.9359188,서울특별시 은평구 녹번동 282 힐스테이트녹번 상가동 106호,동물약국업
1609,중앙약국,37.5673767,126.9656644,서울특별시 종로구 교남동 7,동물약국업
1610,신수정약국,37.5402894,127.0557127,서울특별시 성동구 성수동2가 232-1 영화빌딩,동물약국업
1611,유명약국,37.62602,127.0789469,서울특별시 노원구 공릉동 441-145 용마빌딩 105호,동물약국업
1612,바른메디칼약국,37.5504364,127.127118,서울특별시 강동구 암사동 502-22 이에스타워,동물약국업
1613,건강샘약국,37.5028869,127.0972502,서울특별시 송파구 석촌동 14-7,동물약국업
1614,센느약국,37.5082306,127.0231252,서울특별시 강남구 논현동 164-2 제아메디컬빌딩,동물약국업
1615,하늘약국,37.5021559,127.0972931,서울특별시 송파구 석촌동 210 공익빌딩,동물약국업
1616,고래약국,37.5551357,126.9368898,서울특별시 마포구 노고산동 31-11 신촌역,동물약국업
1617,세곡온누리약국,37.46927120000001,127.1073203,서울특별시 강남구 세곡동 594,동물약국업
1618,버드나무약국,37.52605,126.87379,서울특별시 양천구 목동 406-30 오목교역 지하2층 521동 201호,동물약국업
1619,도곡타워약국,37.4889623,127.0519645,서울특별시 강남구 도곡동 467-7 아카데미스위트,동물약국업
1620,보룡약국,37.6516926,127.0616256,서울특별시 노원구 상계동 728-5 상계동 국민은행 1층,동물약국업
1621,강동보건약국,37.5288545,127.1245569,서울특별시 강동구 성내동 550-4 동흔빌딩,동물약국업
1622,튼튼약국,37.5764888,126.8307466,서울특별시 강서구 마곡동 744,동물약국업
1623,제일약국,37.6396256,127.0741039,서울특별시 노원구 하계동 256-12 욱현하이브 105호,동물약국업
1624,청담라인약국,37.523876,127.0373533,서울특별시 강남구 신사동 653-16 한창상가,동물약국업
1625,강남차차약국,37.4998077,127.02948,서울특별시 강남구 역삼동 635-13,동물약국업
1626,하늘약국,37.6014124,127.0236475,서울특별시 성북구 돈암동 12-8,동물약국업
1627,뉴타운메디컬약국,37.64223339999999,126.9231143,서울특별시 은평구 진관동 20 은평뉴타운상림마을 821동 115호,동물약국업
1628,준온누리약국,37.556904,126.8642901,서울특별시 강서구 염창동 240-21 우림블루나인비즈니스센터 118호,동물약국업
1629,나무약국,37.4896023,127.1187913,서울특별시 송파구 문정동 150 올림픽훼밀리타운,동물약국업
1630,트리지움자연약국,37.5106681,127.0861994,서울특별시 송파구 잠실동 35-2 트리지움,동물약국업
1631,웰빙팜건강프라자약국,37.5033316,127.0905007,서울특별시 송파구 삼전동 48-11,동물약국업
1632,온누리자혜약국,37.4915157,126.8562289,서울특별시 구로구 개봉동 403-44,동물약국업
1633,홍일태평양약국,37.5290277,126.8636155,서울특별시 양천구 신정동 898-11 1층,동물약국업
1634,서초프라자약국,37.4823141,126.9973632,서울특별시 서초구 방배동 908-8,동물약국업
1635,종로약국,37.5727064,126.8118624,서울특별시 강서구 방화동 569-17,동물약국업
1636,은사약국,37.6510283,127.0772272,서울특별시 노원구 중계동 366-6 중계그랜드프라자 120호,동물약국업
1637,발산동물약국,37.5564224,126.8372613,서울특별시 강서구 내발산동 655-6 창대교회,동물약국업
1638,온누리천수약국,37.4756,126.8928971,서울특별시 금천구 가산동 153-1 동보빌딩,동물약국업
1639,제니스약국,37.566813,127.0170721,서울특별시 중구 흥인동 13-1 청계천 두산위브더제니스,동물약국업
1640,중앙프라자약국,37.4943185,127.152056,서울특별시 송파구 마천동 307-27,동물약국업
1641,삼거리약국,37.5033599,126.8636145,서울특별시 구로구 고척동 51-18 102호,동물약국업
1642,샘터약국,37.5493288,126.9629828,서울특별시 마포구 공덕동 9-1,동물약국업
1643,태영약국,37.5055816,126.889833,서울특별시 구로구 구로동 8-17 108-9호,동물약국업
1644,나무동물약국,37.5527978,126.8305873,서울특별시 강서구 내발산동 689-1 수명산씨티,동물약국업
1645,믿음약국,37.549667,126.8643038,서울특별시 양천구 목동 613-1 목동 RICH SQUARE 103호,동물약국업
1646,그라시움이화약국,37.5632814,127.1570594,서울특별시 강동구 고덕동 693 고덕그라시움(제1상가) 320호,동물약국업
1647,여름약국,37.469379,126.897064,서울특별시 금천구 독산동 291-5 시티렉스,동물약국업
1648,오렌지라임약국,37.528288,126.8637127,서울특별시 양천구 신정동 899-7,동물약국업
1649,종로우리약국,37.5706553,127.0000414,서울특별시 종로구 종로4가 182,동물약국업
1650,일신약국,37.5707193,127.0024891,서울특별시 종로구 종로5가 182-2,동물약국업
1651,대림약국,37.5865949,126.9003323,서울특별시 은평구 수색동 415-1 대림한숲타운아파트 상가동,동물약국업
1652,굿케어약국,37.5189108,127.0403991,서울특별시 강남구 논현동 111-20,동물약국업
1653,웃음가득약국,37.4800718,126.9027849,서울특별시 관악구 신림동 1668 관악농협 농산물백화점,동물약국업
1654,종로태평양약국,37.6121854,127.0770867,서울특별시 중랑구 묵동 238-13,동물약국업
1655,당산열린약국,37.5336313,126.9028962,서울특별시 영등포구 당산동6가 224 누가빌딩,동물약국업
1656,팜코리아약국,37.5322159,126.8641159,서울특별시 양천구 목동 793-1,동물약국업
1657,꿈이있는온누리약국,37.6445033,127.0160504,서울특별시 강북구 수유동 316-12 수목빌딩,동물약국업
1658,참약사강동메디컬약국,37.5300619,127.1324921,서울특별시 강동구 성내동 409-15 1층,동물약국업
1659,봄봄약국,37.5023789,127.1405111,서울특별시 송파구 오금동 121-6 한두리타워,동물약국업
1660,팜케어건강약국,37.6091977,127.0589604,서울특별시 성북구 석관동 250-10 서울치과의원,동물약국업
1661,스타약국,37.536135,127.132679,서울특별시 강동구 천호동 447-15 진넥스빌Ⅲ 203호,동물약국업
1662,우리들약국,37.6069167,127.0290946,서울특별시 성북구 하월곡동 88-481,동물약국업
1663,온유약국,37.5711641,127.0005429,서울특별시 종로구 종로5가 102,동물약국업
1664,하늘약국,37.5709593,126.9798759,서울특별시 종로구 종로1가 24 르메이에르종로타운1,동물약국업
1665,도담약국,37.4961608,127.131049,서울특별시 송파구 가락동 164-19,동물약국업
1666,콩이오빠동물약국,37.5041667,126.8634677,서울특별시 구로구 고척동 46-39 1층,동물약국업
1667,논현밝은약국,37.5075984,127.0240778,서울특별시 강남구 논현동 166 영흥빌딩,동물약국업
1668,오류동물약국,37.4919429,126.8422704,서울특별시 구로구 오류동 156 세명프라자 102호,동물약국업
1669,햇살약국,37.6494127,126.9302219,서울특별시 은평구 진관동 19 은평뉴타운상림마을 820동 113호,동물약국업
1670,세란약국,37.4850172,126.9173129,서울특별시 관악구 신림동 492-9,동물약국업
1671,유약국,37.5534679,126.8506527,서울특별시 강서구 화곡동 1097-2,동물약국업
1672,세화약국,37.5030493,126.9956925,서울특별시 서초구 반포동 18-4 래미안 퍼스티지 신반포역상가,동물약국업
1673,제이팜약국,37.4932624,127.0140155,서울특별시 서초구 서초동 1672-9,동물약국업
1674,코앞약국,37.4833499,127.0113236,서울특별시 서초구 서초동 1342-4 LG전자대리점 1호,동물약국업
1675,연두약국,37.4651959,127.0164423,서울특별시 서초구 우면동 721-1 우면프라자,동물약국업
1676,숲약국,37.5159658,127.0107453,서울특별시 서초구 잠원동 56-3 잠원연합상가,동물약국업
1677,푸른온누리약국,37.4755471,127.0432991,서울특별시 서초구 양재동 교원빌딩 1층,동물약국업
1678,목동동물약국,37.5245551,126.8692641,서울특별시 양천구 목동 408-174 동문빌딩 4층 2호,동물약국업
1679,새봄약국,37.5254891,127.0262606,서울특별시 강남구 신사동 575 극동타워,동물약국업
1680,화곡6동 동물약국,37.5509157,126.8520862,서울특별시 강서구 화곡동 1122-1,동물약국업
1681,서대문 동물약국,37.5776752,126.9222219,서울특별시 서대문구 남가좌동 344-32 남가좌프라자,동물약국업
1682,잠실수약국,37.50572770000001,127.0907532,서울특별시 송파구 삼전동 14-6,동물약국업
1683,양재소망약국,37.4721786,127.040712,서울특별시 서초구 양재동 244-3,동물약국업
1684,새현대약국,37.5586875,126.9366988,서울특별시 서대문구 창천동 33-9,동물약국업
1685,부자약국,37.4666594,126.8931015,서울특별시 금천구 독산동 332-41,동물약국업
1686,삼성온누리약국,37.5111835,127.0595914,서울특별시 강남구 삼성동 159 컨벤션별관,동물약국업
1687,모두약국,37.4981284,127.028303,서울특별시 강남구 역삼동 804 역삼역,동물약국업
1688,상도프라자약국,37.4967219,126.9528111,서울특별시 동작구 상도동 475-6 교동빌딩 1층,동물약국업
1689,역삼센터약국,37.5032173,127.0416201,서울특별시 강남구 역삼동 676 센터필드,동물약국업
1690,유은약국,37.5476903,127.0264276,서울특별시 성동구 금호동4가 97-1 리버마이다스빌 207호,동물약국업
1691,위드팜천사약국,37.5354581,127.1347329,서울특별시 강동구 길동 445-1 강동역에스케이허브 101호,동물약국업
1692,클래시안약국,37.5042179,126.9120626,서울특별시 영등포구 신길동 240-16 B1층1호,동물약국업
1693,유명한약국,37.5483456,127.021881,서울특별시 성동구 금호동3가 413,동물약국업
1694,태정온누리약국,37.6382514,126.9178214,서울특별시 은평구 진관동 70 메트로프라자 108109호,동물약국업
1695,팜스약국,37.5018927,127.0360738,서울특별시 강남구 역삼동 642-10 송암II빌딩,동물약국업
1696,홍익약국,37.556819,126.924589,서울특별시 마포구 동교동 166-12,동물약국업
1697,팜프라자약국,37.521919,126.9269466,서울특별시 영등포구 여의도동 35-3 지하1층,동물약국업
1698,서초 아트 약국,37.4856842,127.0114408,서울특별시 서초구 서초동 1583-10 서초아트자이상가 201-1호,동물약국업
1699,성지약국,37.4972935,126.9897203,서울특별시 서초구 방배동 725 방배삼호아파트 3호,동물약국업
1700,행복한약국,37.5144447,126.8987734,서울특별시 영등포구 문래동3가 55-20 에이스하이테크시티 1동 103호,동물약국업
1701,밝은약국,37.4979269,127.0431433,서울특별시 강남구 역삼동 732-18 홍진빌딩,동물약국업
1702,옥수벽산약국,37.5409275,127.0172442,서울특별시 성동구 옥수동 191-3 강변벽산빌라트,동물약국업
1703,바르다허약국,37.59686060000001,127.086118,서울특별시 중랑구 상봉동 100-7,동물약국업
1704,3층엠코약국,37.5985302,127.091488,서울특별시 중랑구 상봉동 500 현대엠코이노시티,동물약국업
1705,매일약국,37.4736468,126.9669089,서울특별시 관악구 봉천동 1642-18,동물약국업
1706,행복나눔약국,37.5071536,127.0107598,서울특별시 서초구 반포동 20-45 반포자이플라자,동물약국업
1707,바로약국,37.5706922,126.9815134,서울특별시 종로구 청진동 70 그랑서울,동물약국업
1708,솔약국,37.48414229999999,127.0099699,서울특별시 서초구 서초동 1533 서초한신리빙타워,동물약국업
1709,행복한온누리약국,37.5168111,126.8714669,서울특별시 양천구 신정동 282-2 메리트윈 상가동 105호,동물약국업
1710,뚝도약국,37.5331995,127.0760877,서울특별시 광진구 자양동 610-12 더블랙(THE BLACK)자양,동물약국업
1711,선동물약국,37.5440064,126.83888,서울특별시 강서구 화곡동 1031-8,동물약국업
1712,다나은약국,37.5090116,127.113825,서울특별시 송파구 송파동 141-7 지인빌딩,동물약국업
1713,소담약국,37.5761416,126.8987132,서울특별시 마포구 상암동 1623 한샘상암,동물약국업
1714,민들레약국,37.5764888,126.8307466,서울특별시 강서구 마곡동 801,동물약국업
1715,한마음약국,37.4896023,127.1187913,서울특별시 송파구 문정동 150 올림픽훼밀리타운,동물약국업
1716,사당 13번 약국,37.4770029,126.9822389,서울특별시 서초구 방배동 445-5,동물약국업
1717,별약국,37.5529212,127.011717,서울특별시 중구 신당동 372-31,동물약국업
1718,씨에이(CA)정문약국,37.5080052,126.9613288,서울특별시 동작구 흑석동 183-21,동물약국업
1719,마포공덕동물약국(마포삼성약국),37.5410934,126.9494321,서울특별시 마포구 도화동 179-14,동물약국업
1720,태승온누리약국,37.5378216,127.1242994,서울특별시 강동구 성내동 62-4,동물약국업
1721,건강온누리약국,37.5324851,126.8631625,서울특별시 강서구 화곡동 776-7,동물약국업
1722,을지로다정약국,37.5664794,126.9836634,서울특별시 중구 을지로2가 6 내외빌딩,동물약국업
1723,한마음온누리약국,37.6344448,127.0695975,서울특별시 노원구 하계동 280 미성아파트 상가동 105호,동물약국업
1724,애플약국,37.5417044,126.9703876,서울특별시 용산구 청파동3가 80-7 지하1층 애전빌딩,동물약국업
1725,신사역365 약국,37.5163915,127.0203073,서울특별시 강남구 신사동 667 신사역,동물약국업
1726,명일약국,37.55063519999999,127.1442975,서울특별시 강동구 명일동 324-1 202호,동물약국업
1727,둔촌 동물약국,37.5292842,127.1429723,서울특별시 강동구 둔촌동 75-6 104호,동물약국업
1728,늘푸른온누리약국,37.5288159,127.0347397,서울특별시 강남구 신사동 638-2,동물약국업
1729,새석관약국,37.6088099,127.0588007,서울특별시 성북구 석관동 266-21,동물약국업
1730,아이튼튼약국,37.6244964,127.0729685,서울특별시 노원구 공릉동 398-23 1층 좌측호,동물약국업
1731,참조은약국,37.6566575,127.0625433,서울특별시 노원구 상계동 593-3 한일빌딩 106호,동물약국업
1732,참약사엠바른약국,37.5877784,127.0860331,서울특별시 중랑구 면목동 118-1,동물약국업
1733,본초당약국,37.5475603,126.8333353,서울특별시 강서구 화곡동 1008-37 화곡동근린상가,동물약국업
1734,롱약국,37.55000769999999,126.9145039,서울특별시 마포구 서교동 393 합정역,동물약국업
1735,동인약국,37.4720675,126.9666288,서울특별시 관악구 봉천동 180-120,동물약국업
1736,포레나약국,37.5233079,126.9054725,서울특별시 영등포구 영등포동7가 208 포레나 영등포 센트럴,동물약국업
1737,송도약국,37.6384682,127.025711,서울특별시 강북구 수유동 191-15 야산빌딩,동물약국업
1738,공항샘동물약국,37.5640044,126.8107915,서울특별시 강서구 방화동 614-34 메디스타워,동물약국업
1739,압구정미약국,37.5254296,127.0266604,서울특별시 강남구 신사동 577 다보빌딩,동물약국업
1740,암사제일약국,37.5513132,127.1289593,서울특별시 강동구 암사동 500-23 LS지산빌딩,동물약국업
1741,스마일약국,37.5441984,126.9549142,서울특별시 마포구 신공덕동 15-75,동물약국업
1742,서초사랑약국,37.4918109,127.0270392,서울특별시 서초구 서초동 1755-1 리더스원 상가,동물약국업
1743,다온약국,37.6115357,127.0779997,서울특별시 중랑구 묵동 176-15 대길빌딩,동물약국업
1744,워너비사랑약국,37.4762991,126.9769154,서울특별시 관악구 남현동 1057-15,동물약국업
1745,바로여기약국,37.5034094,127.0359966,서울특별시 강남구 역삼동 668,동물약국업
1746,독일약국,37.4971868,126.8290926,서울특별시 구로구 궁동 283-3 청파빌딩 1층,동물약국업
1747,다온약국(광진구 동물약국),37.5629752,127.0808985,서울특별시 광진구 중곡동 241-17,동물약국업
1748,이수자이온누리약국,37.4839828,126.9804085,서울특별시 동작구 사당동 147-29 이수자이 1층 110호,동물약국업
1749,연합약국,37.5605395,126.9850662,서울특별시 중구 남산동1가 1-2,동물약국업
1750,기쁨약국,37.569915,127.0833275,서울특별시 광진구 중곡동 199-4,동물약국업
1751,토마스약국,37.4674622,126.89898,서울특별시 금천구 독산동 1028 대덕트윈빌,동물약국업
1752,다나스약국,37.497155,126.9158202,서울특별시 영등포구 신길동 4433,동물약국업
1753,싱싱온누리약국,37.517118,127.019696,서울특별시 강남구 신사동 502-11 영일빌딩,동물약국업
1754,로체사랑약국,37.4856647,127.1330623,서울특별시 송파구 장지동 834 로체프라자,동물약국업
1755,우주약국,37.5007656,127.0510012,서울특별시 강남구 대치동 907-15,동물약국업
1756,우리들약국,37.54817389999999,126.8629813,서울특별시 양천구 목동 546-4 성운빌딩,동물약국업
1757,라파약국,37.4971817,126.9523351,서울특별시 동작구 상도동 475 평강빌딩 1층,동물약국업
1758,마포 망원 동물약국,37.6027028,126.9160588,서울특별시 마포구 망원동 401-11 구앤윤브릭하우스,동물약국업
1759,우정약국,37.5062013,126.9613312,서울특별시 동작구 흑석동 86-117,동물약국업
1760,코끼리약국,37.5546089,127.1540692,서울특별시 강동구 명일동 46-3 고덕역 대명벨리온 110호,동물약국업
1761,산소망약국,37.5587972,126.8456384,서울특별시 강서구 등촌동 663-3,동물약국업
1762,공덕제일약국,37.5446204,126.9526393,서울특별시 마포구 공덕동 256-13 제일빌딩,동물약국업
1763,송파미소약국,37.520314,127.113281,서울특별시 송파구 신천동 20-6 파크리오,동물약국업
1764,휴베이스대학약국,37.4843604,126.9287832,서울특별시 관악구 신림동 1433-34,동물약국업
1765,대지약국,37.62545009999999,127.0178887,서울특별시 강북구 미아동 1359 롯데마트 삼양점,동물약국업
1766,선릉역 약국,37.5088263,127.0630673,서울특별시 강남구 삼성동 172-66 선릉역,동물약국업
1767,봄봄약국,37.6370754,127.0242121,서울특별시 강북구 수유동 230-10 용신빌딩,동물약국업
1768,송파하나약국,37.4973612,127.1477693,서울특별시 송파구 마천동 126,동물약국업
1769,메디칼약국,37.6668721,127.057533,서울특별시 노원구 상계동 649-2 고려프라자빌딩 206호,동물약국업
1770,신사라라약국,37.5177913,127.0227653,서울특별시 강남구 신사동 537-10,동물약국업
1771,신공덕약국,37.5423429,126.9533615,서울특별시 마포구 신공덕동 173 대우 월드마크마포,동물약국업
1772,메디팜삼현약국,37.5717563,126.972331,서울특별시 종로구 당주동 128-27 동원빌딩,동물약국업
1773,리엔약국,37.5523456,127.175784,서울특별시 강동구 상일동 490 고덕리엔파크3단지아파트 상가2동 203호,동물약국업
1774,프리미엄약국,37.6552207,127.0612826,서울특별시 노원구 상계동 713 롯데백화점 지하 1층,동물약국업
1775,정약국,37.4907764,126.8557234,서울특별시 구로구 개봉동 403-55 1층,동물약국업
1776,설약국,37.5608476,127.0392299,서울특별시 성동구 행당동 168-78,동물약국업
1777,현약국,37.5447592,127.0859475,서울특별시 광진구 구의동 234-9,동물약국업
1778,치료의빛선약국,37.5406379,127.0956739,서울특별시 광진구 구의동 199-6,동물약국업
1779,영광약국,37.496153,126.8930076,서울특별시 구로구 구로동 74-30 신구로현대아파트 상가동 103호,동물약국업
1780,아크로약국,37.5413152,126.9489731,서울특별시 마포구 도화동 563 마포아크로타워,동물약국업
1781,이레약국,37.55150769999999,127.1277099,서울특별시 강동구 암사동 503-23 태성프라자 109호,동물약국업
1782,41약국,37.5281164,126.8758458,서울특별시 양천구 목동 917-9 현대41타워,동물약국업
1783,나루셔틀약국,37.52050370000001,127.1066833,서울특별시 송파구 신천동 17-4 파크리오,동물약국업
1784,강동온누리약국,37.5456535,127.1431919,서울특별시 강동구 명일동 353-1 미래빌딩,동물약국업
1785,다올약국,37.5030226,127.0493021,서울특별시 강남구 역삼동 708-37,동물약국업
1786,이앤동물약국,37.5660664,126.9820222,서울특별시 중구 을지로1가 100-1 을지로입구역 2호선,동물약국업
1787,후문약국,37.5597877,127.0414053,서울특별시 성동구 행당동 12-8,동물약국업
1788,나은약국,37.5128411,126.9513372,서울특별시 동작구 본동 393-1,동물약국업
1789,바다약국,37.5598815,126.9163052,서울특별시 마포구 성산동 232-4,동물약국업
1790,제일약국,37.5532082,126.9063033,서울특별시 마포구 망원동 338-1,동물약국업
